{"type": "FeatureCollection", "crs": {"type": "name", "properties": {"name": "EPSG:4326"}}, "features": [{"type": "Feature", "id": 1, "geometry": {"type": "Polygon", "coordinates": [[[-79.8026431696253, 43.5805477743807], [-79.8065435252315, 43.5834037266016], [-79.8085750571617, 43.5850252393193], [-79.8093036968584, 43.5858636253901], [-79.8097349501785, 43.5865284408271], [-79.810174131131, 43.5875730228414], [-79.810329049195, 43.5882260795069], [-79.8024407926665, 43.5952477918325], [-79.800973090121, 43.5963083938574], [-79.7993725698641, 43.5972621578863], [-79.7976538897064, 43.5981003435858], [-79.7961771339395, 43.598692459743], [-79.7942849450829, 43.5993020273758], [-79.7923212117021, 43.5997773233381], [-79.790702820361, 43.6000590676766], [-79.7879264188719, 43.6003378332154], [-79.7899297868213, 43.601809255842], [-79.7780618462605, 43.6094285772449], [-79.7610277591793, 43.6145548891279], [-79.7337949872865, 43.6393503047965], [-79.7143377953378, 43.6503269923681], [-79.7095848828313, 43.6525644446379], [-79.7076434618056, 43.6536594512888], [-79.6906934615266, 43.6686897084111], [-79.6902925631783, 43.6694653439114], [-79.6907534483263, 43.669811928118], [-79.6904319942868, 43.6700369612284], [-79.6902110096252, 43.6700248955197], [-79.6896959327093, 43.6706206737803], [-79.6776011262167, 43.6940083170644], [-79.6725683040576, 43.700929298432], [-79.6731675144881, 43.7069016593943], [-79.6716246813438, 43.7082193516954], [-79.6612609796077, 43.7176197834156], [-79.661128676631, 43.7175202567317], [-79.6559542440505, 43.7219864535835], [-79.6560275115434, 43.7220673813288], [-79.6447415589124, 43.7322797813904], [-79.6392862824314, 43.7370847302268], [-79.6340425816577, 43.7332190191095], [-79.6322074816357, 43.734864617343], [-79.6302891922286, 43.7353146924602], [-79.620572659281, 43.7187772549476], [-79.6025825635149, 43.6877390721622], [-79.5950214725146, 43.6750291656759], [-79.5889655348239, 43.6646281948231], [-79.6088398648647, 43.6465487772435], [-79.6082359023464, 43.6460133754087], [-79.6079625656667, 43.6455598091256], [-79.6078663614897, 43.6452131466612], [-79.6075578845127, 43.6448000081136], [-79.607134935219, 43.6446130040202], [-79.6067517130205, 43.6445727924347], [-79.6056638846525, 43.6448967868391], [-79.6052602356627, 43.6447403217871], [-79.6049838545925, 43.6444533126622], [-79.6037330888999, 43.6444946021162], [-79.6031084435705, 43.644718731649], [-79.6027906663353, 43.6446932515968], [-79.6021700086275, 43.6444983360226], [-79.601932142825, 43.6441171558924], [-79.5991761142283, 43.643698195003], [-79.5985313825691, 43.6431484838203], [-79.5966891642968, 43.6430422847282], [-79.5959997980461, 43.6431089622772], [-79.5954512903269, 43.6432667304113], [-79.5933602908232, 43.6444456576279], [-79.5928081350456, 43.6446481965299], [-79.5923795092977, 43.6447113509701], [-79.5920153170102, 43.6446438327326], [-79.5915075308211, 43.6444066238288], [-79.5913659087216, 43.644179783695], [-79.5913039043057, 43.6434375416829], [-79.5901449661981, 43.6429879272269], [-79.5891855609831, 43.6430078018037], [-79.5885695278023, 43.6426826004271], [-79.5883204375504, 43.6423943274743], [-79.5881316080844, 43.6420134928382], [-79.5880990504436, 43.6418817415863], [-79.5882737143758, 43.6415882004041], [-79.5882091497614, 43.6413277927637], [-79.5873758608258, 43.6406114101201], [-79.587035552945, 43.6399507808553], [-79.5868253435753, 43.6391684813769], [-79.5862865637123, 43.6384699440983], [-79.5853235355917, 43.6374456482241], [-79.5854773882538, 43.6366566275076], [-79.5859403413237, 43.6355106427189], [-79.5855290791119, 43.6348911825579], [-79.5855625323731, 43.6342092943852], [-79.5857933455022, 43.6338067819499], [-79.5853728872368, 43.6331985347089], [-79.5851101345078, 43.6320712770034], [-79.5851255406149, 43.6313676266572], [-79.5860197425133, 43.6296541878102], [-79.5857495732933, 43.6290866153362], [-79.5853368567091, 43.6287862668789], [-79.5825320747452, 43.6279805938151], [-79.5821603797284, 43.6280112385932], [-79.5809636836328, 43.6277494209247], [-79.5805817666864, 43.6275747189053], [-79.5796891512127, 43.6269034689363], [-79.5770017763616, 43.6263310579885], [-79.5756455798957, 43.6255822392121], [-79.575010628195, 43.6255270049729], [-79.5744640752098, 43.6256212800386], [-79.573681128761, 43.6259738187436], [-79.5724703030643, 43.6261713570548], [-79.5700469349903, 43.6270315882654], [-79.5685935659635, 43.6268338570575], [-79.5683781355853, 43.6268894880451], [-79.5679869345504, 43.6271730587166], [-79.5676929581788, 43.6275370773567], [-79.5674432804287, 43.6280199016296], [-79.5669523331596, 43.6282120311101], [-79.5646331400142, 43.6282437161369], [-79.5642869823043, 43.6281501006162], [-79.5638670459601, 43.6278475184788], [-79.5637805840123, 43.6272638264084], [-79.5634166432531, 43.6266848845698], [-79.5636241109646, 43.6256036203411], [-79.5636160620596, 43.6253362805767], [-79.5635100985854, 43.6251839984442], [-79.5635372429783, 43.6250106844357], [-79.5636948730561, 43.624762328529], [-79.5640326297215, 43.6245378416858], [-79.5643470697153, 43.624562691071], [-79.564294694341, 43.6244152573475], [-79.565072523986, 43.624594962613], [-79.5653821894341, 43.6244683558209], [-79.5655266573964, 43.624254144785], [-79.5656715951776, 43.6239109482659], [-79.5656657139074, 43.623390362957], [-79.5659337262724, 43.6227717467977], [-79.5658872689992, 43.6224418981637], [-79.5655270930793, 43.6218387382955], [-79.565578352746, 43.6215531401816], [-79.5666283961766, 43.621067837672], [-79.5668108934182, 43.620525911148], [-79.5668331276197, 43.6190712988645], [-79.5667290568958, 43.6187559850066], [-79.5663920251708, 43.6183062418005], [-79.5666589999817, 43.6177845023776], [-79.5665984768877, 43.6177387091553], [-79.5671024236773, 43.6172983766748], [-79.56750916377, 43.6171734168084], [-79.5678202305899, 43.6166709635733], [-79.5678656431225, 43.6160475612061], [-79.568348386078, 43.6143936577877], [-79.5681605977595, 43.6141525592063], [-79.567673886047, 43.6137961555314], [-79.5666302107735, 43.6134379930426], [-79.5659787201901, 43.6133798111353], [-79.5651918058827, 43.6134460123426], [-79.5646107351327, 43.6133354733845], [-79.5641035930357, 43.6130355756502], [-79.5639667616516, 43.6128145695168], [-79.5639538124368, 43.6125677573559], [-79.5641998259588, 43.6122884039399], [-79.5654948363741, 43.611650347312], [-79.5662783155238, 43.6109928917713], [-79.5670313893962, 43.6107694735353], [-79.567164040021, 43.6106664998885], [-79.5672991017239, 43.6103820643469], [-79.567235575562, 43.6102495048661], [-79.5672781404351, 43.6098620695634], [-79.5672184905036, 43.6094749023447], [-79.5671019358921, 43.6091168721768], [-79.5672543602329, 43.609033516135], [-79.5666091910941, 43.6087888023861], [-79.5661556793179, 43.6087754299965], [-79.5663283444987, 43.6085799569199], [-79.5661597127535, 43.6085433708542], [-79.5655361876232, 43.6086900154872], [-79.5652456868334, 43.6085467375433], [-79.5653048229286, 43.608479796593], [-79.5648812987131, 43.6083870986433], [-79.5647664850367, 43.6082694319148], [-79.5647164812147, 43.6080333139775], [-79.5653625603468, 43.6072558833513], [-79.5652781312865, 43.6071627373018], [-79.5647619224933, 43.6069353871198], [-79.5645920160388, 43.6070979614865], [-79.5628043524537, 43.6068175939638], [-79.5625550897253, 43.6067412889938], [-79.5622945854794, 43.6063989317831], [-79.5619166319001, 43.6062059266629], [-79.5606351321467, 43.6057927489081], [-79.560529070756, 43.6057171113241], [-79.5605199115334, 43.6054010938793], [-79.5601633387561, 43.6052825568248], [-79.5590061559566, 43.6044912222846], [-79.559168138372, 43.6043839889067], [-79.5590086029674, 43.6042801118578], [-79.5589420629577, 43.6039505807013], [-79.5577697381557, 43.6033085287252], [-79.5566832365993, 43.6028265494085], [-79.5561311625684, 43.6021704610671], [-79.5561500298843, 43.6012278942032], [-79.5560250751266, 43.6008686674213], [-79.555922031177, 43.5999936278225], [-79.5557966227701, 43.5997123522153], [-79.5555827087481, 43.5995643429828], [-79.5541952868429, 43.5990516982172], [-79.5537296603868, 43.5984817010828], [-79.5536015525424, 43.597991650678], [-79.5539117560814, 43.5964227335297], [-79.5537821741016, 43.5958619191417], [-79.553265208927, 43.5955380032483], [-79.5527857331441, 43.5954486020324], [-79.5503005843348, 43.5952830711509], [-79.5492316978428, 43.5953828201612], [-79.5488319610161, 43.5950982726639], [-79.5486034826084, 43.5946933123694], [-79.5485785822071, 43.5941987270259], [-79.5488115584794, 43.593343437184], [-79.5495322139498, 43.5923452988096], [-79.5496033551304, 43.5912691283039], [-79.5494374677384, 43.5905613991468], [-79.549366250201, 43.59058282526], [-79.5493183565217, 43.5904347337123], [-79.5492079697429, 43.5903705235088], [-79.5486152783864, 43.5903132789823], [-79.548209752816, 43.5900016115034], [-79.5472042119247, 43.5894763798065], [-79.5462479813559, 43.5886386127285], [-79.548008714347, 43.586881208716], [-79.5473419739634, 43.5866971938734], [-79.5445833034214, 43.5850553053961], [-79.5448543143628, 43.5819672067535], [-79.5448096573134, 43.5818334595485], [-79.5435235258464, 43.5803699457001], [-79.5432235720848, 43.579703256408], [-79.5432761792245, 43.5794611806156], [-79.5436520055933, 43.5792503624139], [-79.5440580908141, 43.5776609661501], [-79.5431398050829, 43.5771608126759], [-79.5429927598541, 43.5769901280541], [-79.5430537563602, 43.5767932358215], [-79.5433699525604, 43.5765000809632], [-79.5434040831513, 43.5761892725968], [-79.5429283263937, 43.5756246297576], [-79.5426168463487, 43.5751009705629], [-79.5428112732172, 43.5747954753234], [-79.543213280985, 43.5746486153145], [-79.5438453904161, 43.5746200916643], [-79.5447555284277, 43.5739292370256], [-79.545756974798, 43.5740077736008], [-79.5458989670034, 43.5737659833984], [-79.5457742718588, 43.5732946524823], [-79.5460001918645, 43.5721950341316], [-79.5459675147477, 43.5719750846219], [-79.5458905399077, 43.5718352110014], [-79.5442532327416, 43.570679916266], [-79.544224576484, 43.570589285115], [-79.5422116810027, 43.5693491333208], [-79.5421352631181, 43.5694271961812], [-79.5419256717893, 43.5693533307552], [-79.5409141624912, 43.568716162195], [-79.5408687885862, 43.5686095517391], [-79.541020762871, 43.5686266905496], [-79.5419007255739, 43.5691809961836], [-79.5418787177477, 43.5690624704408], [-79.5420335378953, 43.5690718722437], [-79.5442867416983, 43.5705056081973], [-79.5445595609484, 43.570597396039], [-79.546293831368, 43.5718667753877], [-79.5470843703776, 43.5719941450484], [-79.5479627376725, 43.5720193838659], [-79.5484665425282, 43.5719317622533], [-79.549389608195, 43.5712953355979], [-79.5494909938546, 43.5710922371421], [-79.5502382403557, 43.5706851178716], [-79.5501639936992, 43.5706262261933], [-79.550541327441, 43.5703684074796], [-79.5511677074173, 43.5701711746765], [-79.551435288591, 43.5701877552583], [-79.5520235602362, 43.5697688857314], [-79.5518865985965, 43.5697188194971], [-79.5509792471589, 43.5699191935293], [-79.5501611083105, 43.5701978162035], [-79.5480683112779, 43.5716984291997], [-79.5470470085466, 43.5717235587999], [-79.5449917368384, 43.5702661476667], [-79.5450129505538, 43.5701570842699], [-79.5419457087117, 43.5678512905246], [-79.5420638353749, 43.5677678675527], [-79.5451126904998, 43.5700584200905], [-79.5452314953911, 43.5700087569784], [-79.5467670099607, 43.5711749011788], [-79.5474557294244, 43.5713689474164], [-79.547923112087, 43.5713955734441], [-79.5491090634335, 43.5706392712218], [-79.5502707162499, 43.5697630344869], [-79.5510466082288, 43.5695251630175], [-79.5530410208731, 43.5681642188785], [-79.5546137328821, 43.564222875809], [-79.5554857859189, 43.5630957871275], [-79.5556800843283, 43.5630072516397], [-79.555741846199, 43.5631021714832], [-79.5554446538586, 43.5635562173447], [-79.5548389737614, 43.564252058559], [-79.5546498622245, 43.5647451949716], [-79.554680575624, 43.5649025289046], [-79.5545325287736, 43.5650022332268], [-79.5544456742621, 43.5652185631012], [-79.5534257306818, 43.5680998007216], [-79.5534515015506, 43.5684057269609], [-79.5546262931264, 43.5692879733678], [-79.5547069807035, 43.5694589531837], [-79.5547516539226, 43.5698805116171], [-79.5545988154585, 43.5701760866947], [-79.554685872091, 43.5702471055681], [-79.5546303508165, 43.5705123328149], [-79.5544127195659, 43.5710258864952], [-79.5540190580455, 43.5711958740442], [-79.5542663121409, 43.5713816180487], [-79.5547791792012, 43.5709880182032], [-79.5549803164849, 43.5703262424778], [-79.5550944106108, 43.5703055088245], [-79.5551305399532, 43.5701850886975], [-79.5552836317423, 43.5703250989249], [-79.5552904445654, 43.5701371719405], [-79.555895308094, 43.5685692678348], [-79.5558298271979, 43.5684837884404], [-79.5559365470537, 43.5681999462543], [-79.5563321848678, 43.567861147483], [-79.5567043317371, 43.5679831519438], [-79.5568914535058, 43.5679390567113], [-79.5569603848308, 43.5679867604265], [-79.556814581972, 43.5679411623119], [-79.5567394405934, 43.5680055240119], [-79.5583486978647, 43.5687772459257], [-79.5588477784804, 43.5686196832422], [-79.559065575021, 43.5684269298988], [-79.5590639760198, 43.5683031325192], [-79.5588354949172, 43.5680401397786], [-79.5584704384503, 43.5678709354464], [-79.5577944337412, 43.5677293684588], [-79.5573442493247, 43.5674724967512], [-79.5569348205744, 43.5677810713648], [-79.5573016566039, 43.5674468147273], [-79.5571872202198, 43.5673566688296], [-79.5580620481525, 43.5665172589427], [-79.5575784994081, 43.566261178116], [-79.5574334915583, 43.565955753245], [-79.5578247446955, 43.5658423756635], [-79.5577921592069, 43.5657829097088], [-79.5576466779449, 43.5658004574406], [-79.5577792046021, 43.5657592682018], [-79.5572645238433, 43.5648199844895], [-79.5580362018252, 43.5640979449946], [-79.5580794988252, 43.563796761655], [-79.5579536295826, 43.5636342174125], [-79.5572057039551, 43.5632181130367], [-79.5565258993723, 43.5635465484511], [-79.556140059483, 43.5638513053202], [-79.5559798359689, 43.5638257805782], [-79.5559490884334, 43.5637353630326], [-79.5573968627526, 43.5625453949241], [-79.5577550426159, 43.5623892688402], [-79.5585579846647, 43.5623676582405], [-79.559085981151, 43.5625289652094], [-79.559469478234, 43.562797848254], [-79.5599811613148, 43.5635751359293], [-79.5599365186384, 43.5637652483683], [-79.5600785872006, 43.5638467136924], [-79.5599031013099, 43.5637775378556], [-79.5597812017224, 43.5638839986889], [-79.5599393698911, 43.5639735750176], [-79.5598139174668, 43.5639436715594], [-79.5596216519448, 43.564148082946], [-79.5596163725459, 43.564368788767], [-79.5598070103205, 43.564495336552], [-79.5600464445814, 43.5645373533208], [-79.5608568174942, 43.5643758701229], [-79.5611882194772, 43.5644434329464], [-79.5613055277752, 43.5643359309785], [-79.5612046263076, 43.5644656748436], [-79.5613591985202, 43.5645522586892], [-79.5615064144289, 43.564453262473], [-79.5614530482129, 43.5645419058408], [-79.5615089665427, 43.5647485003215], [-79.5619353132647, 43.56510728137], [-79.5619782096162, 43.5653933707465], [-79.5614532152995, 43.5660715415519], [-79.5606172395028, 43.5665879723039], [-79.5604900883643, 43.567045145459], [-79.5605445235755, 43.5672482848993], [-79.5607421834808, 43.5673865836114], [-79.5612446067276, 43.5674234107962], [-79.5614279322158, 43.5672898447771], [-79.5621150769329, 43.5662945445082], [-79.5635115951786, 43.5653727427951], [-79.5635831190415, 43.5650713640462], [-79.5635424523086, 43.5647911020865], [-79.5634295933662, 43.5645810351072], [-79.5621193627951, 43.5635312379561], [-79.561770677226, 43.5635460693676], [-79.560706055935, 43.5631505449333], [-79.5605098387241, 43.5629949105714], [-79.5605313399004, 43.5628838375886], [-79.5621570848505, 43.5618032360247], [-79.5623657715758, 43.5619091340237], [-79.562514923354, 43.5623335951183], [-79.5628361644929, 43.5628126167052], [-79.563795763744, 43.5638191281177], [-79.5649665829696, 43.563901840541], [-79.5659084180359, 43.5636656988723], [-79.5663285232634, 43.5632929506666], [-79.5665664501512, 43.5632471738983], [-79.5668869510783, 43.5628879697291], [-79.567015122703, 43.5626161480985], [-79.567055157022, 43.5620550669065], [-79.5682335310791, 43.5602724061252], [-79.5682316580917, 43.5601486349504], [-79.5683291854872, 43.5601676060314], [-79.5685733448865, 43.5599814772253], [-79.5703426621785, 43.5581650580688], [-79.571429372144, 43.5572673216951], [-79.5722857271212, 43.556774341507], [-79.5739319689311, 43.5563000919668], [-79.5746561080681, 43.5558474601034], [-79.5749554590601, 43.5558140345419], [-79.5758070017624, 43.5554162191992], [-79.5766965764388, 43.5546994822217], [-79.5771180587835, 43.554775551753], [-79.5777527661425, 43.554578648094], [-79.5787339752661, 43.5539425094393], [-79.5789003845792, 43.5539894215156], [-79.5788982807248, 43.5541081800371], [-79.5790027889283, 43.5541935776182], [-79.5794288832238, 43.5541104176294], [-79.580743570337, 43.5529552542979], [-79.5809809977616, 43.5523702247876], [-79.5745661938947, 43.5486790216244], [-79.574818615998, 43.5484080793247], [-79.5762374412088, 43.5474648626544], [-79.5764206499161, 43.5474697713152], [-79.5763501133017, 43.5475826411036], [-79.5748127598806, 43.5485604262456], [-79.5747371441916, 43.5486803609151], [-79.5812308030724, 43.5523602083916], [-79.581869940024, 43.5523574889577], [-79.5823085990554, 43.5519099903421], [-79.5822270634686, 43.5518624203837], [-79.582416834369, 43.5516939622979], [-79.579299454856, 43.5498872560847], [-79.5799829335483, 43.5492538122243], [-79.5810690236763, 43.5494328513403], [-79.5811563587865, 43.549353446083], [-79.5809945605258, 43.5492658774436], [-79.5810566359085, 43.5491295450781], [-79.5803988041175, 43.5484132066756], [-79.5799576387866, 43.5482663266171], [-79.5770339782696, 43.5482075250103], [-79.5764763625317, 43.5481770485769], [-79.5764876327953, 43.5480892724822], [-79.5804381566152, 43.548183273042], [-79.5807592207859, 43.5487155724637], [-79.5814935890391, 43.5492919448459], [-79.5823308251721, 43.5495951513268], [-79.583869728187, 43.5498549880868], [-79.5847365260794, 43.5502837107252], [-79.5842487435751, 43.5507631412752], [-79.5851085759307, 43.5512523287262], [-79.5855326966275, 43.551249553251], [-79.5857162359148, 43.5511283528191], [-79.5857840677019, 43.5509832431105], [-79.5857422610069, 43.5507242406741], [-79.585191531754, 43.5504081968559], [-79.5852153218377, 43.5503619942637], [-79.5857945770924, 43.5506744652646], [-79.5859701591029, 43.550663894528], [-79.5863829215012, 43.550849538425], [-79.5867455579067, 43.550523248735], [-79.5856393841439, 43.549914495806], [-79.5854182557519, 43.5499565006066], [-79.5850303874667, 43.5497346924531], [-79.5849479508697, 43.5497810010007], [-79.5842209667682, 43.5493406210684], [-79.5835356824621, 43.5491672239727], [-79.5834877321889, 43.5490538193551], [-79.5836886673516, 43.5483019902663], [-79.5838034136545, 43.5481826017634], [-79.5835745336998, 43.5476945040803], [-79.5825329703656, 43.5475928113024], [-79.5824512775736, 43.5476484504631], [-79.5824271128925, 43.5479396140534], [-79.5823184984898, 43.5479304342322], [-79.5822624993116, 43.547619944629], [-79.5814208102297, 43.5472965114293], [-79.5812242211163, 43.5470934264725], [-79.5812058757216, 43.5468915232446], [-79.5813411673933, 43.5467224170835], [-79.5814345688266, 43.54679274999], [-79.5813822150119, 43.5469766764685], [-79.5817317620653, 43.5469196335494], [-79.5818165953675, 43.5468303105413], [-79.5818826583718, 43.5464255165118], [-79.5824249811903, 43.5459331990233], [-79.5825005636417, 43.5452017366783], [-79.582428712792, 43.5450586175254], [-79.5825268249907, 43.5450356906393], [-79.5826567204825, 43.5451764768582], [-79.5827334860151, 43.5451573122306], [-79.5834258553338, 43.5448678899975], [-79.5835833048503, 43.5446777732795], [-79.5836358553961, 43.5441495501384], [-79.5829571853855, 43.5435721811686], [-79.5824802212921, 43.543375162769], [-79.5825602629805, 43.5432887952766], [-79.5828401762264, 43.5433094646484], [-79.5841255333457, 43.5443515628253], [-79.5842950678977, 43.544309427147], [-79.5846203325907, 43.544161213976], [-79.585291135156, 43.5431803980023], [-79.5853396747241, 43.5430267657873], [-79.5850256820913, 43.5429501220881], [-79.5852304907895, 43.5429788300338], [-79.5877488000093, 43.5414613780984], [-79.5879127470402, 43.541317055822], [-79.5881470465309, 43.5408172686698], [-79.588335736758, 43.5406698478596], [-79.5887599904054, 43.5404428429921], [-79.5890014566555, 43.5405203227347], [-79.5893643383011, 43.5404566075963], [-79.5900792634182, 43.5394724851758], [-79.5913587195044, 43.5392871774176], [-79.5928001229716, 43.5398448291816], [-79.5944400289638, 43.5394174238879], [-79.5958568769827, 43.5385399659406], [-79.5963251894016, 43.5379406295436], [-79.5962899431031, 43.5375152861577], [-79.5970242376945, 43.5370957551162], [-79.5970983945195, 43.5366256911044], [-79.5972146580768, 43.5364896792059], [-79.5973868426589, 43.5364670662057], [-79.5972998758579, 43.5365849410322], [-79.597593052729, 43.5366508854781], [-79.5978440932233, 43.5365062625448], [-79.5982648641024, 43.5358514285111], [-79.5981301985565, 43.535772194871], [-79.5983744046682, 43.5357086967843], [-79.5986828915266, 43.5351317790386], [-79.5984635400022, 43.5348869263274], [-79.5988402422284, 43.5348427209101], [-79.5989923593454, 43.5346810825902], [-79.5991927330611, 43.5341507556044], [-79.598998598145, 43.5339996057308], [-79.5991448959756, 43.5337435788247], [-79.5989923377858, 43.5337184249164], [-79.5989354196311, 43.5339359540366], [-79.5988663688301, 43.5339260413821], [-79.598924657814, 43.5336902544022], [-79.5991371902271, 43.5336850287626], [-79.5994765494869, 43.5329410015551], [-79.5997294899181, 43.5318516896115], [-79.6001509596864, 43.5311550033855], [-79.6014855426866, 43.5283315366707], [-79.6015572003985, 43.527676986423], [-79.6011551540032, 43.5275370112647], [-79.6011098914893, 43.5274455609912], [-79.6011841525189, 43.5273695761609], [-79.6015246023335, 43.5273697240104], [-79.6016600790581, 43.5271091833028], [-79.6017500812664, 43.5265289553071], [-79.601339199042, 43.5263656715897], [-79.6012626796478, 43.5262655711634], [-79.6013138899072, 43.5261749637403], [-79.6017427105895, 43.5261021382291], [-79.6018062628026, 43.5259912564809], [-79.6019805611205, 43.5247276468711], [-79.6015671672066, 43.5244684143884], [-79.6016320659943, 43.5243667983747], [-79.6020333380418, 43.5242152807173], [-79.6021595926617, 43.5238659256129], [-79.6021475309824, 43.522233084401], [-79.6018282814085, 43.5221405441513], [-79.6022182221071, 43.5219686874983], [-79.6022106969199, 43.520461557104], [-79.6020918983169, 43.5199936824205], [-79.6022281422027, 43.5190222620661], [-79.6022115566077, 43.517603238262], [-79.6021061860214, 43.5174516612753], [-79.6020094320754, 43.5155956365287], [-79.6018975855344, 43.515114629283], [-79.6019859231645, 43.5148272784487], [-79.6014847162365, 43.5117149919128], [-79.6015434983955, 43.5114685926194], [-79.6014815388954, 43.5109703490647], [-79.6012088490027, 43.5103618443799], [-79.6011062497191, 43.5098306579288], [-79.6018783112817, 43.5084567920507], [-79.6020948295196, 43.5077126295774], [-79.6021872985017, 43.5070359411134], [-79.6021255060883, 43.506538855899], [-79.6027543106175, 43.5058890392446], [-79.6028603324823, 43.5056781089083], [-79.603117591115, 43.5043577217481], [-79.6034097349235, 43.5035141869916], [-79.6035995588245, 43.5023813583498], [-79.6042824841546, 43.4997977069976], [-79.6050590444801, 43.4982596358947], [-79.6064440615953, 43.4965617739894], [-79.6036507861519, 43.494723171817], [-79.6025741903182, 43.4928057475505], [-79.6027585066482, 43.4927818649699], [-79.6037523820173, 43.4945976838038], [-79.6039748956115, 43.4945362375079], [-79.6040193002343, 43.4946233336549], [-79.6037937296732, 43.4946880271449], [-79.6065444097007, 43.4965028007589], [-79.6072821655008, 43.4960070129341], [-79.6083456261684, 43.4955205320035], [-79.6093382367096, 43.4952132518089], [-79.6098850349349, 43.4951351729833], [-79.6110789875756, 43.4945662301377], [-79.6118482859203, 43.4943519347389], [-79.612447536775, 43.4940804824689], [-79.6133117340446, 43.4935379190094], [-79.6143430044824, 43.4925939764356], [-79.6145646601855, 43.4918393169538], [-79.6152532574783, 43.4903173830453], [-79.6152750820481, 43.4901881808447], [-79.6151476218891, 43.4899288397393], [-79.6154113133576, 43.4893617658851], [-79.6155310596833, 43.4888776141652], [-79.6153124843033, 43.4885274731325], [-79.6141037292233, 43.4877101208111], [-79.6138047321675, 43.4873723386864], [-79.6123081110564, 43.4862253539613], [-79.6123271733067, 43.4861020799338], [-79.6095525190409, 43.4840368279608], [-79.6099024451834, 43.4835817745373], [-79.6100376667865, 43.4835719578964], [-79.6106677352453, 43.483990769405], [-79.6106591257916, 43.4843749989504], [-79.6108432112546, 43.484702459955], [-79.6124977499044, 43.4859477959151], [-79.6128978667185, 43.4860334686083], [-79.6154633608468, 43.4878426906707], [-79.6158629925707, 43.4879670541219], [-79.616843021308, 43.4876404365792], [-79.6173017370246, 43.4873999527246], [-79.6174657496326, 43.4870727220733], [-79.6179165035809, 43.4867243485742], [-79.6182227141084, 43.4866323919478], [-79.6185715631709, 43.4866785306111], [-79.6187287440911, 43.4865973181715], [-79.6189552111709, 43.4863720338167], [-79.6187552425954, 43.4861600459171], [-79.618862201403, 43.4861102667516], [-79.6190823075122, 43.486175325224], [-79.6192732372394, 43.4859910262695], [-79.6191376608017, 43.4857815652421], [-79.6194990521422, 43.4858140115636], [-79.6199830356712, 43.4854176538695], [-79.6201740166023, 43.4853622114901], [-79.6206925726933, 43.4846042327247], [-79.6210661299177, 43.4845074627195], [-79.6215459919762, 43.4841714635695], [-79.6223773648053, 43.4838127939661], [-79.6232651221899, 43.4830970570064], [-79.6236472601219, 43.4826819324109], [-79.62362885454, 43.4825812758851], [-79.6237187058314, 43.4826056448332], [-79.6238574488304, 43.4824885340463], [-79.6240785727308, 43.4821716177124], [-79.6239127527125, 43.482060510544], [-79.6240627848397, 43.4819667602083], [-79.6243970973643, 43.4820960940611], [-79.6245908927171, 43.4820390543092], [-79.6249040840527, 43.481697235086], [-79.6250740650674, 43.4813584572579], [-79.64567984743, 43.4964986223621], [-79.6816723054573, 43.5227622981203], [-79.6972805496886, 43.508319232457], [-79.7158191441907, 43.5220106733388], [-79.7160133222259, 43.5221236891465], [-79.7161666924927, 43.5219838281206], [-79.7275347152081, 43.530382683028], [-79.7287752490895, 43.5306089728849], [-79.7304928836083, 43.5311857730328], [-79.7326133541415, 43.5320888410232], [-79.7351136180038, 43.5333123373727], [-79.7352942242917, 43.5331486812641], [-79.7421969804445, 43.5367909052581], [-79.7438905877244, 43.5377703703829], [-79.7458970243188, 43.5390641545999], [-79.7559624799907, 43.5464078023118], [-79.7578196408394, 43.5479764270819], [-79.7608541687338, 43.5507223284898], [-79.7626147795541, 43.5521184354592], [-79.7648473077325, 43.553633240249], [-79.768608145992, 43.5558162766279], [-79.7706666857712, 43.5571437520155], [-79.7846974353629, 43.567409071108], [-79.7884465640827, 43.5704905897517], [-79.7899356662949, 43.5716170467375], [-79.7957090685573, 43.5754609023885], [-79.8026431696253, 43.5805477743807]]]}, "properties": {"name": "Mississauga"}}]}