{"type": "FeatureCollection", "features": [{"type": "Feature", "properties": {"name": "Clarkson GO"}, "geometry": {"type": "Point", "coordinates": [-79.632442623374, 43.5119103415885]}}, {"type": "Feature", "properties": {"name": "Cooksville GO"}, "geometry": {"type": "Point", "coordinates": [-79.6237033061985, 43.5829672255988]}}, {"type": "Feature", "properties": {"name": "Dixie GO"}, "geometry": {"type": "Point", "coordinates": [-79.5777223479839, 43.6080382191522]}}, {"type": "Feature", "properties": {"name": "Erindale GO"}, "geometry": {"type": "Point", "coordinates": [-79.6667884687996, 43.5670119688702]}}, {"type": "Feature", "properties": {"name": "Lisgar GO"}, "geometry": {"type": "Point", "coordinates": [-79.7885452867142, 43.5907802883338]}}, {"type": "Feature", "properties": {"name": "Malton GO"}, "geometry": {"type": "Point", "coordinates": [-79.6382340572238, 43.7051645844538]}}, {"type": "Feature", "properties": {"name": "Meadowvale GO"}, "geometry": {"type": "Point", "coordinates": [-79.7543587435274, 43.5975756722622]}}, {"type": "Feature", "properties": {"name": "Port Credit GO"}, "geometry": {"type": "Point", "coordinates": [-79.5868713402201, 43.5559800838004]}}, {"type": "Feature", "properties": {"name": "Streetsville GO"}, "geometry": {"type": "Point", "coordinates": [-79.7088636655055, 43.5755657503103]}}]}