{"type": "FeatureCollection","features": [{"type": "Feature","properties": {"name": "Dundas BRT","status": "proposed","note": "Dundas Connects / Dundas Street Bus Rapid Transit through Mississauga","source": "City of Mississauga Future Transit (Dundas_Street_Bus_Rapid_Transit)","source_url": "https://www.dundasconnects.ca/","arcgis": "https://services6.arcgis.com/hM5ymMLbxIyWTjn2/ArcGIS/rest/services/Future_Transit_Dec17/FeatureServer/18"},"geometry": {"type": "LineString","coordinates": [[-79.6988634912624,43.5066515712377],[-79.6847007831281,43.5200038530532],[-79.6679600631987,43.5353746341747],[-79.6623800650468,43.5400802248308],[-79.6615677198068,43.5407995397267],[-79.6615091905647,43.540857906977],[-79.6614140592267,43.5409413371349],[-79.6613000536254,43.5410466053477],[-79.6612262226169,43.5411121865282],[-79.6611410828115,43.5411908712496],[-79.661015734293,43.541296710445],[-79.6609166402554,43.5413801045701],[-79.6608112837015,43.5414667567626],[-79.6606996681371,43.5415559476179],[-79.6606057045089,43.5416300868275],[-79.6605000512491,43.5418142245157],[-79.66037339708,43.5418106180856],[-79.6602754982913,43.5418842291844],[-79.6601522703055,43.5419701418701],[-79.6600360332213,43.5420498974219],[-79.6599149708098,43.5421297700669],[-79.659794941457,43.5422068012925],[-79.6596734667954,43.5422826260021],[-79.6595505706583,43.5423572300642],[-79.6594262744043,43.5424305993179],[-79.6593179887526,43.5424927426052],[-79.6592797658608,43.542515795935],[-79.657796137193,43.5432837615758],[-79.6558613566966,43.5442728651891],[-79.6551266596379,43.5446416462557],[-79.653915667916,43.5452462761775],[-79.6537108162488,43.5453493036048],[-79.6535924293455,43.5454219157809],[-79.653459467837,43.5455050827385],[-79.6532758684846,43.5456252919253],[-79.652972495216,43.5458521657086],[-79.652698015266,43.5460594774567],[-79.6516189357754,43.5468919401576],[-79.6516071683704,43.546901104388],[-79.6515628625388,43.5469363901602],[-79.6515424854902,43.5469526110816],[-79.6514817353503,43.5470027261771],[-79.6514221603371,43.547053652866],[-79.6513638323773,43.5471053298703],[-79.6513067614726,43.5471577528081],[-79.6512509731183,43.5472108886667],[-79.6511964948834,43.5472647224663],[-79.6511432990612,43.5473192754918],[-79.6510924253961,43.5473734417051],[-79.6510706409117,43.5473976955952],[-79.6510106172598,43.5474662053729],[-79.6509533479844,43.5475338742262],[-79.6508975325481,43.5476021787891],[-79.6508431911768,43.5476711003941],[-79.650790318783,43.5477406452859],[-79.6507389346364,43.5478107821797],[-79.650689066811,43.5478814735916],[-79.6506407138119,43.5479527312113],[-79.6505938849087,43.5480245281379],[-79.6505486080956,43.5480968304881],[-79.6505048782256,43.5481696472071],[-79.6504627095394,43.548242950552],[-79.6504221058747,43.5483167351675],[-79.6503830815529,43.5483909697099],[-79.6503456662287,43.5484656014069],[-79.6503098882392,43.5485405810719],[-79.6503037945762,43.5485540323737],[-79.6502723110597,43.5486234549806],[-79.6495393374891,43.5502262454243],[-79.649481780139,43.5503497462742],[-79.6493963020931,43.5505292648168],[-79.6493086459408,43.5507087836653],[-79.6492190642229,43.5508878033705],[-79.6491275486834,43.5510663049219],[-79.6490334960181,43.5512454697247],[-79.6489555214708,43.5513892907297],[-79.6489430646873,43.5514139038509],[-79.6488232554408,43.5516318183878],[-79.6487732564616,43.5517029251513],[-79.6487095553252,43.5517913171431],[-79.6484045862722,43.5522212243548],[-79.6481194775514,43.5525413905592],[-79.6478375452389,43.5528326454621],[-79.6475314620903,43.55311529414],[-79.6342676013326,43.5648962465497],[-79.6290789962315,43.5692920322108],[-79.6162329371388,43.5803281684764],[-79.5966236264998,43.5976909529774],[-79.5847083929241,43.6086108561543],[-79.5814872270709,43.6113591116198],[-79.5737469567901,43.6186813916377],[-79.5679386930678,43.6242203481331],[-79.5673344479717,43.6248085762186],[-79.5668336240064,43.6252923337237],[-79.5665420707982,43.6255651856768],[-79.5664004741759,43.6256925319776],[-79.5662401558721,43.625834305305],[-79.5660250716701,43.6259982883926],[-79.565809985058,43.626162271039],[-79.5654760303333,43.6263672169097],[-79.5651554483367,43.6265393139456],[-79.5647930879951,43.6267005633318],[-79.5646285781297,43.6267612118639]]}}]}