{"type": "FeatureCollection", "features": [{"type": "Feature", "properties": {"name": "Derry LRT / BRT", "status": "proposed", "note": "Proposed rapid transit along Derry Road from Malton GO to Winston Churchill", "source": "City of Mississauga Major Roads (Derry Road East/West)"}, "geometry": {"type": "LineString", "coordinates": [[-79.7419475949412, 43.6279865356387], [-79.7418844349917, 43.6280521863686], [-79.7418196611516, 43.6281169981335], [-79.7417532886651, 43.6281809530907], [-79.7416853464093, 43.6282440335472], [-79.7405791920369, 43.6292247217552], [-79.7397421361724, 43.629966795688], [-79.7396054624068, 43.6300852983304], [-79.7394638410473, 43.6302016573179], [-79.7393207466523, 43.6303170598638], [-79.7391761783576, 43.630431487945], [-79.7390301535125, 43.6305449417475], [-79.7388826910824, 43.6306574034669], [-79.7387337948601, 43.6307688695381], [-79.7385834824971, 43.630879325744], [-79.7384317665374, 43.6309887650141], [-79.7382786596006, 43.6310971766776], [-79.7381241693492, 43.6312045500086], [-79.7379683169094, 43.6313108825338], [-79.7378111137753, 43.6314161581673], [-79.7376525725492, 43.6315203671384], [-79.7374927044434, 43.6316235068643], [-79.7373315295531, 43.6317255649559], [-79.7371690542659, 43.6318265324742], [-79.7370053010811, 43.6319264006584], [-79.7368402714295, 43.6320251605149], [-79.7367162021394, 43.6320980226832], [-79.7363781958065, 43.6322689682353], [-79.7350162529149, 43.6329618344861], [-79.7336158906771, 43.6336068455572], [-79.7323755582176, 43.6339559678502], [-79.7314689778479, 43.634041655599], [-79.7303143582935, 43.6340352373021], [-79.7297052396876, 43.6339546817288], [-79.7287511357111, 43.6337431061473], [-79.7263299094747, 43.633108890551], [-79.7253327454908, 43.6328726786175], [-79.7245071440534, 43.6327349844356], [-79.7235060409941, 43.6327155798133], [-79.7224115160657, 43.6328806033522], [-79.7216527474582, 43.6330708123254], [-79.7214574302057, 43.6331326460002], [-79.721269790598, 43.6332065405286], [-79.7210782795295, 43.6332934472008], [-79.7208636698348, 43.6333822560089], [-79.7206617961694, 43.6334784101493], [-79.7204727767248, 43.6335821811316], [-79.7202837585431, 43.633685861773], [-79.7201126533474, 43.6337924438781], [-79.7199555899151, 43.6339149399435], [-79.7197766168783, 43.6340475449671], [-79.7195989525419, 43.6341885380671], [-79.7194708399464, 43.6342961410402], [-79.7194586171648, 43.6343054582819], [-79.7192511713978, 43.6344827633685], [-79.7189884131344, 43.6347194146635], [-79.7181068154219, 43.635503321377], [-79.7168869970406, 43.6365837992251], [-79.7152450534504, 43.63804210756], [-79.7152195983691, 43.638066209593], [-79.7138436625936, 43.6392948137174], [-79.7110934972601, 43.6417239990173], [-79.7095175617098, 43.6431229797993], [-79.708749304018, 43.6438027245726], [-79.7087426521198, 43.6438057323808], [-79.7061101333434, 43.646073885735], [-79.7036335735148, 43.6483293688467], [-79.7032601901874, 43.6486740986384], [-79.7023436697563, 43.6495139607013], [-79.7012634391616, 43.6504400318092], [-79.6998608953202, 43.6517971750888], [-79.6993363640111, 43.652278390176], [-79.6980950522827, 43.6534171526407], [-79.6966729406101, 43.6546308280246], [-79.6952998437208, 43.6558480108187], [-79.6950520785081, 43.6560676309476], [-79.6941950889467, 43.6568691558722], [-79.6940851311868, 43.6569769606913], [-79.6939767704376, 43.6570856192166], [-79.693870028151, 43.6571951145903], [-79.6937649046044, 43.6573054342145], [-79.6936614248138, 43.6574165684752], [-79.6935595890963, 43.6575285029741], [-79.6934594175873, 43.6576412244399], [-79.6933609155247, 43.6577547203314], [-79.6932969958837, 43.6578301565912], [-79.693264098085, 43.6578689773203], [-79.6931689754272, 43.6579839847224], [-79.6930755566269, 43.6580997246377], [-79.6929838592826, 43.658216186467], [-79.6928938874135, 43.6583333567543], [-79.6928056574766, 43.6584512203853], [-79.6927191708946, 43.6585697692767], [-79.6926344503635, 43.6586889865845], [-79.6925514913219, 43.6588088542526], [-79.6924855986051, 43.6589064162571], [-79.6916205596994, 43.6599147991882], [-79.6912406385964, 43.6603576550622], [-79.6908392800542, 43.6607600804267], [-79.6906156846919, 43.6609815864673], [-79.6903100970028, 43.661286663459], [-79.690038298487, 43.6615580037851], [-79.6898988415823, 43.6616972241386], [-79.6897296037397, 43.6618348234523], [-79.6895097661306, 43.6620139483334], [-79.6885768468609, 43.6627720213323], [-79.6883550591248, 43.6629523290065], [-79.6872553604579, 43.6637710020419], [-79.6865974691804, 43.6642309745543], [-79.6859506516536, 43.6646831921126], [-79.684867939848, 43.6656209385008], [-79.683479241648, 43.6668236301424], [-79.6812131460987, 43.6688415121311], [-79.6802137412211, 43.6697313906864], [-79.6790283475357, 43.6708226993171], [-79.6781143005759, 43.6716936974338], [-79.6777631631032, 43.6720282783237], [-79.6753610221113, 43.6742821586992], [-79.6742858050704, 43.6752320999792], [-79.6734271961133, 43.6759906011472], [-79.6712534638698, 43.6779107771928], [-79.6693966150568, 43.679572824968], [-79.6688121429909, 43.6800625435089], [-79.6684311384954, 43.6803817665649], [-79.6649733918842, 43.6835888537148], [-79.663534660201, 43.6848183585826], [-79.6627044624062, 43.6855267492999], [-79.6598217311119, 43.688159705438], [-79.6596186635873, 43.6883420991041], [-79.6570683330552, 43.6906264323694], [-79.6564349647994, 43.6911917495598], [-79.6555135123074, 43.6920288430081], [-79.6554216294996, 43.6921128163164], [-79.6529018548626, 43.694415350876], [-79.6494348516928, 43.6975649825922], [-79.6472756189285, 43.6995411851739], [-79.6464855112624, 43.7002595023621], [-79.6457495488834, 43.7009089187387], [-79.6456949451527, 43.7009570942513], [-79.6445870987889, 43.7018493443692], [-79.6424548497958, 43.7035417652857], [-79.6422070349799, 43.7038165292255], [-79.6419578450067, 43.7041032847208], [-79.6417725482226, 43.7043799790785], [-79.6414717386515, 43.7048373085762], [-79.6412311866134, 43.7052118005699], [-79.6411593525334, 43.7053149410584], [-79.6410786962194, 43.7054130244755], [-79.6409814290012, 43.7055046976437], [-79.6408275090958, 43.7056427871573], [-79.6406508451274, 43.7057862243418], [-79.6402765031474, 43.7060765538489], [-79.6398180207433, 43.706408350119], [-79.6394161120573, 43.706715677495]]}}]}