{"type": "FeatureCollection", "features": [{"type": "Feature", "properties": {"name": "Eglinton LRT / BRT", "status": "proposed", "note": "Proposed rapid transit along Eglinton from 9th Line to Renforth", "source": "City of Mississauga Major Roads (Eglinton Avenue)"}, "geometry": {"type": "LineString", "coordinates": [[-79.7273823869724, 43.5402251276052], [-79.7269511605312, 43.5406190962368], [-79.7260623772315, 43.5414218224008], [-79.7238130234949, 43.5434474925128], [-79.7211701266558, 43.5458574943156], [-79.7202733312031, 43.5466687045675], [-79.7192410511552, 43.5475829455021], [-79.7190915216146, 43.5477190005642], [-79.7188985726213, 43.5478924185145], [-79.7175353773192, 43.5491238267874], [-79.7165120067731, 43.5500041232361], [-79.7158656376927, 43.5505587905302], [-79.7146974855579, 43.5516142989583], [-79.7120718059051, 43.5539699157039], [-79.7112007399962, 43.5547513217813], [-79.7107032314246, 43.5552094865581], [-79.7093158923708, 43.5564500056663], [-79.7084282350848, 43.5572553743539], [-79.7080447739931, 43.5576467809111], [-79.7076378772057, 43.5580530417708], [-79.7075096719188, 43.5581716906439], [-79.7072820999455, 43.5583659413731], [-79.7067347174175, 43.5588485369677], [-79.7048475809537, 43.5605690024144], [-79.7044562046065, 43.560938025467], [-79.7030081951576, 43.5622874954361], [-79.7028799080891, 43.5624060462392], [-79.7021412869553, 43.5630888412038], [-79.6995114498892, 43.5654247990628], [-79.6983896822259, 43.5664211392012], [-79.6973913799869, 43.5672905535315], [-79.6959500715299, 43.5685457170539], [-79.6956019911971, 43.5688749512635], [-79.6955233993429, 43.5689489376948], [-79.6954432514019, 43.5690220311164], [-79.6953615686521, 43.569094220963], [-79.6952783589865, 43.5691654857116], [-79.6951936537433, 43.5692358077086], [-79.695107464297, 43.5693051762755], [-79.695019818428, 43.5693735665149], [-79.6949307323858, 43.5694409714055], [-79.6948402265037, 43.5695073668654], [-79.6941329788057, 43.5700163735406], [-79.6933992507033, 43.5705656193309], [-79.693060406488, 43.5708213852803], [-79.6928792183632, 43.5709594168778], [-79.6922182334018, 43.571458956826], [-79.6919724172397, 43.5716544228428], [-79.691284171393, 43.5721995138843], [-79.6911604225196, 43.5722954535071], [-79.6901942375285, 43.5731235106867], [-79.689633183295, 43.5736508883052], [-79.6880347839648, 43.5752052947326], [-79.6863590967812, 43.5768449895875], [-79.6852469529109, 43.5779153582413], [-79.6838671156597, 43.5791845534931], [-79.6822042769204, 43.5806828127963], [-79.6817142647895, 43.5811274111806], [-79.679073008165, 43.583486854618], [-79.677234998503, 43.5851178721213], [-79.6744423768715, 43.5876274826375], [-79.6731204155738, 43.5887890655435], [-79.6717879822282, 43.5899800552301], [-79.6691993233707, 43.5922937278932], [-79.6689529955265, 43.5925138752347], [-79.6686851582438, 43.5927514014109], [-79.6677165015187, 43.5936103909771], [-79.6662206861076, 43.5949367827621], [-79.6646552143704, 43.5963248360061], [-79.6636440957918, 43.5972294327546], [-79.6607261159267, 43.5998397692009], [-79.6600083986074, 43.6004817593292], [-79.6577049294712, 43.6025242524841], [-79.6561424491322, 43.6039264699363], [-79.6549674994586, 43.6049763929983], [-79.6544479486167, 43.6054307531225], [-79.6536347319836, 43.6061554433508], [-79.6529228835319, 43.6067907087359], [-79.6529227785828, 43.6067908029416], [-79.6514060553516, 43.6081315703558], [-79.6503958695726, 43.6090245262763], [-79.6492614284824, 43.6100411046097], [-79.647870237234, 43.6112853593308], [-79.6462409876509, 43.6127602655915], [-79.6445554326765, 43.6142597456817], [-79.6422068691374, 43.6163737255183], [-79.6404599771731, 43.6179289424331], [-79.6395440843324, 43.6187415044235], [-79.637784970182, 43.6203020194089], [-79.636924029447, 43.6210941140556], [-79.6368234749789, 43.6211817616565], [-79.6368216726996, 43.6211834149027], [-79.6365508617937, 43.6214312104332], [-79.6364603517896, 43.6215140280365], [-79.6361963253631, 43.6217556107618], [-79.6359372631682, 43.621992644771], [-79.6358999934543, 43.6220267428592], [-79.6358229906963, 43.6220991792864], [-79.6348747875619, 43.6229647417125], [-79.6347725721816, 43.6230582526381], [-79.6331586816494, 43.6244867150113], [-79.6326943490744, 43.6248978654146], [-79.6322411923887, 43.6252941677168], [-79.6303111831228, 43.6270272829296], [-79.6284211794959, 43.6287710581853], [-79.6277533665917, 43.6293669459085], [-79.6270067649892, 43.6300500834078], [-79.6241080112401, 43.6326716574207], [-79.6207148112886, 43.6357264362469], [-79.6191415432131, 43.6371129440309], [-79.6188912657318, 43.6373410795126], [-79.6177323515494, 43.6383965135994], [-79.6161096318928, 43.6398814881764], [-79.615940090608, 43.6400370395081], [-79.6145470783626, 43.6413054429002], [-79.6140501236663, 43.6417413766998], [-79.6106672320259, 43.6447083732852], [-79.6092197641656, 43.6460084329807], [-79.608722994919, 43.6464545937146], [-79.6064833553096, 43.6484609872781], [-79.6062917407651, 43.6486302352934], [-79.603086603587, 43.651568071827], [-79.6020938790019, 43.6524599027688], [-79.5983905435309, 43.6558177636518], [-79.5983595949698, 43.6558462867107], [-79.5952166106985, 43.6587253261661], [-79.594115655767, 43.65974264111], [-79.5928240652296, 43.6609034859884], [-79.5911106987081, 43.6625139276111]]}}]}