{"type": "FeatureCollection", "features": [{"type": "Feature", "properties": {"name": "Dixie LRT / BRT", "status": "proposed", "note": "Proposed rapid transit along Dixie Road", "source": "MiWay GTFS route 5 (Dixie) shape 50239, filtered to Dixie corridor"}, "geometry": {"type": "LineString", "coordinates": [[-79.54386, 43.591746], [-79.543855, 43.591914], [-79.543397, 43.592202], [-79.543153, 43.592177], [-79.543254, 43.592124], [-79.543262, 43.592121], [-79.543408, 43.592028], [-79.543587, 43.591912], [-79.543736, 43.591793], [-79.543863, 43.591681], [-79.543978, 43.591571], [-79.544073, 43.591464], [-79.544448, 43.591072], [-79.544958, 43.590535], [-79.545014, 43.590468], [-79.545096, 43.590379], [-79.545096, 43.590379], [-79.54565, 43.589771], [-79.545832, 43.589585], [-79.546304, 43.589054], [-79.546472, 43.588871], [-79.547268, 43.588011], [-79.547453, 43.587811], [-79.547453, 43.587811], [-79.547875, 43.587354], [-79.548945, 43.586198], [-79.548971, 43.58617], [-79.548971, 43.58617], [-79.54907, 43.586066], [-79.549207, 43.585933], [-79.549353, 43.585793], [-79.549908, 43.585268], [-79.550126, 43.585067], [-79.550886, 43.584342], [-79.551982, 43.585116], [-79.551982, 43.585116], [-79.552308, 43.585347], [-79.552746, 43.58565], [-79.553888, 43.586463], [-79.554535, 43.586924], [-79.556037, 43.587976], [-79.556551, 43.588335], [-79.558721, 43.589868], [-79.560782, 43.591323], [-79.560816, 43.591348], [-79.562665, 43.592654], [-79.563655, 43.593355], [-79.56424, 43.59376], [-79.56483, 43.594138], [-79.56483, 43.594138], [-79.565289, 43.594431], [-79.565383, 43.594491], [-79.565708, 43.594725], [-79.565708, 43.594725], [-79.567188, 43.59579], [-79.569375, 43.597362], [-79.569438, 43.59743], [-79.569562, 43.59759], [-79.569728, 43.597864], [-79.569898, 43.598199], [-79.569902, 43.598207], [-79.570597, 43.599578], [-79.570713, 43.599807], [-79.570854, 43.600055], [-79.571006, 43.600229], [-79.571105, 43.600319], [-79.571255, 43.600426], [-79.571255, 43.600426], [-79.571691, 43.60074], [-79.572859, 43.601561], [-79.573228, 43.601823], [-79.573272, 43.601854], [-79.573272, 43.601854], [-79.574852, 43.602985], [-79.575111, 43.603171], [-79.576582, 43.604185], [-79.576796, 43.604336], [-79.576796, 43.604336], [-79.579663, 43.606347], [-79.581688, 43.607766], [-79.581866, 43.607889], [-79.581899, 43.607911], [-79.581899, 43.607911], [-79.583177, 43.608811], [-79.583177, 43.608811], [-79.583881, 43.609306], [-79.585114, 43.610177], [-79.585114, 43.610177], [-79.586448, 43.611121], [-79.58671, 43.611304], [-79.58671, 43.611304], [-79.587458, 43.611828], [-79.588, 43.612209], [-79.588, 43.612209], [-79.58896, 43.612884], [-79.589975, 43.613598], [-79.593056, 43.615723], [-79.594586, 43.616789], [-79.595159, 43.617188], [-79.595159, 43.617188], [-79.598476, 43.619494], [-79.598827, 43.619758], [-79.598827, 43.619758], [-79.601227, 43.621558], [-79.601905, 43.622068], [-79.601905, 43.622068], [-79.602534, 43.62254], [-79.605184, 43.624502], [-79.605406, 43.624652], [-79.605406, 43.624652], [-79.60576, 43.624889], [-79.606392, 43.62535], [-79.607023, 43.62581], [-79.607134, 43.62589], [-79.60747, 43.626117], [-79.607751, 43.626306], [-79.608247, 43.626667], [-79.608247, 43.626667], [-79.609237, 43.627389], [-79.610237, 43.628128], [-79.610533, 43.628345], [-79.610621, 43.628408], [-79.610621, 43.628408], [-79.612417, 43.629707], [-79.6125, 43.629762], [-79.612803, 43.629959], [-79.612996, 43.63008], [-79.613144, 43.630166], [-79.613259, 43.630225], [-79.613394, 43.63029], [-79.613511, 43.630346], [-79.613619, 43.630399], [-79.613683, 43.630431], [-79.613737, 43.630462], [-79.613816, 43.630508], [-79.61393, 43.630586], [-79.613939, 43.630591], [-79.614015, 43.630644], [-79.614066, 43.630685], [-79.614119, 43.630725], [-79.614165, 43.630764], [-79.61423, 43.630825], [-79.61423, 43.630825], [-79.614303, 43.630894], [-79.614378, 43.630968], [-79.614431, 43.631025], [-79.614483, 43.631086], [-79.614589, 43.63121], [-79.614635, 43.63126], [-79.614674, 43.631302], [-79.614725, 43.631355], [-79.614818, 43.631439], [-79.615454, 43.63192], [-79.61563, 43.632047], [-79.61563, 43.632047], [-79.617882, 43.63368], [-79.61804, 43.633794], [-79.618567, 43.634175], [-79.618567, 43.634175], [-79.620522, 43.635586], [-79.620715, 43.635726], [-79.62124, 43.636108], [-79.62124, 43.636108], [-79.623414, 43.637688], [-79.624534, 43.638499], [-79.624992, 43.638829], [-79.624992, 43.638829], [-79.626408, 43.639852], [-79.627323, 43.640516], [-79.627323, 43.640516], [-79.629431, 43.642044], [-79.629431, 43.642044], [-79.629534, 43.642118], [-79.63017, 43.642589], [-79.63219, 43.644086], [-79.632544, 43.644349], [-79.63286, 43.644581], [-79.63286, 43.644581], [-79.633651, 43.645161], [-79.634103, 43.645495], [-79.6343, 43.645646], [-79.634497, 43.645798], [-79.63469, 43.64595], [-79.634884, 43.646105], [-79.635075, 43.646259], [-79.635265, 43.646416], [-79.635378, 43.646509], [-79.635507, 43.646618], [-79.635652, 43.64674], [-79.635922, 43.646971], [-79.636547, 43.647509], [-79.636677, 43.64762], [-79.63681, 43.64773], [-79.636876, 43.647785], [-79.63708, 43.647948], [-79.637122, 43.64798], [-79.637218, 43.648056], [-79.63735, 43.648158], [-79.637496, 43.648267], [-79.637573, 43.648324], [-79.637637, 43.648373], [-79.63778, 43.648476], [-79.637812, 43.648499], [-79.637924, 43.648579], [-79.638005, 43.648634], [-79.638069, 43.64868], [-79.6382, 43.648766], [-79.638217, 43.64878], [-79.638365, 43.64888], [-79.638515, 43.648978], [-79.638554, 43.649004], [-79.639272, 43.649466], [-79.640627, 43.65034], [-79.641683, 43.65102], [-79.641815, 43.651116], [-79.64183, 43.651127], [-79.641931, 43.651201], [-79.642082, 43.651312], [-79.643751, 43.652529], [-79.644512, 43.653085], [-79.644512, 43.653085], [-79.644742, 43.653253], [-79.646867, 43.654852], [-79.646867, 43.654852], [-79.647252, 43.655141], [-79.647594, 43.655393], [-79.650392, 43.657452], [-79.651216, 43.65807], [-79.651605, 43.658361], [-79.651605, 43.658361], [-79.653275, 43.65961], [-79.654277, 43.660346], [-79.654757, 43.660698], [-79.654757, 43.660698], [-79.656277, 43.661816], [-79.657909, 43.663055], [-79.658314, 43.663342], [-79.65882, 43.663701], [-79.65882, 43.663701], [-79.659359, 43.664084], [-79.661274, 43.665502], [-79.662162, 43.66617], [-79.662561, 43.666464], [-79.662561, 43.666464], [-79.664897, 43.668181], [-79.66533, 43.667795], [-79.66533, 43.667795], [-79.665899, 43.667287], [-79.666343, 43.666904], [-79.666516, 43.666752], [-79.666516, 43.666752], [-79.666754, 43.666542], [-79.668252, 43.665277], [-79.668265, 43.665267], [-79.668265, 43.665267], [-79.669123, 43.664532], [-79.669722, 43.664976], [-79.669722, 43.664976], [-79.670437, 43.665504], [-79.671619, 43.666369], [-79.671619, 43.666369], [-79.671644, 43.666388], [-79.671727, 43.666449], [-79.671803, 43.666519], [-79.671868, 43.666583], [-79.672295, 43.667042], [-79.672449, 43.667181], [-79.67261, 43.667309], [-79.672768, 43.667424], [-79.673777, 43.668168], [-79.673905, 43.668262], [-79.673905, 43.668262], [-79.675072, 43.669124], [-79.67515, 43.669185], [-79.675219, 43.669251], [-79.67528, 43.669322], [-79.675321, 43.669377], [-79.675446, 43.669544], [-79.675446, 43.669544], [-79.675691, 43.66987], [-79.675782, 43.669974], [-79.675872, 43.670051], [-79.675966, 43.670123], [-79.676468, 43.670494], [-79.676881, 43.67079], [-79.677302, 43.671112], [-79.677302, 43.671112], [-79.677439, 43.671217], [-79.677639, 43.671372], [-79.678114, 43.671694], [-79.678989, 43.672253], [-79.67909, 43.672325], [-79.679187, 43.672403], [-79.67929, 43.672492], [-79.679689, 43.672862], [-79.679872, 43.672695], [-79.679872, 43.672695], [-79.679881, 43.672686], [-79.680901, 43.671719], [-79.681148, 43.671489], [-79.681303, 43.671352], [-79.681587, 43.671103], [-79.681587, 43.671103], [-79.682916, 43.669938], [-79.683085, 43.669791], [-79.683085, 43.669791], [-79.684658, 43.668421], [-79.684714, 43.668375], [-79.684761, 43.668342], [-79.684816, 43.66831], [-79.68487, 43.668291], [-79.68493, 43.668272], [-79.684987, 43.668262], [-79.685046, 43.668259], [-79.685101, 43.668264], [-79.685157, 43.668273], [-79.685217, 43.668293], [-79.685268, 43.668316], [-79.685324, 43.668349], [-79.685371, 43.668386], [-79.685572, 43.668539], [-79.685572, 43.668539], [-79.686905, 43.669545], [-79.686905, 43.669545], [-79.687343, 43.669876], [-79.686084, 43.670972], [-79.685454, 43.671522], [-79.685454, 43.671522], [-79.683284, 43.673414], [-79.683054, 43.673612], [-79.683054, 43.673612], [-79.682622, 43.673983], [-79.682553, 43.674033], [-79.682482, 43.674072], [-79.682335, 43.674133], [-79.682172, 43.67418], [-79.682091, 43.674198], [-79.682031, 43.674206], [-79.68193, 43.674218], [-79.681837, 43.67422], [-79.681723, 43.674213], [-79.681533, 43.674179], [-79.681404, 43.674142], [-79.681244, 43.674069], [-79.681084, 43.673973], [-79.680726, 43.673766], [-79.6806, 43.673693], [-79.680531, 43.673646], [-79.680469, 43.673591], [-79.680466, 43.673588]]}}]}