{"type": "FeatureCollection", "crs": {"type": "name", "properties": {"name": "EPSG:4326"}}, "features": [{"type": "Feature", "id": 1, "geometry": {"type": "MultiLineString", "coordinates": [[[-79.7245308610178, 43.5316540340457], [-79.7255322684704, 43.5307273120344], [-79.7289323231335, 43.527904383476], [-79.7316253346838, 43.5254389671348], [-79.7322656443134, 43.5247530700217]], [[-79.7245308610178, 43.5316540340457], [-79.7245334123672, 43.5316528262439], [-79.7245391336691, 43.531650125808], [-79.7245448598059, 43.5316474308282], [-79.7245505907775, 43.5316447413046], [-79.7245563265648, 43.5316420581373], [-79.7245620684243, 43.5316393804399], [-79.7245678151185, 43.5316367081987], [-79.7245735666286, 43.5316340423138], [-79.7245793229734, 43.5316313818851], [-79.7245850853904, 43.5316287269263], [-79.7245908513859, 43.53162607831], [-79.7245966234534, 43.5316234351636], [-79.7246024003558, 43.5316207974734], [-79.724608182074, 43.5316181661395], [-79.724613968627, 43.5316155402617], [-79.7246197599958, 43.5316129207402], [-79.7246255561995, 43.5316103066749], [-79.7246313584752, 43.5316076980795], [-79.7246371643295, 43.5316050958266], [-79.7246429762559, 43.5316024990436], [-79.7246487917798, 43.5315999077029], [-79.7246546133568, 43.5315973227324], [-79.7246604397496, 43.5315947441182], [-79.7246662709773, 43.5315921709601], [-79.7246721058025, 43.5315896032443], [-79.7246779466808, 43.5315870418987], [-79.724683792394, 43.5315844860092], [-79.7246896429419, 43.5315819355758], [-79.7246954983057, 43.5315793914987], [-79.7247013584854, 43.5315768537779], [-79.7247072222626, 43.5315743214994], [-79.7247130921119, 43.5315717946908], [-79.724718966777, 43.5315692742386], [-79.724724846258, 43.5315667601427], [-79.7247307293366, 43.5315642514891], [-79.7247366184872, 43.5315617483054], [-79.7247425112164, 43.5315592514642], [-79.7247484100178, 43.5315567600929], [-79.7247543123977, 43.5315542750641], [-79.7247602195934, 43.5315517963916], [-79.7247661328613, 43.5315493231891], [-79.7247720497268, 43.5315468554288], [-79.7247779701708, 43.5315443940111], [-79.7247838966679, 43.5315419389634], [-79.7247898279999, 43.5315394893719], [-79.7247957629294, 43.5315370452226], [-79.7248017026559, 43.5315346083299], [-79.7248076484734, 43.5315321760069], [-79.7248135978506, 43.5315297509265], [-79.7248195508253, 43.5315273312885], [-79.7248255098721, 43.5315249171204], [-79.7248314724976, 43.5315225092947], [-79.7248374399389, 43.5315201078254], [-79.724843412215, 43.5315177118122], [-79.7248493893071, 43.5315153221552], [-79.7248553699967, 43.5315129379406], [-79.7248613555022, 43.5315105600822], [-79.7248673458235, 43.5315081885802], [-79.7248733409798, 43.5315058225342], [-79.7248793397146, 43.5315034628308], [-79.7248853432653, 43.5315011094836], [-79.7248913516508, 43.5314987615926], [-79.724897363634, 43.5314964191438], [-79.724903380414, 43.5314940839515], [-79.724909402029, 43.5314917542153], [-79.7249154272225, 43.5314894308216], [-79.7249214584881, 43.5314871128977], [-79.7249274920951, 43.5314848013026], [-79.7249335317553, 43.5314824960776], [-79.7249395750131, 43.5314801962948], [-79.7249456218495, 43.5314779028545], [-79.7249516735018, 43.5314756157706], [-79.7249577299889, 43.5314733341427], [-79.724963791292, 43.531471058871], [-79.7249698561737, 43.5314687899419], [-79.724975924634, 43.5314665273553], [-79.7249819979292, 43.5314642702247], [-79.7249880760403, 43.5314620194504], [-79.724994157749, 43.5314597741184], [-79.7250002442546, 43.5314575360429], [-79.7250063343579, 43.5314553034097], [-79.725012429296, 43.5314530762325], [-79.7250185277938, 43.531450856298], [-79.7250246311264, 43.5314486418196], [-79.7250307380377, 43.5314464336837], [-79.725036849765, 43.531444231904], [-79.7250429650709, 43.5314420364669], [-79.7250490852116, 43.5314398464858], [-79.725055208931, 43.5314376628471], [-79.7250613374664, 43.5314354855648], [-79.7250674695993, 43.5314333137247], [-79.7250736052919, 43.5314311491273], [-79.7250797458195, 43.531428989986], [-79.7250858899256, 43.5314268371871], [-79.7250920388477, 43.5314246907445], [-79.7250981913675, 43.5314225497442], [-79.7251043474659, 43.5314204150864], [-79.7251105083612, 43.531418287685], [-79.7251166728542, 43.5314161657259], [-79.7251228421821, 43.5314140492229], [-79.7251290150697, 43.5314119399625], [-79.7251351915549, 43.5314098361444], [-79.7251413715998, 43.531407739569], [-79.7251475564797, 43.5314056484496], [-79.7251537449382, 43.5314035636727], [-79.7251599382316, 43.5314014843519], [-79.7251661338474, 43.5313994122599], [-79.7251723342982, 43.531397345624], [-79.7251785383087, 43.5313952862307], [-79.725184747154, 43.5313932322935], [-79.7251909583408, 43.531391184685], [-79.7251971743436, 43.5313891434328], [-79.725203393925, 43.5313871085229], [-79.7252096183414, 43.5313850790692], [-79.7252158450802, 43.5313830568443], [-79.7252220766539, 43.5313810400755], [-79.7252283117873, 43.5313790305494], [-79.7252345505184, 43.5313770264654], [-79.7252407928282, 43.531375028724], [-79.725247039954, 43.5313730373388], [-79.7252532906584, 43.5313710522961], [-79.7252595437043, 43.531369073582], [-79.7252658015662, 43.5313671012242], [-79.7252720630257, 43.5313651343086], [-79.7252783280449, 43.5313631746357], [-79.7252845966429, 43.5313612213052], [-79.7252908700758, 43.5313592734308], [-79.7252971458501, 43.531357331885], [-79.7253034264214, 43.5313553975957], [-79.7253097093532, 43.5313534687349], [-79.7253159971009, 43.5313515462303], [-79.7253222871711, 43.5313496309546], [-79.7253285820763, 43.5313477211348], [-79.7253348805601, 43.5313458176576], [-79.7253411813854, 43.531343920509], [-79.7253474870268, 43.5313420297166], [-79.7253537962468, 43.5313401452667], [-79.7253601078082, 43.5313382671454], [-79.7253664241857, 43.5313363953804], [-79.7253727441229, 43.5313345308581], [-79.7253790664206, 43.5313326717642], [-79.7253853935342, 43.5313308190265], [-79.7253917229893, 43.5313289726175], [-79.7253980560232, 43.5313271325509], [-79.725404393873, 43.5313252988405], [-79.7254107340643, 43.5313234714588], [-79.7254170778344, 43.5313216504196], [-79.7254234251831, 43.5313198357227], [-79.7254297761107, 43.5313180273684], [-79.7254361306169, 43.5313162253564], [-79.7254424874647, 43.5313144296731], [-79.7254488491094, 43.5313126412463], [-79.7254552131147, 43.5313108582479], [-79.7254615806986, 43.5313090815919], [-79.7254679518424, 43.5313073121786], [-79.7254743265838, 43.5313055482075], [-79.7254807048851, 43.531303791479], [-79.7254870855468, 43.531302040179], [-79.7254934697683, 43.5313002961216], [-79.7254998575876, 43.5312985575065], [-79.7255062489666, 43.531296826134], [-79.7255126426871, 43.5312951010901], [-79.7255190399864, 43.5312933823886], [-79.7255254408644, 43.5312916700296], [-79.7255318453212, 43.5312899640131], [-79.7255382521195, 43.5312882643251], [-79.7255446624966, 43.5312865709796], [-79.7255510764335, 43.5312848848768], [-79.7255574939681, 43.5312832042161], [-79.7255639138253, 43.5312815307843], [-79.7255703360429, 43.5312798627809], [-79.7255767630576, 43.531278202034], [-79.7255831924138, 43.5312765476157], [-79.7255896253488, 43.5312748995398], [-79.7255960606254, 43.5312732577926], [-79.7256024994617, 43.5312716232879], [-79.7256089418958, 43.5312699942255], [-79.7256153866525, 43.531268372392], [-79.7256218350069, 43.5312667560006], [-79.7256282856839, 43.5312651468381], [-79.7256347399396, 43.531263544018], [-79.7256411965369, 43.5312619475266], [-79.725647656694, 43.5312603582778], [-79.7256541204489, 43.5312587744712], [-79.7256605865264, 43.5312571978934], [-79.7256670549643, 43.531255626744], [-79.7256735281994, 43.5312540628511], [-79.7256800025387, 43.531252505273], [-79.7256864804379, 43.5312509549375], [-79.7256929619349, 43.5312494100443], [-79.7256994457544, 43.5312478723799], [-79.7257059319155, 43.5312463410441], [-79.7257124216554, 43.5312448160507], [-79.7257189149741, 43.5312432973997], [-79.7257254106344, 43.5312417850774], [-79.7257319086172, 43.5312402799838], [-79.7257384089416, 43.5312387812189], [-79.7257449128449, 43.5312372887965], [-79.7257514203269, 43.5312358027164], [-79.7257579301506, 43.531234322965], [-79.7257644422968, 43.5312328504424], [-79.7257709567846, 43.5312313842484], [-79.7257774748512, 43.5312299243968], [-79.7257839964967, 43.5312284708876], [-79.7257905192274, 43.5312270245935], [-79.725797045556, 43.5312255837416], [-79.7258035742072, 43.5312241501185], [-79.7258101064183, 43.531222723738], [-79.72581664099, 43.5312213027859], [-79.7258231778842, 43.5312198890627], [-79.72582971712, 43.531218481668], [-79.7258362599347, 43.5312170806158], [-79.7258428038537, 43.5312156858784], [-79.7258493513326, 43.5312142983836], [-79.7258559023904, 43.5312129172313], [-79.7258624545524, 43.5312115423937], [-79.7258690102744, 43.5312101747988], [-79.7258755683379, 43.5312088135324], [-79.7258821287431, 43.5312074585947], [-79.7258886914898, 43.5312061099856], [-79.7258952578155, 43.5312047677189], [-79.7259018264637, 43.531203432681], [-79.7259083962163, 43.531202103958], [-79.7259149695288, 43.5312007824775], [-79.7259215451829, 43.5311994673257], [-79.7259281244159, 43.5311981585163], [-79.7259347047533, 43.5311968560217], [-79.7259412874133, 43.5311955607559], [-79.7259478736711, 43.5311942709323], [-79.7259544609954, 43.5311929892239], [-79.7259610519175, 43.5311917129577], [-79.7259676451622, 43.5311904439204], [-79.7259742395114, 43.5311891811978], [-79.7259808374204, 43.5311879257179], [-79.7259874376901, 43.5311866756663], [-79.7259940402824, 43.5311854328436], [-79.7260006451974, 43.5311841972497], [-79.726007252454, 43.5311829679844], [-79.7260138608149, 43.5311817450339], [-79.7260204727549, 43.5311805284258], [-79.7260270870174, 43.5311793190465], [-79.7260337036217, 43.5311781159958], [-79.7260403213302, 43.53117691926], [-79.7260469425987, 43.5311757297667], [-79.7260535662089, 43.531174546602], [-79.7260601909235, 43.5311733697522], [-79.7260668179607, 43.5311722001312], [-79.7260734485769, 43.5311710368525], [-79.7260800802785, 43.5311698807889], [-79.7260867143218, 43.5311687310539], [-79.7260933507067, 43.5311675876475], [-79.7260999894143, 43.5311664514699], [-79.7261066292453, 43.5311653207069], [-79.7261132726173, 43.5311641980867], [-79.7261199171126, 43.5311630808811], [-79.7261265639307, 43.5311619709043], [-79.7261332130715, 43.5311608681563], [-79.7261398645539, 43.5311597717369], [-79.7261465171407, 43.5311586816323], [-79.7261531720693, 43.5311575978563], [-79.7261598293205, 43.5311565213092], [-79.7261664888945, 43.5311554519908], [-79.7261731508101, 43.531154389001], [-79.7261798138302, 43.5311533323261], [-79.7261864791919, 43.5311522819797], [-79.7261931468764, 43.5311512388621], [-79.7261998156653, 43.5311502020594], [-79.726206486777, 43.5311491724854], [-79.7262131602303, 43.5311481492401], [-79.7262198347691, 43.5311471332097], [-79.7262265128869, 43.5311461235218], [-79.7262331908719, 43.5311451201348], [-79.7262398724168, 43.5311441239905], [-79.7262465550662, 43.531143134161], [-79.7262532400383, 43.5311421515602], [-79.7262599261149, 43.5311411752742], [-79.7262666145332, 43.5311402053169], [-79.726273304037, 43.5311392425746], [-79.7262799958825, 43.5311382861608], [-79.7262866900507, 43.5311373369759], [-79.7262933853234, 43.5311363941058], [-79.7263000829189, 43.5311354584644], [-79.7263067816188, 43.5311345291379], [-79.7263134826605, 43.5311336061399], [-79.7263201847877, 43.531132690357], [-79.7263268892566, 43.5311317809026], [-79.7263335960482, 43.5311308786771], [-79.7263403027071, 43.5311299827526], [-79.726347012926, 43.5311290940706], [-79.7263537242494, 43.5311282117035], [-79.7263604366583, 43.5311273365513], [-79.7263671514089, 43.5311264677278], [-79.726373867264, 43.5311256052191], [-79.7263805842047, 43.5311247499253], [-79.7263873034681, 43.5311239018604], [-79.7263940250922, 43.5311230592238], [-79.726400747783, 43.5311222247024], [-79.7264074715782, 43.5311213964959], [-79.7264141964779, 43.5311205746042], [-79.7264209237004, 43.5311197599412], [-79.7264276532646, 43.5311189516068], [-79.7264343826961, 43.5311181495735], [-79.7264411144315, 43.5311173556691], [-79.7264478472902, 43.5311165671794], [-79.7264545824718, 43.5311157859184], [-79.726461318739, 43.5311150118724], [-79.7264680561107, 43.5311142441413], [-79.7264747958052, 43.5311134836389], [-79.7264815353669, 43.5311127294375], [-79.7264882772704, 43.5311119815648], [-79.7264950214968, 43.5311112409207], [-79.7265017655714, 43.531110507478], [-79.7265085119878, 43.5311097803638], [-79.7265152595087, 43.5311090595644], [-79.7265220081153, 43.53110834598], [-79.7265287590446, 43.5311076396244], [-79.7265355098412, 43.5311069395698], [-79.7265422629796, 43.5311062458438], [-79.7265490172036, 43.5311055593329], [-79.7265557725132, 43.5311048800368], [-79.7265625289273, 43.5311042070557], [-79.7265692876832, 43.531103540403], [-79.7265760462874, 43.5311028809516], [-79.7265828072145, 43.531102228729], [-79.7265895692461, 43.5311015828212], [-79.726596331145, 43.5311009432144], [-79.7266030953668, 43.5311003108364], [-79.7266098606742, 43.5310996856734], [-79.7266166283234, 43.5310990668389], [-79.7266233958209, 43.5310984552057], [-79.726630164423, 43.5310978498872], [-79.7266369341107, 43.5310972517838], [-79.7266437049029, 43.5310966599952], [-79.726650478037, 43.5310960745351], [-79.7266572510005, 43.5310954971765], [-79.7266640250875, 43.5310949252325], [-79.7266708002411, 43.5310943614036], [-79.7266775777366, 43.5310938039034], [-79.7266843550995, 43.5310932527041], [-79.7266911335479, 43.5310927087199], [-79.7266979131009, 43.5310921710504], [-79.7267046937395, 43.531091640596], [-79.7267114754638, 43.5310911173565], [-79.7267182582927, 43.5310906004318], [-79.7267250422261, 43.531090089822], [-79.726731825989, 43.5310895873135], [-79.7267386121127, 43.5310890902334], [-79.7267453980847, 43.5310886003546], [-79.7267521851424, 43.5310881176907], [-79.7267589733047, 43.5310876413416], [-79.7267657625527, 43.5310871722076], [-79.7267725528863, 43.5310867102885], [-79.7267793443245, 43.5310862546842], [-79.72678613563, 43.5310858053809], [-79.7267929280212, 43.5310853632926], [-79.7267997214981, 43.5310849284194], [-79.7268065160796, 43.5310844998609], [-79.7268133117467, 43.5310840785174], [-79.7268201072812, 43.5310836634749], [-79.7268269039014, 43.5310832556474], [-79.7268337016261, 43.5310828541347], [-79.7268404991994, 43.5310824598233], [-79.7268472978582, 43.5310820727268], [-79.7268540976217, 43.5310816919451], [-79.7268608984899, 43.5310813174782], [-79.7268676992064, 43.5310809502125], [-79.7268745010086, 43.5310805901618], [-79.7268813038966, 43.5310802373261], [-79.7268881066708, 43.5310798898913], [-79.7268949105118, 43.5310795505716], [-79.7269017142202, 43.5310792175529], [-79.7269085202705, 43.5310788908628], [-79.7269153249129, 43.5310785722603], [-79.7269221319163, 43.5310782590863], [-79.7269289387492, 43.5310779540135], [-79.7269357454683, 43.5310776543417], [-79.7269425532543, 43.531077362785], [-79.7269493621449, 43.5310770775431], [-79.7269561708839, 43.5310767995024], [-79.7269629807277, 43.5310765277766], [-79.7269697904388, 43.5310762623517], [-79.7269766012166, 43.531076005042], [-79.7269834118619, 43.5310757540334], [-79.7269902236119, 43.5310755093395], [-79.7269970352103, 43.5310752718468], [-79.7270038478945, 43.5310750415692], [-79.727010660446, 43.5310748175925], [-79.7270174740833, 43.5310746008308], [-79.727024287588, 43.5310743903702], [-79.7270311009412, 43.5310741871108], [-79.7270379153802, 43.5310739910663], [-79.7270447309238, 43.5310738013367], [-79.7270515463348, 43.531073617908], [-79.7270583615754, 43.5310734425808], [-79.7270651767023, 43.5310732726544], [-79.7270719928961, 43.5310731108432], [-79.7270788089572, 43.531072955333], [-79.7270856261231, 43.5310728061376], [-79.7270924431186, 43.5310726650435], [-79.7270992600004, 43.5310725293504], [-79.727106077949, 43.5310724017724], [-79.7271128957651, 43.5310722804954], [-79.7271197134486, 43.5310721655194], [-79.7271265322179, 43.5310720577584], [-79.7271333495985, 43.5310719571849], [-79.7271401680837, 43.5310718629261], [-79.7271469876548, 43.5310717758823], [-79.727153805837, 43.531071696026], [-79.7271606251241, 43.5310716224845], [-79.7271674442596, 43.5310715561441], [-79.7271742632626, 43.5310714961048], [-79.7271810821141, 43.5310714432667], [-79.7271879020703, 43.5310713967434], [-79.7271947218751, 43.5310713574213], [-79.7272015415284, 43.5310713253004], [-79.7272083610492, 43.5310712994806], [-79.7272151804185, 43.5310712808619], [-79.7272220008925, 43.531071268558], [-79.7272288199778, 43.5310712634416], [-79.727235640149, 43.5310712655402], [-79.7272424601876, 43.5310712739398], [-79.7272492788375, 43.5310712895268], [-79.7272560985921, 43.5310713114286], [-79.7272629181953, 43.5310713405316], [-79.7272697376471, 43.5310713768358], [-79.7272765582036, 43.5310714194548], [-79.7272833773903, 43.5310714683611], [-79.7272901964067, 43.5310715253688], [-79.7272970152906, 43.5310715886775], [-79.7273038340419, 43.5310716582872], [-79.7273106538791, 43.5310717351119], [-79.7273174723276, 43.531071819124], [-79.7273242906436, 43.5310719094372], [-79.7273311088082, 43.5310720069515], [-79.7273379280586, 43.5310721116809], [-79.7273447459393, 43.5310722226975], [-79.7273515636875, 43.5310723400151], [-79.7273583812653, 43.5310724654341], [-79.7273651987107, 43.5310725971541], [-79.7273720160236, 43.5310727351752], [-79.7273788319478, 43.5310728803836], [-79.7273856489579, 43.5310730328071], [-79.7273924645982, 43.5310731915179], [-79.7273992813244, 43.5310733574436], [-79.7274060966808, 43.5310735296565], [-79.7274129118859, 43.5310737090707], [-79.7274197269396, 43.5310738956861], [-79.7274265418608, 43.5310740886024], [-79.7274333553933, 43.5310742887063], [-79.7274401700307, 43.5310744951249], [-79.7274469832794, 43.531074708731], [-79.7274537963767, 43.5310749295383], [-79.7274606081043, 43.5310751566328], [-79.7274674209367, 43.5310753900421], [-79.7274742323616, 43.5310756315391], [-79.727481043654, 43.5310758793371], [-79.7274878548139, 43.5310761334361], [-79.7274946645853, 43.5310763947225], [-79.7275014742052, 43.5310766632102], [-79.7275082836927, 43.5310769379989], [-79.7275150917916, 43.531077219975], [-79.7275219009764, 43.5310775091661], [-79.7275287087915, 43.5310778046444], [-79.7275355152369, 43.53107810641], [-79.727542321531, 43.5310784153768], [-79.7275491276737, 43.5310787315449], [-79.7275559324467, 43.5310790540002], [-79.7275627383056, 43.5310793836704], [-79.7275695415387, 43.5310797205143], [-79.7275763446393, 43.5310800636593], [-79.7275831475886, 43.5310804140055], [-79.7275899504055, 43.5310807706527], [-79.7275967518338, 43.5310811344873], [-79.7276035518924, 43.5310815046092], [-79.7276103517997, 43.5310818819323], [-79.7276171515556, 43.5310822664566], [-79.7276239499419, 43.5310826572682], [-79.7276307481769, 43.531083055281], [-79.7276375450422, 43.531083459581], [-79.7276443405189, 43.5310838710685], [-79.7276511358443, 43.5310842897572], [-79.7276579310373, 43.5310847147469], [-79.7276647248606, 43.5310851460239], [-79.7276715185326, 43.5310855845021], [-79.7276783108161, 43.5310860301677], [-79.727685101711, 43.5310864830208], [-79.7276918924735, 43.5310869421749], [-79.7276986818664, 43.5310874076163], [-79.7277054698707, 43.5310878802451], [-79.7277122577237, 43.5310883600751], [-79.7277190454443, 43.5310888462062], [-79.7277258317764, 43.5310893395247], [-79.7277326167388, 43.5310898391304], [-79.7277394003127, 43.5310903459236], [-79.7277461837542, 43.5310908590178], [-79.7277529658072, 43.5310913792995], [-79.7277597464716, 43.5310919067686], [-79.7277665270037, 43.5310924405388], [-79.7277733061472, 43.5310929814964], [-79.7277800839211, 43.5310935287412], [-79.7277868615437, 43.5310940831873], [-79.7277936377967, 43.5310946439206], [-79.7278004126612, 43.5310952118414], [-79.7278071861372, 43.5310957869496], [-79.7278139582435, 43.5310963683451], [-79.7278207302175, 43.5310969560416], [-79.727827500784, 43.5310975518258], [-79.7278342699999, 43.531098152997], [-79.7278410390645, 43.5310987613694], [-79.7278478055034, 43.5310993769155], [-79.7278545717909, 43.5310999996628], [-79.7278613367089, 43.5311006286975], [-79.7278681002573, 43.5311012640193], [-79.7278748624172, 43.5311019065287], [-79.7278816231886, 43.5311025562254], [-79.7278883838276, 43.5311032122232], [-79.7278951418598, 43.5311038744945], [-79.7279018997408, 43.5311045439669], [-79.727908654996, 43.5311052206131], [-79.7279154101189, 43.5311059035604], [-79.7279221638533, 43.5311065936951], [-79.7279289162181, 43.531107290117], [-79.7279356671944, 43.5311079937264], [-79.7279424167823, 43.5311087045232], [-79.7279491637822, 43.5311094206934], [-79.727955910612, 43.5311101449649], [-79.7279626560722, 43.5311108755237], [-79.7279694001629, 43.5311116123698], [-79.7279761428651, 43.5311123564034], [-79.7279828841788, 43.5311131076244], [-79.7279896241229, 43.5311138651326], [-79.7279963626975, 43.5311146289281], [-79.7280030998648, 43.5311154008113], [-79.7280098344441, 43.5311161780678], [-79.7280165688722, 43.5311169625255], [-79.7280233019119, 43.5311177541707], [-79.7280300323447, 43.5311185520894], [-79.7280367613891, 43.5311193571955], [-79.7280434903012, 43.5311201686026], [-79.7280502165876, 43.5311209871835], [-79.7280569415045, 43.5311218120516], [-79.7280636638145, 43.5311226431932], [-79.7280703859545, 43.5311234824362], [-79.7280771055066, 43.5311243270525], [-79.7280838248886, 43.5311251797703], [-79.7280905416827, 43.5311260378614], [-79.7280972558511, 43.5311269031261], [-79.7281039698683, 43.5311277755921], [-79.7281106825161, 43.5311286543454], [-79.7281173925381, 43.5311295402723], [-79.7281241011906, 43.5311304324865], [-79.7281308072174, 43.5311313318745], [-79.728137513112, 43.5311322375634], [-79.7281442163809, 43.5311331504261], [-79.7281509182802, 43.531134069576], [-79.7281576175728, 43.5311349949994], [-79.728164315477, 43.5311359276103], [-79.7281710119928, 43.5311368674087], [-79.7281777071391, 43.5311378134943], [-79.7281843996786, 43.5311387658534], [-79.7281910908297, 43.5311397254], [-79.7281977805924, 43.5311406921341], [-79.7282044677483, 43.5311416651416], [-79.7282111535348, 43.5311426444365], [-79.7282178366955, 43.531143630905], [-79.7282245184868, 43.5311446236608], [-79.7282311976524, 43.5311456235904], [-79.7282378766859, 43.5311466298209], [-79.7282445518563, 43.5311476432114], [-79.7282512268946, 43.531148662903], [-79.7282578993072, 43.5311496897682], [-79.7282645691131, 43.5311507229069], [-79.7282712375495, 43.531151762333], [-79.7282779033603, 43.5311528089327], [-79.7282845677827, 43.5311538627199], [-79.7282912308356, 43.5311549227944], [-79.7282978900445, 43.5311559891286], [-79.7283045491023, 43.5311570626641], [-79.7283112055534, 43.5311581424731], [-79.7283178593977, 43.5311592285555], [-79.7283245118537, 43.5311603218255], [-79.7283311616841, 43.5311614222692], [-79.728337810145, 43.5311625290001], [-79.7283444559992, 43.5311636420045], [-79.7283510992278, 43.5311647621827], [-79.7283577410869, 43.5311658886482], [-79.7283643803393, 43.5311670213871], [-79.7283710182034, 43.5311681613136], [-79.7283776534418, 43.5311693084138], [-79.7283842860735, 43.5311704617874], [-79.7283909173358, 43.5311716214484], [-79.7283975459914, 43.5311727873828], [-79.7284041720214, 43.531173960491], [-79.7284107954258, 43.5311751407729], [-79.7284174174607, 43.5311763273421], [-79.7284240381262, 43.5311775201986], [-79.7284306549289, 43.531178720215], [-79.7284372703621, 43.5311799265187], [-79.7284438831886, 43.5311811390959], [-79.7284504933896, 43.5311823588468], [-79.7284571022211, 43.531183584885], [-79.7284637071898, 43.5311848180832], [-79.728470310789, 43.5311860575687], [-79.7284769117816, 43.5311873033276], [-79.7284835113859, 43.5311885562741], [-79.7284901071462, 43.5311898154803], [-79.7284967015371, 43.5311910809738], [-79.7285032933024, 43.5311923536411], [-79.7285098824611, 43.5311936325818], [-79.7285164689941, 43.5311949186963], [-79.7285230541578, 43.5311962110981], [-79.7285296354775, 43.5311975097596], [-79.728536215409, 43.5311988156086], [-79.7285427927338, 43.5312001277312], [-79.7285493662147, 43.5312014461135], [-79.7285559383072, 43.5312027716833], [-79.7285625077931, 43.5312041035266], [-79.7285690746724, 43.5312054416434], [-79.7285756401633, 43.5312067869478], [-79.7285822018104, 43.5312081385119], [-79.7285887608319, 43.5312094972497], [-79.7285953172656, 43.5312108613609], [-79.7286018710738, 43.5312122326458], [-79.7286084234937, 43.5312136111181], [-79.7286149720697, 43.5312149958503], [-79.7286215180391, 43.531216386856], [-79.7286280614019, 43.5312177841352], [-79.7286346033763, 43.5312191886019], [-79.7286411415069, 43.5312205993284], [-79.7286476770308, 43.5312220163284], [-79.7286542099292, 43.5312234405022], [-79.728660740221, 43.5312248709495], [-79.7286672679061, 43.5312263076702], [-79.7286737917474, 43.5312277506508], [-79.7286803142003, 43.5312292008189], [-79.7286868340467, 43.5312306572606], [-79.7286933500303, 43.5312321208621], [-79.7286998634261, 43.5312335898371], [-79.7287063754338, 43.5312350659995], [-79.7287128835786, 43.5312365493219], [-79.7287193891357, 43.5312380380177], [-79.72872589083, 43.5312395338734], [-79.728732391155, 43.5312410360164], [-79.7287388876362, 43.5312425444192], [-79.7287453814918, 43.5312440599958], [-79.7287518727408, 43.5312455818459], [-79.7287583613832, 43.5312471099695], [-79.7287648461628, 43.5312486452531], [-79.7287713283548, 43.5312501859101], [-79.7287778079212, 43.5312517337408], [-79.728784284881, 43.531253287845], [-79.7287907579781, 43.5312548491092], [-79.7287972284875, 43.5312564157468], [-79.7288036963714, 43.5312579895581], [-79.7288101616487, 43.531259569643], [-79.7288166230633, 43.5312611568878], [-79.7288230818902, 43.531262749506], [-79.7288295368543, 43.5312643492842], [-79.7288359904491, 43.5312659553497], [-79.7288424389628, 43.5312675676612], [-79.7288488860883, 43.5312691871602], [-79.7288553293699, 43.531270812919], [-79.7288617700639, 43.5312724440512], [-79.7288682068762, 43.5312740832436], [-79.7288746411008, 43.5312757278093], [-79.7288810727189, 43.5312773786485], [-79.7288875004743, 43.5312790366478], [-79.7288939243858, 43.5312807009068], [-79.728900346928, 43.5312823714532], [-79.7289067643891, 43.5312840482456], [-79.7289131804621, 43.5312857322255], [-79.7289195927101, 43.5312874215649], [-79.7289260010953, 43.5312891180644], [-79.728932406874, 43.5312908208375], [-79.7289388088089, 43.5312925298704], [-79.7289452081184, 43.5312942460769], [-79.7289516036029, 43.5312959676431], [-79.728957996462, 43.5312976963831], [-79.7289643867145, 43.5312994313966], [-79.7289707718859, 43.5313011726562], [-79.7289771544508, 43.5313029201893], [-79.7289835344092, 43.531304673996], [-79.7289899105237, 43.5313064340624], [-79.7289962827756, 43.5313082012889], [-79.7290026524209, 43.531309974789], [-79.7290090182412, 43.5313117536486], [-79.7290153814362, 43.531313539682], [-79.7290217407874, 43.5313153319753], [-79.7290280962759, 43.5313171314285], [-79.7290344491767, 43.5313189362551], [-79.7290407982337, 43.5313207473415], [-79.729047143428, 43.5313225655879], [-79.7290534860347, 43.5313243892076], [-79.7290598247788, 43.5313262199874], [-79.729066159679, 43.531328057027], [-79.7290724919727, 43.5313299003401], [-79.7290788204226, 43.5313317499131], [-79.7290851450288, 43.5313336057459], [-79.7290914657911, 43.5313354678385], [-79.729097783947, 43.5313373362046], [-79.7291040982401, 43.5313392117308], [-79.7291104087084, 43.5313410926166], [-79.7291167153329, 43.5313429797622], [-79.729123019332, 43.5313448740815], [-79.7291293182689, 43.5313467737468], [-79.7291356145805, 43.5313486805858], [-79.7291419082855, 43.5313505936983], [-79.7291481969095, 43.5313525130569], [-79.7291544817086, 43.5313544377752], [-79.7291607638824, 43.5313563696672], [-79.7291670422123, 43.5313583078191], [-79.7291733166985, 43.5313602522307], [-79.729179587341, 43.5313622029022], [-79.7291858541397, 43.5313641598336], [-79.7291921170946, 43.5313661230247], [-79.7291983762057, 43.5313680924756], [-79.7292046327104, 43.5313700682002], [-79.729210884134, 43.5313720501708], [-79.7292171329512, 43.531374038415], [-79.7292233779246, 43.531376032919], [-79.729229617817, 43.5313780336691], [-79.7292358551029, 43.5313800406927], [-79.729242088545, 43.5313820539762], [-79.7292483181434, 43.5313840735195], [-79.7292545438981, 43.5313860993227], [-79.7292607645718, 43.5313881313719], [-79.7292669826578, 43.5313901687945], [-79.7292731968813, 43.5313922133771], [-79.7292794072609, 43.5313942642196], [-79.7292856125596, 43.5313963213081], [-79.7292918152518, 43.5313983846702], [-79.7292980141192, 43.531400453392], [-79.7293042078867, 43.53140252926], [-79.7293103990477, 43.5314046114017], [-79.7293165851466, 43.5314066988892], [-79.7293227673829, 43.5314087935367], [-79.7293289470316, 43.5314108935577], [-79.7293351215993, 43.5314129998247], [-79.7293412923044, 43.5314151132517], [-79.7293474591847, 43.5314172320384], [-79.729353620984, 43.5314193570712], [-79.7293597801768, 43.5314214883776], [-79.7293659342886, 43.53142362593], [-79.7293720845567, 43.5314257697423], [-79.729378231, 43.5314279189143], [-79.7293843735806, 43.5314300752462], [-79.7293905123365, 43.5314322369379], [-79.7293966459925, 43.5314344057758], [-79.7294027758236, 43.5314365799734], [-79.7294089018111, 43.5314387604308], [-79.7294150239548, 43.531440947148], [-79.7294211422548, 43.5314431401251], [-79.7294272554928, 43.5314453384481], [-79.7294333648681, 43.5314475439311], [-79.7294394691814, 43.53144975476], [-79.7294455708693, 43.5314519727628], [-79.7294516674952, 43.5314541961114], [-79.7294577602773, 43.5314564257199], [-79.7294638479974, 43.5314586606742], [-79.7294699318549, 43.5314609027887], [-79.7294760118876, 43.5314631502627], [-79.7294820880766, 43.5314654039967], [-79.7294881591657, 43.5314676648769], [-79.7294942264489, 43.5314699302166], [-79.7295002886323, 43.5314722027026], [-79.7295063469908, 43.5314744805482], [-79.7295124014868, 43.5314767655539], [-79.7295184509207, 43.5314790559055], [-79.7295244965109, 43.531481352517], [-79.7295305370391, 43.5314836544744], [-79.7295365737047, 43.5314859635918], [-79.7295426065455, 43.5314882780689], [-79.7295486343053, 43.5314905987921], [-79.7295546582404, 43.5314929248749], [-79.7295606770756, 43.5314952581041], [-79.729566692086, 43.5314975966929], [-79.7295727020155, 43.5314999415278], [-79.7295787081013, 43.5315022926226], [-79.729584709125, 43.5315046490633], [-79.7295907063051, 43.5315070117639], [-79.7295966984042, 43.5315093807106], [-79.7296026866596, 43.5315117559172], [-79.7296086698531, 43.5315141364697], [-79.7296146492028, 43.531516523282], [-79.7296206234716, 43.5315189163404], [-79.7296265926783, 43.5315213147448], [-79.7296325580414, 43.5315237194091], [-79.7296385195608, 43.5315261303332], [-79.729644474762, 43.5315285474897], [-79.7296504261384, 43.5315309700058], [-79.7296563736712, 43.5315333987818], [-79.7296623161231, 43.531535833804], [-79.7296682535129, 43.5315382741721], [-79.729674187059, 43.5315407208], [-79.7296801155431, 43.5315431727739], [-79.7296860389274, 43.5315456318941], [-79.7296919584869, 43.5315480963739], [-79.7296978729844, 43.5315505661998], [-79.729703782401, 43.5315530422717], [-79.7297096879739, 43.5315555246035], [-79.7297155884848, 43.5315580122812], [-79.7297214838959, 43.5315605071053], [-79.7297273755011, 43.5315630063888], [-79.7297332620065, 43.5315655128187], [-79.7297391434687, 43.5315680236943], [-79.7297450198312, 43.5315705417162], [-79.7297508911316, 43.5315730650841], [-79.7297818308238, 43.531586491874], [-79.7298126397449, 43.5316000765757], [-79.729843320483, 43.5316138138156], [-79.7298738768824, 43.5316276973336], [-79.7299043102939, 43.5316417217423], [-79.7299346270173, 43.5316558817094], [-79.7299648284412, 43.531670170047], [-79.7299949196283, 43.531684581409], [-79.7300249018915, 43.5316991122084], [-79.7300547815873, 43.5317137544123], [-79.7300845612849, 43.5317285035471], [-79.730114246028, 43.5317433551669], [-79.7301438384423, 43.5317583020976], [-79.7301733448088, 43.531773339907], [-79.7302027676967, 43.5317884641216], [-79.7302321134435, 43.5318036676086], [-79.7302613845994, 43.5318189467947], [-79.7302905862459, 43.5318342954335], [-79.7303197246639, 43.5318497090927], [-79.7303488024224, 43.531865183299], [-79.7303778246218, 43.5318807109056], [-79.7304067975242, 43.5318962883804], [-79.7304357249547, 43.5319119103636], [-79.7304646119758, 43.5319275715089], [-79.7304934636124, 43.5319432682704], [-79.7305222849646, 43.5319589935016], [-79.7305510798199, 43.5319747436428], [-79.7305798557154, 43.5319905133753], [-79.7306086164574, 43.5320062982392], [-79.7306373658901, 43.5320220919745], [-79.7306661102564, 43.5320378919492], [-79.7315762415633, 43.5325381655174], [-79.731578163766, 43.5325392178185], [-79.73158009105, 43.5325402638732], [-79.7315820233966, 43.5325413045814], [-79.7315839620241, 43.5325423408573], [-79.7315859057331, 43.5325433708866], [-79.7315878545045, 43.5325443955696], [-79.7315898095946, 43.5325454140198], [-79.7315917697283, 43.5325464280238], [-79.7315937349434, 43.5325474357813], [-79.731595705221, 43.5325484381924], [-79.7315976818174, 43.5325494343707], [-79.7315996634573, 43.5325504261029], [-79.7316016501786, 43.5325514115886], [-79.7316036419624, 43.5325523917278], [-79.731605640065, 43.5325533656343], [-79.7316076419927, 43.5325543341807], [-79.7316096489829, 43.5325552973808], [-79.7316116622729, 43.5325562552482], [-79.7316136806443, 43.532557206869], [-79.7316157028598, 43.5325581522296], [-79.7316177313751, 43.5325590922576], [-79.7316197637155, 43.5325600269255], [-79.7316218023747, 43.5325609553606], [-79.7316238448591, 43.5325618784356], [-79.7316258924248, 43.532562795264], [-79.731627945053, 43.5325637067461], [-79.7316300027438, 43.5325646128819], [-79.7316320655347, 43.5325655118709], [-79.731634132132, 43.5325664064], [-79.7316362038296, 43.5325672937824], [-79.7316382805896, 43.5325681758184], [-79.7316403624121, 43.5325690525081], [-79.7316424480787, 43.5325699229374], [-79.7316445388267, 43.5325707871203], [-79.7316466333999, 43.532571645943], [-79.7316487342917, 43.5325724985329], [-79.7316508377903, 43.5325733448488], [-79.7316529463514, 43.5325741858184], [-79.7316550599939, 43.5325750205414], [-79.7316571774804, 43.5325758490042], [-79.7316593000294, 43.5325766721205], [-79.7316614264225, 43.5325774889766], [-79.7316635578969, 43.5325782995861], [-79.7316656932154, 43.5325791039354], [-79.7316678323591, 43.5325799029245], [-79.7316699765841, 43.5325806956671], [-79.7316721246532, 43.5325814821495], [-79.7316742765664, 43.5325822623715], [-79.7316764323047, 43.5325830372335], [-79.7316785931433, 43.5325838049487], [-79.7316807578071, 43.5325845673038], [-79.7316829263149, 43.5325853233986], [-79.7316850986668, 43.5325860732331], [-79.7316872748627, 43.5325868168074], [-79.7316894561399, 43.5325875541351], [-79.7316916400051, 43.5325882860889], [-79.7316938289705, 43.5325890108961], [-79.7316960205237, 43.5325897303294], [-79.7316982171772, 43.5325904426159], [-79.7317004164186, 43.5325911495286], [-79.7317026207413, 43.5325918501948], [-79.7317048276707, 43.5325925445869], [-79.7317070384631, 43.5325932318186], [-79.7317092530807, 43.5325939136902], [-79.7317114715422, 43.5325945893015], [-79.7317136938479, 43.5325952586525], [-79.7317159187791, 43.5325959208292], [-79.7317181475355, 43.5325965776459], [-79.731720380136, 43.5325972282023], [-79.7317226165994, 43.5325978715982], [-79.7317248556506, 43.5325985096203], [-79.7317270985648, 43.5325991404819], [-79.7317293440857, 43.5325997650694], [-79.7317315934506, 43.5326003833967], [-79.7317338466407, 43.5326009963639], [-79.7317361024564, 43.5326016021569], [-79.7317383608977, 43.5326022007756], [-79.7317406231642, 43.5326027940343], [-79.7317428892747, 43.5326033810327], [-79.7317451580108, 43.5326039608568], [-79.7317474293536, 43.5326045344069], [-79.7317497045405, 43.5326051016968], [-79.7317519823341, 43.5326056627126], [-79.7317542627345, 43.5326062174544], [-79.7317565457415, 43.5326067659222], [-79.7317588326115, 43.5326073072294], [-79.7317611220882, 43.5326078422627], [-79.7317634141716, 43.5326083710219], [-79.7317657101179, 43.5326088926206], [-79.7317680074147, 43.5326094088318], [-79.7317703085745, 43.5326099178825], [-79.7317726111037, 43.5326104206455], [-79.7317749174957, 43.5326109162479], [-79.7317772264945, 43.5326114055763], [-79.7317795368627, 43.532611888617], [-79.731781851075, 43.5326123653974], [-79.7317841679128, 43.5326128350035], [-79.7317864861011, 43.5326132992222], [-79.7317888069339, 43.5326137553663], [-79.7317911315919, 43.5326142061504], [-79.7317934576381, 43.5326146497466], [-79.7317957850538, 43.5326150870549], [-79.7317981163323, 43.5326155172028], [-79.7318004489803, 43.532615941063], [-79.7318027842349, 43.5326163586491], [-79.7318051221151, 43.5326167690609], [-79.7318074613648, 43.5326171731851], [-79.7318098032211, 43.5326175710351], [-79.7318121477031, 43.532617961711], [-79.7318144935544, 43.5326183460992], [-79.731816840794, 43.5326187232993], [-79.7318191918587, 43.5326190951394], [-79.7318215430933, 43.5326194588776], [-79.7318238969346, 43.5326198163418], [-79.7318262533826, 43.5326201675319], [-79.7318286111999, 43.5326205124343], [-79.7318309704056, 43.5326208501487], [-79.7318333309995, 43.5326211806752], [-79.7318356942001, 43.5326215049277], [-79.7318380587701, 43.5326218228924], [-79.7318404259657, 43.5326221336828], [-79.7318427932933, 43.5326224381718], [-79.7318451632466, 43.5326227354866], [-79.7318475345692, 43.5326230265136], [-79.7318499072801, 43.5326233103527], [-79.7318522813603, 43.532623587904], [-79.7318546568288, 43.5326238582674], [-79.7318570336667, 43.5326241223429], [-79.7318594131113, 43.5326243801445], [-79.7318617927069, 43.5326246307444], [-79.7318641736907, 43.5326248741563], [-79.7318665560439, 43.5326251112805], [-79.7318689397664, 43.5326253421169], [-79.7318713248961, 43.5326255648652], [-79.7318737113763, 43.5326257822259], [-79.7318760980075, 43.532625992385], [-79.7318784872642, 43.5326261953697], [-79.7318808766529, 43.5326263920531], [-79.7318832674111, 43.5326265824486], [-79.731885658339, 43.5326267647423], [-79.7318880506175, 43.5326269416484], [-79.7318904442842, 43.5326271113666], [-79.7318928381018, 43.5326272738831], [-79.7318952332889, 43.5326274301119], [-79.7318976298641, 43.5326275791526], [-79.7319000265714, 43.532627721892], [-79.7319024234297, 43.5326278574296], [-79.7319048216762, 43.5326279857792], [-79.7319072200547, 43.5326281078274], [-79.7319096198027, 43.5326282235878], [-79.7319120197015, 43.5326283321466], [-79.7319144209886, 43.5326284335174], [-79.7319168211704, 43.532628528573], [-79.731919223959, 43.5326286173545], [-79.73192162568, 43.5326286980205], [-79.7319240275142, 43.5326287732851], [-79.7319264307554, 43.5326288404616], [-79.7319288341099, 43.5326289022368], [-79.7319312376342, 43.5326289559102], [-79.7319336412905, 43.532629003282], [-79.7319360450789, 43.5326290443524], [-79.7319384502555, 43.5326290782348], [-79.7319408543457, 43.5326291049019], [-79.731943258568, 43.5326291252674], [-79.7319456629412, 43.5326291384312], [-79.7319480674464, 43.5326291452936], [-79.7319504721025, 43.5326291449543], [-79.7319528768907, 43.5326291383135], [-79.7319552818298, 43.532629124471], [-79.7319576869199, 43.5326291034269], [-79.7319600909046, 43.5326290760675], [-79.7319624950214, 43.5326290424067], [-79.7319648992891, 43.5326290015442], [-79.7319673024705, 43.5326289534662], [-79.7319697057838, 43.5326288990868], [-79.7319721092481, 43.5326288375057], [-79.7319745128444, 43.5326287696231], [-79.7319769153543, 43.5326286945251], [-79.7319793167589, 43.5326286131119], [-79.7319817183144, 43.5326285244971], [-79.7319841200209, 43.5326284286805], [-79.7319865206221, 43.5326283265488], [-79.731988920118, 43.5326282181018], [-79.7319913197648, 43.5326281024531], [-79.7319937183251, 43.5326279795891], [-79.7319961170176, 43.5326278504235], [-79.7319985133674, 43.5326277149291], [-79.7320009111243, 43.5326275713464], [-79.7320033065198, 43.5326274223351], [-79.7320057020661, 43.5326272661221], [-79.7320080952888, 43.5326271026799], [-79.7320104886435, 43.5326269329362], [-79.7320128809117, 43.5326267559772], [-79.732015273312, 43.5326265727167], [-79.7320176633885, 43.532626382227], [-79.7320200523598, 43.5326261854221], [-79.7320224414631, 43.5326259823158], [-79.7320248282615, 43.5326257710801], [-79.7320272139358, 43.5326255544294], [-79.732029599761, 43.532625330577], [-79.7320319832624, 43.5326250994956], [-79.7320343656586, 43.5326248620989], [-79.7320367469495, 43.532624618387], [-79.7320391259166, 43.5326243674459], [-79.7320415050346, 43.5326241093032], [-79.73204388181, 43.5326238448316], [-79.7320462574802, 43.5326235740448], [-79.7320486320639, 43.5326232960425], [-79.732051004305, 43.5326230117113], [-79.7320533754408, 43.532622721065], [-79.7320557454902, 43.5326224232032], [-79.7320581132158, 43.5326221181123], [-79.7320604798362, 43.5326218067062], [-79.7320628441139, 43.5326214889711], [-79.7320652073052, 43.5326211640207], [-79.732067568154, 43.5326208327413], [-79.7320699278974, 43.5326204951467], [-79.732072285317, 43.532620150323], [-79.7320746403941, 43.5326197991704], [-79.7320769943847, 43.5326194408024], [-79.7320793460327, 43.5326190761054], [-79.7320816965754, 43.5326187050933], [-79.7320840435571, 43.5326183268383], [-79.7320863894335, 43.532617942268], [-79.7320887342045, 43.5326175513826], [-79.7320910754145, 43.5326171532544], [-79.7320934155192, 43.5326167488109], [-79.732095752044, 43.5326163380248], [-79.7320980874823, 43.5326159200233], [-79.732100420578, 43.5326154956929], [-79.7321027513311, 43.5326150650335], [-79.7321050797604, 43.532614627145], [-79.7321074058283, 43.5326141838278], [-79.7321097283351, 43.5326137332678], [-79.7321120497554, 43.5326132754923], [-79.7321143688143, 43.5326128122881], [-79.7321166843121, 43.5326123418411], [-79.7321189987046, 43.5326118650789], [-79.7321213095171, 43.532611381974], [-79.7321236180059, 43.53261089164], [-79.7321259241521, 43.5326103949771], [-79.7321282267184, 43.5326098919715], [-79.732130526942, 43.532609382637], [-79.732132824823, 43.5326088669736], [-79.7321351203802, 43.5326083440811], [-79.7321374123386, 43.5326078157461], [-79.7321397019733, 43.532607280182], [-79.732141988028, 43.5326067382753], [-79.7321442717402, 43.5326061900397], [-79.7321465518723, 43.5326056354614], [-79.7321488296807, 43.5326050736539], [-79.7321511038903, 43.5326045064041], [-79.7321533757762, 43.5326039319251], [-79.7321556440632, 43.5326033520036], [-79.7321579100265, 43.5326027648531], [-79.7321601724098, 43.5326021713599], [-79.7321624312131, 43.5326015715241], [-79.7321646864366, 43.5326009653456], [-79.7321669393174, 43.5326003528382], [-79.7321691886182, 43.5325997339881], [-79.7321714343392, 43.5325991087955], [-79.7321736764801, 43.5325984772602], [-79.7321759162785, 43.5325978393959], [-79.7321781512596, 43.5325971951753], [-79.732180383898, 43.5325965446258], [-79.7321826129565, 43.5325958877336], [-79.732184838435, 43.5325952244989], [-79.7321870590775, 43.5325945558079], [-79.7321892773961, 43.5325938798878], [-79.7321914921348, 43.5325931976251], [-79.7321937032747, 43.53259250992], [-79.7321959096162, 43.5325918149582], [-79.7321981135962, 43.5325911145678], [-79.732200312759, 43.532590407821], [-79.7322025095791, 43.5325896947453], [-79.7322047015819, 43.5325889753133], [-79.7322068887675, 43.5325882495249], [-79.7322090736104, 43.5325875174075], [-79.7322112536172, 43.532586779834], [-79.732213430044, 43.5325860359179], [-79.7322156028909, 43.5325852856591], [-79.7322177709206, 43.532584529044], [-79.7322199353514, 43.5325837669865], [-79.7322220949649, 43.5325829985725], [-79.7322242509985, 43.532582223816], [-79.7322264034521, 43.5325814427168], [-79.7322285510696, 43.5325806561615], [-79.7322306951072, 43.5325798632635], [-79.7322328343275, 43.5325790640092], [-79.7322349687116, 43.5325782592987], [-79.7322370995158, 43.5325774482455], [-79.73223922674, 43.5325766308498], [-79.7322413478909, 43.5325758079842], [-79.7326266533741, 43.5324256539579]], [[-79.7215793591818, 43.5339253245941], [-79.723099680897, 43.5326336810703], [-79.7231231140652, 43.5326137735534], [-79.7231465533285, 43.5325938697012], [-79.723170007272, 43.5325739732114], [-79.7231934782563, 43.5325540895129], [-79.723216976104, 43.5325342223169], [-79.7232405057072, 43.5325143743793], [-79.7232640743947, 43.5324945502841], [-79.7232876870017, 43.5324747554876], [-79.7233113509143, 43.5324549918732], [-79.7233350721857, 43.5324352658113], [-79.7233588569646, 43.5324155791714], [-79.7233827113045, 43.5323959383239], [-79.7234066413349, 43.5323763460385], [-79.7234306543846, 43.532356806899], [-79.7234547553079, 43.5323373254617], [-79.7234789502153, 43.5323179053963], [-79.7235032451792, 43.5322985521732], [-79.723527645073, 43.5322792694483], [-79.7235521584628, 43.5322600618193], [-79.7235767877282, 43.5322409338147], [-79.7236015414352, 43.5322218900321], [-79.723626423182, 43.5322029359142], [-79.7236514403162, 43.5321840751445], [-79.7236765951986, 43.5321653131519], [-79.7237018963952, 43.5321466545338], [-79.7237273475231, 43.5321281038327], [-79.7237529534175, 43.5321096665049], [-79.7237787189136, 43.5320913480067], [-79.7238046500841, 43.5320731538084], [-79.7238307505648, 43.5320550875521], [-79.7238570251722, 43.5320371555943], [-79.7238620195452, 43.5320337762699], [-79.7238670199903, 43.5320304024155], [-79.7238720265263, 43.532027033131], [-79.7238770403716, 43.5320236693303], [-79.7238820590706, 43.5320203100856], [-79.7238870850789, 43.5320169563248], [-79.7238921171781, 43.5320136071338], [-79.7238971565867, 43.5320102634267], [-79.72390220083, 43.5320069251758], [-79.7239072524016, 43.5320035915085], [-79.7239123100641, 43.5320002624111], [-79.7239173737987, 43.5319969387837], [-79.7239224436053, 43.5319936206263], [-79.7239275195028, 43.5319903070388], [-79.7239326027286, 43.5319869980349], [-79.7239376907702, 43.5319836953874], [-79.72394278614, 43.5319803973236], [-79.7239478876009, 43.5319771038296], [-79.7239529951337, 43.5319738158056], [-79.7239581087385, 43.5319705332516], [-79.7239632296716, 43.5319672552813], [-79.7239683554395, 43.5319639827672], [-79.7239734885166, 43.5319607157369], [-79.7239786264474, 43.5319574532626], [-79.7239837716876, 43.5319541962722], [-79.7239889217814, 43.5319509438378], [-79.7239940791656, 43.5319476977874], [-79.7239992426407, 43.5319444563068], [-79.7240044122069, 43.531941219396], [-79.724009587845, 43.5319379879553], [-79.7240147695552, 43.5319347619846], [-79.7240199573373, 43.5319315414838], [-79.7240251512105, 43.531928325553], [-79.7240303511556, 43.5319251150921], [-79.7240355571728, 43.5319219101012], [-79.7240407680437, 43.5319187096664], [-79.7240459862049, 43.5319155156155], [-79.7240512104761, 43.5319123252343], [-79.7240564408004, 43.5319091412233], [-79.7240616771966, 43.5319059626822], [-79.7240669196838, 43.531902788711], [-79.7240721682431, 43.5318996202099], [-79.724077421656, 43.5318964562647], [-79.7240826823593, 43.5318932987035], [-79.7240879479163, 43.5318901456983], [-79.7240932207826, 43.5318869981769], [-79.7240984984837, 43.5318838561118], [-79.7241037822567, 43.5318807195166], [-79.7241090721207, 43.5318775874912], [-79.7241143680378, 43.531874461836], [-79.7241196700459, 43.5318713407507], [-79.724124978126, 43.5318682251353], [-79.7241302910409, 43.5318651149761], [-79.724135611284, 43.5318620094005], [-79.7241409363429, 43.5318589101814], [-79.7241462674927, 43.531855815532], [-79.7241516047146, 43.5318527263526], [-79.7241569479896, 43.5318496435434], [-79.7241622961183, 43.5318465652902], [-79.7241676515752, 43.5318434916206], [-79.724173011848, 43.5318404243073], [-79.7241783781927, 43.5318373624641], [-79.7241837493912, 43.5318343051769], [-79.72418912788, 43.5318312542736], [-79.7241945112225, 43.5318282079263], [-79.724199900618, 43.5318251679492], [-79.7242052948674, 43.5318221325281], [-79.724210696426, 43.5318191025908], [-79.7242161028193, 43.5318160781097], [-79.7242215152847, 43.5318130590985], [-79.7242269325848, 43.5318100455436], [-79.7242323571943, 43.5318070374724], [-79.7242377854012, 43.5318040348436], [-79.7242432209174, 43.5318010376986], [-79.7242486612684, 43.5317980460097], [-79.7242541076914, 43.5317950597909], [-79.7242595601864, 43.531792079042], [-79.7242650175162, 43.5317891037492], [-79.724270480918, 43.5317861339265], [-79.7242759503919, 43.5317831695737], [-79.7242814247005, 43.5317802106771], [-79.7242869050812, 43.5317772572505], [-79.7242923902966, 43.5317743092801], [-79.724297881584, 43.5317713667796], [-79.7243033789435, 43.5317684297491], [-79.7243088811188, 43.531765499075], [-79.7243143893851, 43.5317625729706], [-79.7243199024861, 43.5317596523224], [-79.7243254216402, 43.5317567380444], [-79.7243309456481, 43.5317538283223], [-79.724336475709, 43.5317509249704], [-79.7243420118609, 43.5317480261883], [-79.7243475528286, 43.5317451337625], [-79.7243530986311, 43.5317422467929], [-79.7243586505057, 43.5317393652932], [-79.7243642084522, 43.5317364892636], [-79.7243697712336, 43.53173361869], [-79.7243753388307, 43.5317307544728], [-79.7243809125189, 43.5317278948254], [-79.7243864922601, 43.5317250415482], [-79.7243920768551, 43.5317221928269], [-79.7243976662658, 43.531719350462], [-79.7244032617487, 43.531716513567], [-79.7244088620473, 43.5317136830284], [-79.7244144684369, 43.5317108570595], [-79.7244200796424, 43.531708037447], [-79.7244256969389, 43.5317052224042], [-79.7244313178138, 43.531702413704], [-79.7244369459982, 43.5316996104875], [-79.724442577761, 43.5316968136136], [-79.7244482156149, 43.5316940213094], [-79.7244538595219, 43.5316912353754], [-79.7244595082636, 43.5316884548975], [-79.7244651618401, 43.5316856798758], [-79.7244708202325, 43.5316829112104], [-79.7244764846969, 43.531680148015], [-79.724482153996, 43.5316773902757], [-79.72448782813, 43.5316746379926], [-79.724493508336, 43.5316718911794], [-79.7244991933579, 43.5316691507225], [-79.7245048832145, 43.5316664157218], [-79.7245105791432, 43.531663686191], [-79.7245162798877, 43.5316609630166], [-79.7245219854859, 43.531658244398], [-79.724527695881, 43.5316555330361], [-79.7245308610178, 43.5316540340457]], [[-79.641406759546, 43.5989196118504], [-79.6415543037963, 43.5990055647159], [-79.6416034085358, 43.5990307814854], [-79.6417281062791, 43.599083505207], [-79.6417747429082, 43.5991012435504], [-79.6418391769258, 43.5991246101631], [-79.6419228944322, 43.5991574907977], [-79.6419849730476, 43.5991867071652], [-79.6420213195619, 43.5992062401078], [-79.642039557958, 43.5992182610542], [-79.642054827208, 43.5992283261667], [-79.6421076958161, 43.5992635890969], [-79.6421746523757, 43.5993167689755], [-79.642229137999, 43.5993662431898], [-79.6423052417637, 43.5994380556119], [-79.6423614993006, 43.5994994856337]], [[-79.6423614993006, 43.5994994856337], [-79.6457167231284, 43.5959100889802], [-79.6472985330983, 43.5944421911024], [-79.6488669514284, 43.5953478683081], [-79.6527296765724, 43.5916497514701], [-79.6545092805419, 43.5929387804023], [-79.6575160338879, 43.590095921001], [-79.676852590163, 43.5714940466327], [-79.6800471817724, 43.5682779540059], [-79.6834965131583, 43.5645512276353], [-79.6856789331043, 43.5625969639799], [-79.6875545866775, 43.5611823236958], [-79.6960194806182, 43.555426586406], [-79.6999728231981, 43.5523914759634], [-79.7091474447147, 43.545335165981], [-79.7131766790844, 43.5418522735537], [-79.7142887273066, 43.5408909161123], [-79.7199473625248, 43.5358952124945], [-79.7245308610178, 43.5316540340457]], [[-79.6423614993006, 43.5994994856337], [-79.6423797979568, 43.599519466792], [-79.6424236794763, 43.5995703798613], [-79.6424592459329, 43.5996164085234], [-79.6424992044049, 43.5996685058193], [-79.6425520212032, 43.5997607048263], [-79.6425923096653, 43.5998276131127], [-79.6426343933983, 43.5999013029189], [-79.6426601895921, 43.5999616615366], [-79.6426961531883, 43.6000539115536], [-79.6427139966357, 43.6001132176946], [-79.6427338084137, 43.6001797071983], [-79.6427450314317, 43.6002345227525], [-79.6427591216495, 43.6003277951872], [-79.6427651898945, 43.600385009427], [-79.6427686572777, 43.600448627053], [-79.642771543565, 43.6005134578225], [-79.6427670426171, 43.6005798495108], [-79.6427576641451, 43.6006458384283], [-79.6427498855876, 43.6006948917812], [-79.6427319796783, 43.6007862590011], [-79.6427150784253, 43.6008583443431], [-79.6426918182228, 43.6009314940798], [-79.6426688497332, 43.600990951268], [-79.6426272041139, 43.6010858587628], [-79.6425897339386, 43.6011591053467], [-79.6425629278227, 43.6012048542456], [-79.6425199362935, 43.6012748595185], [-79.6424654741288, 43.6013574197003], [-79.6424110526836, 43.6014339755614], [-79.642327992697, 43.6015437509957], [-79.642204126594, 43.6016971108858], [-79.6421044203374, 43.6018254212606], [-79.6418222764019, 43.6021709628998], [-79.641709514262, 43.602306703664], [-79.6416146555747, 43.6024173900214], [-79.6413904059213, 43.6026724853539], [-79.6411649406055, 43.6029261818647], [-79.6408486717438, 43.6032794144471], [-79.6405854125217, 43.6035564750834], [-79.6403097183083, 43.6038414511683], [-79.639934813593, 43.6042191984617], [-79.6397349115125, 43.6044137481711], [-79.6395779661393, 43.6045654959164], [-79.6392020616983, 43.6049195239974], [-79.6362731096322, 43.6076363387871], [-79.6338293687704, 43.6099036892134], [-79.6329861020143, 43.610676594814], [-79.6323961794176, 43.6111904462442], [-79.632195112331, 43.6113546772903], [-79.6319645544268, 43.6115433511202], [-79.6316766174682, 43.6117838083823], [-79.6315775071846, 43.6118706503367], [-79.6314948732459, 43.6119490789519], [-79.631415878737, 43.6120263031291], [-79.631337953714, 43.6121108377956], [-79.6312540884474, 43.6122069182289], [-79.6311825860352, 43.6122918826533], [-79.6311127422161, 43.6123794924604], [-79.6310473404412, 43.6124713800994], [-79.6309889494487, 43.6125590333536], [-79.6309353225778, 43.6126444719321], [-79.6308864573566, 43.6127276967126], [-79.6308303140522, 43.6128266462048], [-79.6307945617153, 43.6128992412317], [-79.6307416280815, 43.6130068036298], [-79.630708390771, 43.6130925232653], [-79.6306663759594, 43.613196474369], [-79.6306324417365, 43.6133035007858], [-79.6306065360886, 43.6133784917252], [-79.6305804703346, 43.6134784443127], [-79.6305523160161, 43.6135988874689], [-79.6304933291551, 43.6139632710485], [-79.6304700975164, 43.614088485846], [-79.630456608697, 43.6141440418326], [-79.6304299362845, 43.6142398470676], [-79.6303901312342, 43.6143589107157], [-79.6303675962563, 43.6144308707143], [-79.6303403279632, 43.6145061819994], [-79.6303185044636, 43.6145578771232], [-79.6302889862605, 43.6146291708639], [-79.6302527229431, 43.6147139878957], [-79.6302044069205, 43.6148074024489], [-79.6301646719204, 43.614884150786], [-79.6301157007408, 43.6149699472733], [-79.6300674854277, 43.6150481003052], [-79.6300134013244, 43.6151305391041], [-79.6299648446743, 43.6152002989805], [-79.629873587314, 43.6153233638397], [-79.6298348485528, 43.6153723619913], [-79.6297736593317, 43.6154467631744], [-79.6296960503608, 43.6155344329419], [-79.629631677806, 43.6156027443004], [-79.6294674035241, 43.615775780719], [-79.629223145955, 43.6160296679506], [-79.6291214480135, 43.6161315304372], [-79.6287542355962, 43.6165145897786], [-79.62820736655, 43.6170777857069], [-79.6273424244642, 43.6179686485367], [-79.6267535967332, 43.6185754952828], [-79.6266637523561, 43.6186674386895], [-79.6262800147471, 43.6190451761591], [-79.6254414799045, 43.6198484627351], [-79.6245313970588, 43.6207395226391], [-79.623300867573, 43.6219526752643], [-79.6227749143615, 43.6224759090221], [-79.6226488452161, 43.6225938024672], [-79.6224496129793, 43.6227879871157], [-79.622331861507, 43.6228955232291], [-79.6222548006031, 43.6229617118226], [-79.6221711161892, 43.6230277259773], [-79.6220130807302, 43.6231541824128], [-79.6217346383802, 43.6233632893166], [-79.6216097658556, 43.6234571220881], [-79.6214813196125, 43.6235587630878], [-79.6212439004488, 43.6237618734723], [-79.6210012991898, 43.6239929367059], [-79.6207174331369, 43.6242715205655], [-79.6205003176415, 43.624490118116], [-79.6203282772307, 43.6246708195754], [-79.6197000314102, 43.6253405854065], [-79.6194036155165, 43.6256706017341], [-79.6190835815829, 43.6260333548973], [-79.6188533543604, 43.6262832975265], [-79.6185384065034, 43.6266132775924], [-79.6181218971973, 43.627034509607], [-79.6175477529374, 43.6275921498399], [-79.617089105272, 43.6280151508293], [-79.6168317837762, 43.6282460223984], [-79.6162167395633, 43.6287712084598], [-79.6158956076445, 43.6290368899009], [-79.6155431694661, 43.6293192726487], [-79.6138175425117, 43.6306838517371], [-79.6129219911249, 43.6313992738251], [-79.6115728797687, 43.6324866000032], [-79.6107165838567, 43.6331541409126], [-79.6106045451764, 43.633243173378], [-79.610122862017, 43.6336335443515], [-79.609916500969, 43.6338189050716], [-79.6096848514311, 43.6340212706143], [-79.6094542457153, 43.6342284051694], [-79.6092468010576, 43.634413592103], [-79.6091052126937, 43.6345224981053], [-79.6089674637511, 43.6346163312102], [-79.6088009013459, 43.6347244655768], [-79.6086901354626, 43.6347902688096], [-79.6085766832177, 43.6348510636434], [-79.6084053620516, 43.6349295795014], [-79.6080519443603, 43.6350738772759], [-79.6076913864582, 43.635194836954], [-79.6075794217428, 43.6352354296256], [-79.6074676363472, 43.6352874675007], [-79.6073970255715, 43.6353238043331], [-79.6073114092591, 43.6353736172831], [-79.6072217555253, 43.6354304418725], [-79.6071284869687, 43.6354992192104], [-79.6070648010511, 43.635554483706], [-79.6069929150874, 43.6356229164559], [-79.6069298814479, 43.6356969404643], [-79.6068765168951, 43.6357719511733], [-79.6068339039512, 43.63584311046], [-79.6068000108704, 43.6359107897449], [-79.6067743615622, 43.6359778356857], [-79.6067519596101, 43.6360385788183], [-79.6067378026971, 43.6360986895312], [-79.6067310138658, 43.6361521812119], [-79.6067232562714, 43.6362133135443], [-79.6067214638504, 43.6362724755944], [-79.6067242275281, 43.6363343142349], [-79.6067338297004, 43.6364001682637], [-79.6067424618584, 43.6364736647289], [-79.6067647673363, 43.6365551919223], [-79.6067985654951, 43.6366297829926], [-79.6068314904546, 43.6366983874836], [-79.6068650321508, 43.6367630530484], [-79.6069079599319, 43.63682267464], [-79.6069596504909, 43.6368913520472], [-79.6070026611621, 43.6369392919815], [-79.6070682205998, 43.6370071209205], [-79.6071228201855, 43.6370528736212], [-79.6071989018845, 43.637103031698], [-79.6072550602931, 43.6371410977467], [-79.6072850138165, 43.6371586900069], [-79.607341511675, 43.6371949998762], [-79.6074040229274, 43.6372317134309], [-79.6074957386109, 43.6372808876799], [-79.6075575019867, 43.6373124696893], [-79.6084054277374, 43.6377376205556], [-79.6085044074462, 43.6377905551478], [-79.6086105423485, 43.6378510995622], [-79.6106744600389, 43.6390895826116], [-79.6110120158363, 43.6392999010162], [-79.6118225072473, 43.6397946159522], [-79.6121529665277, 43.6400027432576], [-79.6124771636627, 43.6402087568879], [-79.6129297526694, 43.6405183101586], [-79.6132534414396, 43.640737117222], [-79.6133881286076, 43.6408353627928], [-79.6135307957682, 43.6409382934193], [-79.6136544088097, 43.641037659488], [-79.6136936778222, 43.6410701016189], [-79.6137435626232, 43.6411181601868], [-79.6137907880015, 43.6411724766375], [-79.6138436675102, 43.6412410608693], [-79.6139053431055, 43.6413306445137], [-79.6139504159618, 43.6414145847971], [-79.6140190900575, 43.6415602767194], [-79.6140472762481, 43.6416534600301], [-79.6140501012227, 43.6416865414794], [-79.6140501387885, 43.6417413660784], [-79.6140453202429, 43.6418254036281], [-79.6140345183441, 43.6418999459888], [-79.6140048070879, 43.6420717348885], [-79.6139709292629, 43.6421660086819], [-79.6139220312002, 43.642264463624], [-79.6138774855087, 43.6423340974676], [-79.6138217391331, 43.6424019441263], [-79.6137620021249, 43.6424674481501], [-79.6136789299245, 43.642547987519], [-79.6120269199245, 43.6439487946501], [-79.6109823308773, 43.6449042140165], [-79.6106128996503, 43.6452470652281], [-79.6104980463085, 43.6453502119626], [-79.6103970993935, 43.6454355035644], [-79.6103159021678, 43.6454976951913], [-79.6102451810572, 43.645548689886], [-79.6100923898843, 43.6456483531724], [-79.6099374714849, 43.6457409853136], [-79.609786778815, 43.6458173048786], [-79.6096894674864, 43.6458671438283], [-79.6095712030987, 43.6459393745084], [-79.6094626713504, 43.6460028644977], [-79.6093579832767, 43.6460700558499], [-79.6092532937304, 43.6461372470871], [-79.6091543939367, 43.6462063923078], [-79.6090931231121, 43.6462542634644], [-79.6087985413273, 43.6465195880452], [-79.6086039686875, 43.6466903409749], [-79.6085283495868, 43.6467582464926], [-79.6084225538542, 43.6468567671067], [-79.6083454750382, 43.6469295006487], [-79.60825307888, 43.6470159875198], [-79.6081644101906, 43.6471131920764], [-79.6080416834826, 43.6472515277589], [-79.6079320801571, 43.647383353028], [-79.6078375135878, 43.6475069498662], [-79.6075278855584, 43.6479449688473], [-79.6074296631507, 43.6480806364931], [-79.6073883494462, 43.648138831585], [-79.6073336337975, 43.6482090600935], [-79.607277229163, 43.6482825625344], [-79.6072350086273, 43.6483345392038], [-79.607139810279, 43.6484463929109], [-79.6070527745205, 43.6485474008318], [-79.6069727679725, 43.6486297904792], [-79.606712461398, 43.6488813379943], [-79.6057884108921, 43.6497054395249], [-79.6057240457883, 43.6497614736784], [-79.6056020699365, 43.6498604470203], [-79.6046526979521, 43.6506108968252], [-79.6041514959702, 43.6510345291267], [-79.6033669189839, 43.6517339987308], [-79.6001201214027, 43.6546770783032], [-79.5998863496457, 43.6548952233469], [-79.5998178135227, 43.6549622742425], [-79.5996673849759, 43.6551332409098], [-79.5995120829619, 43.6553058169835], [-79.5993888317469, 43.6554413301872], [-79.5993100315238, 43.655531413083], [-79.5992527427292, 43.655593893318], [-79.5991909397772, 43.6556604275876], [-79.5991001767178, 43.6557501926379], [-79.5987831912251, 43.6560473458599], [-79.5986043784821, 43.6562105006435], [-79.5944625179011, 43.6599893305996], [-79.5914607743305, 43.6627242710022], [-79.5902910454208, 43.6637887347058], [-79.5901549494978, 43.6639080928321], [-79.5900977523353, 43.6639562595823], [-79.5900444503272, 43.663997771845], [-79.5900208119631, 43.6640158256935], [-79.5899673069029, 43.6640559407089], [-79.5896669753781, 43.6642717431718], [-79.589566442747, 43.6643430038489], [-79.5893971648824, 43.6644633147526], [-79.589284537194, 43.6645517431173], [-79.5891488096504, 43.6646683988974], [-79.5890463190472, 43.6647640454402]]]}, "properties": {"name": "Mississauga Transitway"}}]}