{"type": "FeatureCollection", "features": [{"type": "Feature", "id": 1, "geometry": {"type": "LineString", "coordinates": [[-79.6735093048893, 43.4650503885371], [-79.669587594064, 43.4708654530288], [-79.6616729828959, 43.4801231597317], [-79.6569348313723, 43.4860425005859], [-79.6445981767851, 43.5018167709064], [-79.6424508680285, 43.5045347564196], [-79.6424408192909, 43.5045474698187], [-79.6424307607361, 43.5045601794986], [-79.6424206948377, 43.5045728854887], [-79.6424106203386, 43.5045855886746], [-79.6424005372591, 43.5045982881559], [-79.642390446836, 43.5046109839475], [-79.6423803490691, 43.5046236760492], [-79.6423702414649, 43.504636365332], [-79.642360126517, 43.5046490509249], [-79.6423500042052, 43.5046617337282], [-79.6423398720763, 43.5046744128124], [-79.6423297338403, 43.5046870882214], [-79.6423195857872, 43.5046997599113], [-79.6423094303702, 43.5047124288115], [-79.6422992676296, 43.5047250931217], [-79.6422890950316, 43.5047377555131], [-79.6422789151099, 43.5047504133144], [-79.6422687278244, 43.5047630683262], [-79.6422585319583, 43.5047757196334], [-79.6422483275119, 43.5047883672361], [-79.6422381157014, 43.5048010120492], [-79.6422278953106, 43.5048136531578], [-79.6422176675759, 43.5048262905765], [-79.6422074300241, 43.504838924276], [-79.642197186345, 43.5048515552005], [-79.6421869341057, 43.5048641815204], [-79.6421766732656, 43.5048768050359], [-79.6421664038249, 43.504889425747], [-79.6421561270607, 43.5049020418681], [-79.6421458429324, 43.5049146551995], [-79.6421355502236, 43.5049272648264], [-79.6421252489344, 43.5049398707488], [-79.6421149390445, 43.5049524738668], [-79.6421046218108, 43.504965073295], [-79.6420942972332, 43.5049776690332], [-79.6420839640752, 43.504990261067], [-79.6420736223367, 43.5050028493962], [-79.6420632732341, 43.5050154349357], [-79.6420529155511, 43.5050280167706], [-79.6420425505242, 43.5050405949157], [-79.6420321769168, 43.5050531693562], [-79.6420217959656, 43.5050657401069], [-79.6420114064136, 43.5050783080531], [-79.6420010082812, 43.5050908722948], [-79.6419906028049, 43.5051034328467], [-79.6419801887481, 43.5051159896939], [-79.6419697673474, 43.5051285428513], [-79.641959337346, 43.5051410932042], [-79.6419489000007, 43.5051536398673], [-79.6419384540951, 43.5051661819256], [-79.6419279995686, 43.5051787220797], [-79.6419175377184, 43.5051912576438], [-79.6419070685243, 43.5052037895179], [-79.6418965907295, 43.5052163185876], [-79.6418861043541, 43.5052288439527], [-79.641875610655, 43.5052413647277], [-79.641865108335, 43.5052538835986], [-79.6418545986914, 43.5052663978793], [-79.6418440804671, 43.5052789084554], [-79.6418335548788, 43.5052914162418], [-79.64182302073, 43.5053039194234], [-79.6418124792172, 43.5053164198153], [-79.6418019291239, 43.5053289165025], [-79.6417913704499, 43.5053414094852], [-79.641780804432, 43.5053538987779], [-79.6417702310501, 43.5053663852809], [-79.6417596491077, 43.505378867179], [-79.6417490585645, 43.5053913462728], [-79.6417384606976, 43.5054038207764], [-79.6417278554667, 43.5054162924903], [-79.6417172416551, 43.5054287604995], [-79.6417066192629, 43.5054412248041], [-79.6416959895268, 43.5054536854188], [-79.6416853524265, 43.5054661432437], [-79.6416747067659, 43.5054785964638], [-79.6416640525246, 43.5054910459793], [-79.6416533909192, 43.505503492705], [-79.6416427207332, 43.505515935726], [-79.6416320432234, 43.505528374157], [-79.6416213583495, 43.5055408097981], [-79.6416106648949, 43.5055532417346], [-79.6415999628597, 43.5055656699664], [-79.6415892534806, 43.5055780945083], [-79.6415785367575, 43.5055905153602], [-79.6415678114538, 43.5056029325075], [-79.6415570775492, 43.5056153468502], [-79.6415463363208, 43.5056277566028], [-79.6415355877485, 43.5056401626655], [-79.6415248305754, 43.5056525659236], [-79.6415140648417, 43.5056649645769], [-79.6415032929806, 43.5056773604552], [-79.6414925113223, 43.5056897517138], [-79.6414817222999, 43.5057021401827], [-79.6414709259335, 43.5057145249615], [-79.6414601209864, 43.5057269060357], [-79.6414493087155, 43.5057392825197], [-79.6414384878437, 43.5057516561992], [-79.641427659628, 43.5057640261887], [-79.6414168240682, 43.5057763924883], [-79.6414059799278, 43.505788755083], [-79.6413951272066, 43.5058011139732], [-79.6413842671415, 43.5058134691733], [-79.6413733997324, 43.5058258206834], [-79.6413625237425, 43.5058381684888], [-79.6413516404289, 43.505850511704], [-79.6413407485143, 43.5058628521147], [-79.6413298492558, 43.5058751888354], [-79.6413189414165, 43.5058875218514], [-79.6413080262332, 43.5058998511773], [-79.6412971024692, 43.5059121767986], [-79.6412861713611, 43.5059244987298], [-79.641275232909, 43.5059368169709], [-79.6412642858762, 43.5059491315074], [-79.6412533314994, 43.5059614423538], [-79.6412423685419, 43.5059737494955], [-79.6412313982403, 43.5059860529472], [-79.6412204193579, 43.5059983526941], [-79.6412094331315, 43.506010648751], [-79.6411984395611, 43.5060229411179], [-79.6411874374301, 43.5060352288798], [-79.6411764279349, 43.5060475138519], [-79.6411654098589, 43.5060597951192], [-79.6411543844591, 43.5060720717963], [-79.6411433504583, 43.5060843456688], [-79.6411323103502, 43.506096615866], [-79.6411212604448, 43.5061088814435], [-79.6411102031751, 43.5061211442311], [-79.6410991385816, 43.5061334024286], [-79.6410880666439, 43.5061456569359], [-79.6410769861054, 43.5061579086387], [-79.6410658970062, 43.5061701557365], [-79.6410548017997, 43.5061823991589], [-79.6410436980124, 43.5061946388766], [-79.6410325856443, 43.5062068748895], [-79.641021465932, 43.5062191072124], [-79.6410103388758, 43.5062313358451], [-79.6409992032589, 43.5062435598729], [-79.6409880602778, 43.5062557811108], [-79.6409769099525, 43.5062679986586], [-79.6409657510667, 43.5062802116014], [-79.6409545836, 43.5062924208395], [-79.6409434100058, 43.5063046273023], [-79.6409322278509, 43.5063168291602], [-79.6409210371152, 43.5063290273132], [-79.6409098402722, 43.5063412217909], [-79.6408986348483, 43.5063534125638], [-79.6408874208637, 43.5063655987316], [-79.6408761995149, 43.5063777821096], [-79.6408649708422, 43.5063899608972], [-79.6408537335684, 43.5064021368803], [-79.6408424889707, 43.506414308273], [-79.6408312370289, 43.5064264759757], [-79.6408199765062, 43.5064386399735], [-79.6408087086395, 43.5064508002811], [-79.6407974334285, 43.5064629568987], [-79.640786149657, 43.5064751089113], [-79.6407748585413, 43.5064872572337], [-79.6407635600613, 43.5064994027662], [-79.6407522530206, 43.5065115436937], [-79.6407409386358, 43.506523680931], [-79.6407296156701, 43.5065358144635], [-79.6407182866172, 43.5065479434204], [-79.6407069477265, 43.506560069558], [-79.6406956027486, 43.5065721911199], [-79.6406842491898, 43.506584308977], [-79.6406728882868, 43.5065964231439], [-79.6406615200397, 43.5066085336206], [-79.6406501432118, 43.5066206403926], [-79.6406387590598, 43.5066327425741], [-79.640627366327, 43.5066448410508], [-79.64061596625, 43.5066569358374], [-79.6406045588288, 43.5066690269338], [-79.6405931440635, 43.5066811143401], [-79.6405817207375, 43.5066931971413], [-79.6405702900471, 43.5067052771525], [-79.6405588520327, 43.5067173525734], [-79.6405474054374, 43.5067294242894], [-79.6405359515182, 43.506741491415], [-79.6405244902346, 43.5067535557506], [-79.6405130203902, 43.5067656154812], [-79.6405015432017, 43.5067776715216], [-79.640490058669, 43.5067897238718], [-79.6404785655553, 43.5068017725172], [-79.6404670663544, 43.5068138165868], [-79.6404555573359, 43.5068258569369], [-79.6404440422099, 43.5068378936115], [-79.6404325185029, 43.5068499265811], [-79.640420987472, 43.5068619549604], [-79.6404094490766, 43.5068739805497], [-79.6403979033573, 43.5068860015486], [-79.6403863490772, 43.5068980179424], [-79.6403747874327, 43.5069100315462], [-79.6403632172274, 43.5069220405449], [-79.640351639678, 43.5069340458534], [-79.640340056021, 43.5069460474864], [-79.6403284625666, 43.5069580444996], [-79.6403168630047, 43.5069700378372], [-79.6403052548618, 43.50698202747], [-79.6402936393747, 43.5069940134125], [-79.6402820165636, 43.5070059947646], [-79.6402703851514, 43.507017973312], [-79.6402587464353, 43.5070299463687], [-79.6402471003547, 43.5070419166355], [-79.6402354469502, 43.5070538823118], [-79.6402237849646, 43.5070658442831], [-79.6402121156348, 43.5070778025643], [-79.6402004389608, 43.5070897571552], [-79.6401887549627, 43.5071017071556], [-79.6401770624039, 43.507113652551], [-79.6401653624806, 43.5071255951562], [-79.6401536552333, 43.5071375331711], [-79.6401419406417, 43.5071494674957], [-79.6401302174691, 43.5071613981153], [-79.6401184869725, 43.5071733241445], [-79.6401067491316, 43.5071852464834], [-79.6400950039465, 43.5071971651321], [-79.6400832514373, 43.5072090791903], [-79.6400714903471, 43.5072209895436], [-79.6400597219126, 43.5072328962066], [-79.6400479461541, 43.5072447982791], [-79.6400361618146, 43.5072566966467], [-79.6400243701307, 43.507268591324], [-79.6400125723596, 43.5072804814255], [-79.6400007647505, 43.5072923687075], [-79.6399889510743, 43.5073042505136], [-79.6399771300336, 43.5073161295296], [-79.6399653004321, 43.5073280039404], [-79.6399534635064, 43.5073398737608], [-79.6399416192164, 43.507351740791], [-79.6399297663857, 43.5073636023159], [-79.6399179074272, 43.5073754610653], [-79.6399060399079, 43.5073873152096], [-79.6398941650443, 43.5073991656636], [-79.6398822828365, 43.5074110124272], [-79.6398703920677, 43.5074228545857], [-79.6398584952117, 43.5074346921684], [-79.6398465897544, 43.5074465269463], [-79.639834676973, 43.5074583571337], [-79.6398227568675, 43.5074701827305], [-79.6398108293975, 43.5074820055373], [-79.6397988933868, 43.5074938228387], [-79.6397869512484, 43.5075056373646], [-79.6397750005491, 43.5075174472853], [-79.6397630425258, 43.5075292526155], [-79.6397510759011, 43.5075410551408], [-79.6397391032093, 43.5075528521902], [-79.6397271219162, 43.5075646464347], [-79.6397151345358, 43.5075764361034], [-79.6397031385945, 43.5075882211669], [-79.6396911352886, 43.5076000034402], [-79.6396791246789, 43.5076117802228], [-79.6396671054679, 43.5076235542005], [-79.6396550801694, 43.5076353236024], [-79.6396430463102, 43.5076470883991], [-79.6396310051066, 43.5076588495055], [-79.6396189565586, 43.5076706069214], [-79.6396069006865, 43.5076823597469], [-79.6395948374701, 43.507694108882], [-79.6395827656928, 43.5077058534118], [-79.6395706865712, 43.5077175942512], [-79.6395586013622, 43.5077293305149], [-79.6395465075721, 43.5077410630734], [-79.6395344064376, 43.5077527919416], [-79.639522297979, 43.5077645162192], [-79.6395101809595, 43.5077762358916], [-79.6394980578122, 43.5077879527885], [-79.6394859261242, 43.5077996641799], [-79.6394737883286, 43.5078113718957], [-79.6394616419519, 43.5078230759063], [-79.639449488251, 43.5078347753264], [-79.6394373272058, 43.5078464710561], [-79.6394251588162, 43.5078581630954], [-79.6394129818859, 43.5078698496293], [-79.6394007988278, 43.5078815333876], [-79.6393886072088, 43.5078932125407], [-79.6393764095024, 43.5079048871179], [-79.6393642032148, 43.5079165579899], [-79.6393519896031, 43.5079282242714], [-79.639339768647, 43.5079398868625], [-79.6393275403465, 43.5079515457632], [-79.6393153047421, 43.5079631991731], [-79.6393030617731, 43.5079748497927], [-79.6392908102432, 43.5079864958071], [-79.6392785526258, 43.5079981372456], [-79.6392662864273, 43.5080097749789], [-79.6392540141414, 43.5080214081363], [-79.6392417332743, 43.5080330375886], [-79.6392294450831, 43.5080446624503], [-79.6392171495474, 43.5080562836216], [-79.6392048466876, 43.5080679002022], [-79.6391925364834, 43.5080795130924], [-79.639180218955, 43.508091121392], [-79.6391678940822, 43.5081027260011], [-79.6391555618853, 43.5081143260197], [-79.6391432211273, 43.5081259214329], [-79.6391308742618, 43.5081375131703], [-79.639118518815, 43.5081491012026], [-79.6391061572809, 43.508160684659], [-79.6390937871858, 43.50817226351], [-79.639081410983, 43.5081838386853], [-79.6390690262193, 43.5081954092553], [-79.6390566341111, 43.5082069761347], [-79.6390442346788, 43.5082185384235], [-79.6390318279223, 43.5082300961217], [-79.6390194138213, 43.5082416501294], [-79.6390069923961, 43.5082531995464], [-79.6389945636266, 43.508264745273], [-79.6389821275328, 43.5082762864089], [-79.6389696840945, 43.5082878238544], [-79.6389572333321, 43.5082993567092], [-79.6389447752253, 43.5083108858735], [-79.6389323098144, 43.5083224095469], [-79.6389198358022, 43.5083339304154], [-79.6389073557227, 43.5083454458077], [-79.6388948682988, 43.5083569575095], [-79.6388823722936, 43.5083684655061], [-79.6388698702213, 43.5083799680265], [-79.6275312597531, 43.5188667102636], [-79.5914330387924, 43.5520560373643], [-79.5879631036181, 43.5554300509758], [-79.5879567479404, 43.555436231196], [-79.5879503849403, 43.5554424068234], [-79.587944013359, 43.5554485787428], [-79.5879376356931, 43.5554547460846], [-79.5879312506626, 43.5554609106339], [-79.5879248583098, 43.5554670705903], [-79.5879184586346, 43.5554732259539], [-79.5879120515949, 43.5554793785249], [-79.5879056372328, 43.555485526503], [-79.5878992155482, 43.5554916698883], [-79.5878927864993, 43.5554978104811], [-79.5878863513866, 43.5555039455961], [-79.5878799076717, 43.5555100779032], [-79.5878734578722, 43.5555162056327], [-79.5878669994915, 43.5555223296543], [-79.5878605350261, 43.5555284490983], [-79.5878540632172, 43.5555345648495], [-79.5878475828272, 43.5555406768928], [-79.5878410963525, 43.5555467843584], [-79.5878346025343, 43.5555528881314], [-79.5878281026104, 43.5555589882269], [-79.5878215941264, 43.5555650837142], [-79.5878150783199, 43.5555711746087], [-79.5878085563867, 43.5555772627258], [-79.587802027131, 43.5555833462501], [-79.5877954893152, 43.5555894251663], [-79.5877889453937, 43.5555955004049], [-79.5877823941497, 43.5556015710507], [-79.5877758368, 43.5556076380191], [-79.5877692708692, 43.5556137012794], [-79.5877626976159, 43.5556197599468], [-79.5877561182568, 43.5556258149368], [-79.5877495315754, 43.5556318653339], [-79.5877429375504, 43.5556379120383], [-79.587736336203, 43.5556439541497], [-79.5877297275122, 43.5556499925685], [-79.5877231127367, 43.5556560264096], [-79.5877164893799, 43.5556620565427], [-79.5877098599175, 43.5556680829983], [-79.5877032231326, 43.555674104861], [-79.5876965802629, 43.5556801221461], [-79.5876899288121, 43.5556861357232], [-79.5876832712765, 43.5556921447227], [-79.5876766051598, 43.5556981500141], [-79.5876699329584, 43.5557041507279], [-79.5876632546512, 43.5557101477643], [-79.5876565677838, 43.5557161401924], [-79.5876498748107, 43.5557221289431], [-79.5798713777064, 43.5626757111459], [-79.5609468274614, 43.5800486045031], [-79.5542167886446, 43.5862471444763], [-79.5542062100508, 43.5862568799759], [-79.5541956241098, 43.58626661178], [-79.5541850308432, 43.5862763389884], [-79.5541744302511, 43.5862860616012], [-79.5541638223118, 43.5862957805184], [-79.5541532058086, 43.5863054948243], [-79.5541425831966, 43.5863152054502], [-79.5541319532591, 43.5863249114805], [-79.5541213159959, 43.5863346129151], [-79.5541106701473, 43.5863443106385], [-79.5541000182114, 43.5863540037819], [-79.5540893589284, 43.5863636932297], [-79.5540786910814, 43.5863733780661], [-79.5540680171472, 43.5863830583225], [-79.5540573346491, 43.5863927339676], [-79.5540466460422, 43.5864024059327], [-79.5540359501097, 43.5864120733022], [-79.5540252455916, 43.5864217369604], [-79.5540145349864, 43.5864313960386], [-79.5540038158172, 43.5864410505054], [-79.5539930905392, 43.5864507012923], [-79.5539823579355, 43.5864603474834], [-79.553971616768, 43.5864699890633], [-79.5539608694916, 43.5864796269631], [-79.5539501149112, 43.5864892593672], [-79.5539393517237, 43.58649888896], [-79.5539285824705, 43.5865085130728], [-79.5539178058702, 43.5865181334899], [-79.5539070219442, 43.5865277493113], [-79.5538962306711, 43.5865373614371], [-79.5538854308556, 43.5865469680514], [-79.5538746249313, 43.5865565709857], [-79.5538638116598, 43.5865661702245], [-79.5538529910842, 43.5865757639673], [-79.5538421631615, 43.5865853540146], [-79.5538313279131, 43.5865949394661], [-79.5538204865559, 43.5866045212377], [-79.5538096366564, 43.5866140974977], [-79.553798779388, 43.5866236709623], [-79.5537879148157, 43.5866332389309], [-79.553777044156, 43.5866428023195], [-79.5537661649109, 43.5866523619968], [-79.5537552783401, 43.5866619170784], [-79.5537443856605, 43.5866714684799], [-79.5537334856768, 43.5866810143857], [-79.5537225771076, 43.5866905565801], [-79.5537116624511, 43.5867000941944], [-79.5537007404689, 43.5867096272129], [-79.5536898111396, 43.5867191565358], [-79.5536788744847, 43.5867286812629], [-79.5536679305041, 43.5867382013943], [-79.5536569791979, 43.5867477169299], [-79.5536460217829, 43.5867572287855], [-79.5536350558254, 43.5867667351295], [-79.5536240825208, 43.5867762377779], [-79.5536131031288, 43.5867857358462], [-79.5536021163897, 43.5867952302188], [-79.5535911211081, 43.5868047190799], [-79.5535801197177, 43.5868142042609], [-79.5535691110017, 43.5868236848461], [-79.55355809496, 43.5868331608356], [-79.5535470728094, 43.5868426331451], [-79.5535360421165, 43.586852099943], [-79.5535250053146, 43.5868615630609], [-79.5535139599488, 43.5868710215672], [-79.5535029084957, 43.5868804754935], [-79.5534918496954, 43.5868899257241], [-79.553480783591, 43.5868993704588], [-79.5534697101394, 43.5869088114978], [-79.5534586293622, 43.586918247941], [-79.5534475412593, 43.5869276797883], [-79.5534364470691, 43.5869371070555], [-79.5534253455532, 43.586946529727], [-79.5534142366901, 43.5869559487027], [-79.553403120523, 43.5869653621824], [-79.5533919970086, 43.5869747719665], [-79.5533808661686, 43.5869841771547], [-79.5533697280029, 43.5869935777472], [-79.5533585837284, 43.5870029746596], [-79.5533474321498, 43.587012366076], [-79.5533362732239, 43.5870217537967], [-79.553325106994, 43.5870311360215], [-79.5533139334168, 43.5870405145505], [-79.5533027537523, 43.5870498884994], [-79.5532915655238, 43.5870592578368], [-79.553280371208, 43.587068622594], [-79.553269169545, 43.5870779836555], [-79.5532579605779, 43.5870873392209], [-79.5532467455019, 43.5870966911064], [-79.5532355218835, 43.5871060374802], [-79.5532242921562, 43.5871153801739], [-79.5532130551032, 43.5871247182718], [-79.5532018107246, 43.5871340517739], [-79.5531905590203, 43.58714338068], [-79.5531793012286, 43.587152705006], [-79.5531680361113, 43.5871620247362], [-79.5531567636684, 43.5871713398704], [-79.5531454838782, 43.5871806513089], [-79.5531341967839, 43.5871899572514], [-79.5531229035807, 43.5871992595139], [-79.5531116030734, 43.5872085562803], [-79.5531002952189, 43.587217849351], [-79.5530889800387, 43.5872271378258], [-79.5530776587711, 43.5872364217204], [-79.5530663289396, 43.5872457010035], [-79.5530549930208, 43.5872549757063], [-79.5530436510145, 43.5872642458289], [-79.5530323004444, 43.58727351134], [-79.5530209437868, 43.5872827722708], [-79.5530095798036, 43.5872920286058], [-79.5529982084947, 43.5873012803448], [-79.5529868298601, 43.587310527488], [-79.5529754451382, 43.5873197700509], [-79.5529640530691, 43.587329008918], [-79.5529526536958, 43.5873382422891], [-79.5529412482353, 43.58734747108], [-79.5529298354274, 43.5873566961752], [-79.5529184153155, 43.5873659157742], [-79.5529069878779, 43.5873751307774], [-79.552895553093, 43.5873843420847], [-79.5528841122424, 43.5873935479117], [-79.5528726640445, 43.5874027500429], [-79.5528612097808, 43.5874119466938], [-79.5528497469316, 43.5874211396331], [-79.5528382780166, 43.5874303270921], [-79.5528268030142, 43.5874395099708], [-79.5528153194262, 43.5874486891381], [-79.5528038297725, 43.587457862825], [-79.5527923327716, 43.587467032816], [-79.5527808297048, 43.5874761973267], [-79.5527693180741, 43.5874853572258], [-79.5527578003343, 43.5874945134447], [-79.5527462765289, 43.5875036641832], [-79.5527347441594, 43.5875128103101], [-79.5527232057026, 43.5875219518568], [-79.5527116611584, 43.5875310888231], [-79.5527001080286, 43.587540222078], [-79.5526885488331, 43.5875493498525], [-79.5526769823119, 43.587558473031], [-79.5526654097033, 43.5875675916292], [-79.552653829769, 43.5875767056315], [-79.552642242509, 43.5875858150378], [-79.5526306491833, 43.5875949189637], [-79.5526190485103, 43.5876040191938], [-79.5526074405116, 43.5876131148278], [-79.5525958251873, 43.5876222058659], [-79.5525842037971, 43.5876312914237], [-79.552572576298, 43.5876403733012], [-79.5525609402565, 43.5876494496669], [-79.5525492981276, 43.5876585214524], [-79.5525376498898, 43.5876675895576], [-79.5525259943479, 43.5876766521668], [-79.5525143314803, 43.58768571018], [-79.552502661287, 43.5876947635972], [-79.5524909850063, 43.5877038124341], [-79.5524793014215, 43.5877128557748], [-79.5524676117278, 43.5877218954354], [-79.5524559147084, 43.5877309305], [-79.5524442103849, 43.5877399600684], [-79.5524324999741, 43.5877489850566], [-79.5524207822159, 43.5877580063488], [-79.5524090571537, 43.587767022145], [-79.5523973260041, 43.5877760333608], [-79.5523855887671, 43.5877850399962], [-79.5523738429877, 43.5877940411199], [-79.5523620910994, 43.5878030385633], [-79.5523503331452, 43.5878120305263], [-79.5523385678438, 43.5878210187934], [-79.5523267952383, 43.5878300015644], [-79.5523150165454, 43.587838979755], [-79.5523032305269, 43.5878479533496], [-79.5522914371826, 43.5878569223482], [-79.5522796377726, 43.5878658858663], [-79.5522678322536, 43.5878748457041], [-79.5522560194305, 43.5878838000458], [-79.5522441992817, 43.5878927497915], [-79.5522323730456, 43.5879016949568], [-79.5522205394837, 43.5879106355261], [-79.5522086985962, 43.5879195714993], [-79.5521968516428, 43.5879285019921], [-79.5521849986022, 43.5879374279045], [-79.5521731382358, 43.5879463492209], [-79.5521612705437, 43.5879552659412], [-79.5521493967643, 43.5879641780811], [-79.5521375156592, 43.587973085625], [-79.5521256284883, 43.5879819876883], [-79.5521137339917, 43.5879908851557], [-79.5521018321694, 43.5879997780269], [-79.5520899242597, 43.5880086663178], [-79.5520780102843, 43.5880175491282], [-79.5520660889616, 43.5880264282426], [-79.5520541615731, 43.5880353018765], [-79.5520422268589, 43.5880441709144], [-79.5520302848407, 43.5880530344561], [-79.5520183367134, 43.5880618943174], [-79.5520063812821, 43.5880707486826], [-79.5519944197633, 43.5880795984674], [-79.5519824521573, 43.5880884436718], [-79.5519704772471, 43.58809728338], [-79.5519584949896, 43.5881061193923], [-79.5519465066664, 43.5881149499239], [-79.5519345110174, 43.5881237758595], [-79.5519225093027, 43.5881325963146], [-79.5519105014791, 43.5881414130894], [-79.5518984863513, 43.588150224368], [-79.5518864638978, 43.5881590310505], [-79.5518744353786, 43.5881678322524], [-79.5518624007505, 43.588176629774], [-79.5518503588181, 43.5881854217994], [-79.5518383095601, 43.5881942092287], [-79.5518262542364, 43.5882029911775], [-79.5518141928253, 43.5882117685458], [-79.5518021240885, 43.588220541318], [-79.5517900492643, 43.5882293095098], [-79.5517779671144, 43.5882380731055], [-79.5517658788988, 43.5882468312206], [-79.5517537833574, 43.5882555847396], [-79.5517416817503, 43.588264332778], [-79.5517295728175, 43.5882730762203], [-79.5517174577974, 43.5882818150822], [-79.5517053366898, 43.5882905493636], [-79.5516932082566, 43.5882992790489], [-79.5516810737577, 43.5883080032535], [-79.5516689319546, 43.588316721962], [-79.5516567840425, 43.5883254369901], [-79.5516446288264, 43.588334146522], [-79.5516324675229, 43.5883428514733], [-79.5516202988937, 43.5883515518286], [-79.5516081241987, 43.5883602467032], [-79.5515959434164, 43.5883689369975], [-79.55158375533, 43.5883776217954], [-79.5515715611563, 43.5883863020128], [-79.5515593608951, 43.5883949776498], [-79.5515471533083, 43.5884036486907], [-79.5515349396557, 43.5884123142509], [-79.5515227186774, 43.588420975215], [-79.5515104916334, 43.5884296306984], [-79.5514982572421, 43.5884382824859], [-79.5514860168066, 43.5884469278925], [-79.5514737702621, 43.5884555696189], [-79.5514615164136, 43.5884642058489], [-79.5514492564777, 43.5884728374985], [-79.5514369904761, 43.5884814636674], [-79.5514247171487, 43.5884900852402], [-79.5514124377341, 43.5884987022324], [-79.5514001510152, 43.5885073137284], [-79.5513878582091, 43.5885159206438], [-79.5513755593156, 43.5885245229788], [-79.551363253118, 43.5885331198175], [-79.5513509408331, 43.5885417120756], [-79.5513386224824, 43.5885502988531], [-79.551326296806, 43.5885588810344], [-79.5513139650639, 43.5885674577351], [-79.5513016272128, 43.5885760307554], [-79.5512892820792, 43.5885845973792], [-79.5512769308367, 43.5885931603227], [-79.5512645735284, 43.5886017177855], [-79.551252208916, 43.588610269752], [-79.5512398381947, 43.588618818038], [-79.5512274614293, 43.5886273599434], [-79.5512150773165, 43.5886358981526], [-79.551202687138, 43.5886444308811], [-79.5511902908938, 43.588652958129], [-79.5511778873239, 43.5886614807807], [-79.5511654776666, 43.5886699988519], [-79.5511530619436, 43.5886785114423], [-79.5511406388949, 43.5886870194366], [-79.5511282097804, 43.5886955219502], [-79.5511157745786, 43.5887040198832], [-79.5511033332895, 43.5887125132358], [-79.5510908846963, 43.5887210010919], [-79.5510784300373, 43.5887294834674], [-79.5510659680527, 43.5887379612466], [-79.5510535012191, 43.588746434461], [-79.5510410270814, 43.588754902179], [-79.5510285468563, 43.5887633653164], [-79.5510160593271, 43.5887718229575], [-79.551003566949, 43.5887802760337], [-79.5509910672668, 43.5887887236135], [-79.5509785602589, 43.588797166597], [-79.5509660484236, 43.5888056041156], [-79.5509535292626, 43.5888140370379], [-79.5509410040143, 43.5888224653796], [-79.5509284727003, 43.5888308882407], [-79.5509159340822, 43.5888393056053], [-79.5509033893767, 43.5888477183894], [-79.550890838584, 43.5888561265929], [-79.5508782817255, 43.5888645293157], [-79.5508657175629, 43.5888729265421], [-79.5508531485513, 43.5888813192035], [-79.5508405722141, 43.5888897072687], [-79.5508279885727, 43.5888980898375], [-79.550815400104, 43.5889064669413], [-79.5508028043097, 43.5889148394488], [-79.5507902024495, 43.5889232064756], [-79.5507775945021, 43.5889315689218], [-79.5507649804674, 43.5889399267873], [-79.5507523591286, 43.5889482791565], [-79.5507397329624, 43.5889566260606], [-79.5507270994705, 43.5889649683684], [-79.5507144586746, 43.5889733051798], [-79.5507018130297, 43.5889816374263], [-79.5506891613191, 43.5889899641921], [-79.5506765022828, 43.5889982863615], [-79.5506638371807, 43.5890066030502], [-79.550651166013, 43.5890149142582], [-79.5506384875196, 43.5890232208698], [-79.5506258041773, 43.5890315229165], [-79.5506131135308, 43.5890398194668], [-79.5506004168187, 43.5890481105363], [-79.5505877140192, 43.5890563970252], [-79.5505750051541, 43.5890646780333], [-79.5505622902016, 43.5890729544609], [-79.550549567945, 43.5890812253919], [-79.5505368408612, 43.5890894908579], [-79.5505241064516, 43.5890977517276], [-79.5505113659547, 43.5891060080166], [-79.5504986193921, 43.5891142588248], [-79.5504858655255, 43.5891225041366], [-79.5504731068315, 43.5891307439833], [-79.5504603408119, 43.5891389792337], [-79.5504475699433, 43.5891472099191], [-79.5504347917706, 43.589155435108], [-79.5504220075323, 43.5891636548162], [-79.5504092172066, 43.5891718699437], [-79.5503964208153, 43.5891800795904], [-79.5503836171199, 43.5891882837406], [-79.5503708085755, 43.5891964833259], [-79.5503579927271, 43.5892046774147], [-79.5503451720298, 43.5892128669385], [-79.5503323440284, 43.5892210509659], [-79.5503195099613, 43.5892292295124], [-79.5503066698069, 43.5892374034783], [-79.5502938235869, 43.5892455719633], [-79.5502809700627, 43.5892537349519], [-79.5502681116897, 43.5892618933755], [-79.5502552472509, 43.5892700463182], [-79.5502423754865, 43.5892781946646], [-79.5502294988948, 43.5892863375459], [-79.550216614999, 43.5892944749307], [-79.550203725016, 43.5893026077348], [-79.5501908289673, 43.5893107350581], [-79.5501779280912, 43.5893188569162], [-79.5501650198895, 43.589326974178], [-79.5501521056221, 43.5893350859589], [-79.5501391840507, 43.5893431922433], [-79.5501262576304, 43.5893512939628], [-79.5501133251444, 43.5893593902013], [-79.5501003865927, 43.5893674809591], [-79.5500874419537, 43.5893755671362], [-79.5500744900107, 43.5893836478167], [-79.5500615332404, 43.5893917230321], [-79.5500485691444, 43.589399793651], [-79.5500356002212, 43.5894078588049], [-79.5500226239939, 43.5894159184622], [-79.5500096429177, 43.5894239735544], [-79.5499966545374, 43.5894320231502], [-79.5499836613299, 43.5894400672808], [-79.5499706607967, 43.5894481068149], [-79.5499576542195, 43.5894561399681], [-79.5499446427718, 43.5894641694563], [-79.5499316240416, 43.5894721925479], [-79.5499185992242, 43.5894802110588], [-79.5499055695795, 43.5894882241045], [-79.5498925326307, 43.5894962316536], [-79.5498794895947, 43.589504234622], [-79.5498664405147, 43.5895122312094], [-79.5498533865642, 43.5895202241319], [-79.5498403253312, 43.5895282106577], [-79.549827258011, 43.5895361926028], [-79.5498141858635, 43.5895441690826], [-79.549801106412, 43.5895521400659], [-79.5497880221332, 43.589560105584], [-79.5497749305287, 43.5895680665057], [-79.5497618328587, 43.5895760219465], [-79.5497487303614, 43.5895839719221], [-79.5497356205384, 43.5895919173012], [-79.5497225058882, 43.5895998572152], [-79.5497093839339, 43.5896077916325], [-79.5496962571524, 43.5896157205847], [-79.5496831242837, 43.5896236449561], [-79.5496699841325, 43.5896315629308], [-79.5496568391325, 43.5896394763404], [-79.5496436880452, 43.5896473851692], [-79.5496305309139, 43.589655287617], [-79.5496173676954, 43.5896631854841], [-79.5496041984112, 43.5896710778702], [-79.5495910230614, 43.5896789647754], [-79.549577841646, 43.5896868461997], [-79.5495646541434, 43.5896947230432], [-79.5495514618351, 43.5897025935214], [-79.5495382622012, 43.5897104594031], [-79.54952505648, 43.5897183207039], [-79.5495118459532, 43.5897261756395], [-79.5494986293392, 43.5897340259942], [-79.5494854054212, 43.5897418708523], [-79.549472176676, 43.5897497102452], [-79.5494589418651, 43.5897575441572], [-79.5494457009887, 43.5897653725883], [-79.549432454025, 43.5897731964385], [-79.549419202234, 43.5897810148235], [-79.5494059431391, 43.5897888277119], [-79.549392679217, 43.589796635135], [-79.5493794079908, 43.5898044370615], [-79.5493661319158, 43.5898122344228], [-79.5493528497753, 43.5898200263033], [-79.5493395615907, 43.5898278118026], [-79.5493262672973, 43.5898355936213], [-79.5493129669599, 43.5898433690588], [-79.5492996605569, 43.5898511390155], [-79.5492863493051, 43.589858904407], [-79.5492730320093, 43.5898666634174], [-79.5492597086263, 43.589874417847], [-79.5492463791777, 43.5898821667957], [-79.5492330436419, 43.5898899111634], [-79.5492197020621, 43.5898976491502], [-79.5492063544167, 43.5899053816559], [-79.5491930019225, 43.5899131095965], [-79.5491796433627, 43.5899208320561], [-79.5491662787374, 43.5899285490348], [-79.5491529080464, 43.5899362605325], [-79.5491395312899, 43.5899439665492], [-79.5491261497061, 43.5899516671006], [-79.5491127608185, 43.5899593621553], [-79.5490993670819, 43.589967052645], [-79.5490859672799, 43.5899747376535], [-79.5490725626722, 43.5899824162968], [-79.549059150739, 43.5899900903434], [-79.5490457339785, 43.5899977589248], [-79.5490323111309, 43.5900054229253], [-79.5490188822394, 43.5900130805446], [-79.5490054472823, 43.590020732683], [-79.5478196894449, 43.5906957010103], [-79.5463339695736, 43.5915660408706], [-79.5418220477363, 43.593814650263]]}, "properties": {"name": "GO Lakeshore West"}}]}