{"type": "FeatureCollection", "crs": {"type": "name", "properties": {"name": "EPSG:4326"}}, "features": [{"type": "Feature", "id": 1, "geometry": {"type": "MultiLineString", "coordinates": [[[-79.5841799259362, 43.5570248093655], [-79.5856271845008, 43.5580671087328], [-79.5980755957771, 43.5670300090848], [-79.5994503515615, 43.5678969506434], [-79.6009763430421, 43.568958396343], [-79.6021488540706, 43.5700932251102], [-79.6040776306812, 43.5716760732663], [-79.616629583241, 43.5804285969291], [-79.6168255797803, 43.5805441981912], [-79.6264083521871, 43.5873449400469], [-79.6350565583279, 43.5936801007297]], [[-79.6350565583279, 43.5936801007297], [-79.6362164193844, 43.5927216967988], [-79.6368914443235, 43.5921614865237], [-79.6376921639911, 43.591580192721], [-79.6415915669315, 43.5882324099942], [-79.6466956779269, 43.5913835208985], [-79.6488964659787, 43.5927371963036], [-79.6472373184879, 43.5942431827088], [-79.6456140411788, 43.5957168003296], [-79.6447119125723, 43.5966971486897], [-79.6425739792758, 43.5992721915365]], [[-79.6350565583279, 43.5936801007297], [-79.6367180667533, 43.5948969980276], [-79.6425739792758, 43.5992721915365]], [[-79.6425739792758, 43.5992721915365], [-79.6447376832099, 43.6008885493267], [-79.6463277107941, 43.6020596778083], [-79.646334903534, 43.6020649709123], [-79.6463421038284, 43.6020702587029], [-79.6463493104185, 43.6020755420656], [-79.6463565233042, 43.6020808210003], [-79.6463637425058, 43.602086094607], [-79.6463709680029, 43.6020913637858], [-79.6463782010344, 43.6020966285514], [-79.6463854403817, 43.6021018879888], [-79.6463926860247, 43.6021071429984], [-79.6463999379834, 43.6021123926799], [-79.6464071974765, 43.6021176379481], [-79.6464144632854, 43.6021228778883], [-79.64642173539, 43.6021281134005], [-79.6464290137901, 43.6021333444848], [-79.6464362985061, 43.602138570241], [-79.6464435907565, 43.602143791584], [-79.6464508893226, 43.6021490075989], [-79.6464581941843, 43.6021542191858], [-79.6464655053619, 43.6021594254447], [-79.6464728228352, 43.6021646272757], [-79.6464801478427, 43.6021698246934], [-79.6464874779274, 43.6021750167683], [-79.6464948155666, 43.6021802035298], [-79.6465021594812, 43.6021853867636], [-79.6465095097318, 43.602190563769], [-79.6465168662781, 43.6021957363466], [-79.6465242303587, 43.6022009045108], [-79.6465315995164, 43.6022060673323], [-79.6465389762085, 43.6022112257406], [-79.6465463592163, 43.6022163788207], [-79.64655374854, 43.6022215265727], [-79.6465611441593, 43.6022266698968], [-79.6465685460743, 43.6022318087929], [-79.646575954305, 43.602236942361], [-79.6465833688516, 43.6022420706009], [-79.6465907909326, 43.6022471944275], [-79.6465982180704, 43.6022523138116], [-79.6466056527628, 43.6022574278822], [-79.6466130925323, 43.60226253661], [-79.6466205398361, 43.6022676409245], [-79.6466279934557, 43.6022727399109], [-79.646635453371, 43.6022778344694], [-79.6466429196021, 43.6022829236997], [-79.6466503909103, 43.6022880075872], [-79.6466578697528, 43.6022930870615], [-79.6466653548909, 43.6022981621078], [-79.6466728475836, 43.6023032318406], [-79.6466803453534, 43.6023082962307], [-79.646687849439, 43.6023133552926], [-79.6466953598, 43.6023184108267], [-79.6467028764971, 43.6023234601325], [-79.6467103994898, 43.6023285050104], [-79.646717930037, 43.6023335445748], [-79.6467254656411, 43.6023385796966], [-79.646733007561, 43.6023436094902], [-79.6467636998577, 43.602362048419], [-79.6467718485155, 43.6023674824702], [-79.6467799908805, 43.6023729209484], [-79.646788128171, 43.6023783647683], [-79.6467962579299, 43.6023838130005], [-79.6468043826145, 43.6023892665744], [-79.6468125010062, 43.6023947245753], [-79.6468206130848, 43.6024001879032], [-79.6468287188704, 43.6024056556581], [-79.6468368196019, 43.6024111278546], [-79.6468449127816, 43.6024166053635], [-79.6468530009071, 43.602422087314], [-79.6468610814808, 43.6024275745769], [-79.6468691570003, 43.6024330662815], [-79.6468772262068, 43.6024385633131], [-79.6468852891405, 43.6024440638715], [-79.6468933457409, 43.6024495706572], [-79.6469013960687, 43.6024550809696], [-79.6469094400631, 43.6024605975093], [-79.6469174777849, 43.6024661175758], [-79.6469255104322, 43.6024716429841], [-79.646933535548, 43.6024771728047], [-79.6469415555894, 43.602482707967], [-79.6469495680992, 43.6024882475416], [-79.6469575755548, 43.6024937915578], [-79.6469655754586, 43.6024993408865], [-79.6469735703082, 43.6025048946568], [-79.6469815588649, 43.602510452854], [-79.6469895411085, 43.6025160163784], [-79.6469975158206, 43.602521584315], [-79.6470054854784, 43.6025271566933], [-79.6470134488231, 43.6025327343988], [-79.647021405875, 43.6025383165311], [-79.6470293566138, 43.6025439039906], [-79.6470373010798, 43.6025494949769], [-79.6470452392126, 43.6025550921905], [-79.6470531710727, 43.6025606929308], [-79.647061095381, 43.6025662989837], [-79.6470690146351, 43.6025719094782], [-79.6470769275963, 43.6025775243996], [-79.6470848342445, 43.6025831446482], [-79.6470927345997, 43.6025887693237], [-79.647100628662, 43.6025943984263], [-79.6471085164314, 43.6026000319558], [-79.6471163966491, 43.6026056707978], [-79.6471242718126, 43.6026113140814], [-79.6471321406629, 43.6026169626921], [-79.6471400032406, 43.6026226148297], [-79.6471478582665, 43.6026282722798], [-79.6532600327346, 43.6070330501213], [-79.6532647742614, 43.6070364635817], [-79.653269523342, 43.6070398717284], [-79.6532742774787, 43.6070432754326], [-79.6532790391693, 43.6070466738231], [-79.6532838058959, 43.6070500686712], [-79.6532885789376, 43.6070534581911], [-79.6532933582742, 43.6070568432829], [-79.6532981439057, 43.6070602239467], [-79.6533029358322, 43.6070636001824], [-79.6533077340536, 43.6070669719902], [-79.65331253859, 43.6070703384696], [-79.6533173481625, 43.6070737014067], [-79.65332216405, 43.6070770590155], [-79.6533269862324, 43.6070804121963], [-79.6533318147299, 43.6070837600489], [-79.6533366495022, 43.6070871043736], [-79.6533414905896, 43.60709044337], [-79.653346336733, 43.6070937779239], [-79.6533511891915, 43.6070971071495], [-79.6533560479249, 43.6071004328473], [-79.6533609129733, 43.6071037532168], [-79.6533657843166, 43.6071070691583], [-79.6533706607361, 43.607110379757], [-79.6533755434506, 43.6071136859276], [-79.6533804324399, 43.6071169885703], [-79.6533853277643, 43.6071202849847], [-79.6533902281248, 43.6071235778566], [-79.6533951348003, 43.6071268654002], [-79.6547866824398, 43.6080606700753], [-79.6547926881101, 43.6080646926139], [-79.654798686248, 43.6080687195655], [-79.654804679311, 43.6080727518596], [-79.6548106660804, 43.6080767885812], [-79.6548166465361, 43.6080808306307], [-79.6548226206983, 43.6080848771077], [-79.6548285885468, 43.6080889289126], [-79.6548345513405, 43.6080929851596], [-79.6548405065817, 43.6080970467199], [-79.6548464555293, 43.6081011127078], [-79.6548523994222, 43.6081051831379], [-79.6548583357626, 43.6081092588812], [-79.6548642670482, 43.6081133390667], [-79.6548701907813, 43.6081174245654], [-79.6548761094596, 43.6081215145063], [-79.6548820205855, 43.6081256097605], [-79.6548879266766, 43.6081297085567], [-79.6548938264341, 43.6081338135808], [-79.6548997186791, 43.6081379221179], [-79.6549056058494, 43.6081420359973], [-79.6549114854671, 43.60814615519], [-79.6549173600301, 43.6081502788248], [-79.6549232282995, 43.6081544068874], [-79.6549290890364, 43.6081585393629], [-79.6549349446986, 43.6081626771809], [-79.6549407928283, 43.6081668194119], [-79.6549466358831, 43.6081709669853], [-79.6549524714256, 43.6081751180716], [-79.6549583018733, 43.6081792754004], [-79.6549641248085, 43.6081834362422], [-79.6549699414301, 43.6081876024117], [-79.6549757517582, 43.6081917730089], [-79.6549815570314, 43.6081959480483], [-79.6549873547521, 43.608200128401], [-79.6549931461793, 43.6082043131813], [-79.654998930074, 43.6082085023747], [-79.6550047088939, 43.6082126969105], [-79.6550104814202, 43.6082168958739], [-79.6550162464141, 43.6082210992504], [-79.6550220063532, 43.6082253070692], [-79.6550277587398, 43.6082295202012], [-79.6550335048329, 43.6082337377608], [-79.6550392446323, 43.6082379597481], [-79.6550449781382, 43.6082421861631], [-79.6550507053304, 43.6082464179058], [-79.7202115148901, 43.6563896659915], [-79.7331599307148, 43.6660320904111], [-79.7599321026841, 43.6858883030678]]]}, "properties": {"name": "Hurontario LRT"}}]}