{"type": "FeatureCollection","features": [{"type": "Feature","properties": {"name": "Erin Mills LRT / BRT","status": "proposed","note": "Proposed rapid transit along Erin Mills Parkway and Southdown Road from Derry Road to Clarkson GO (on-road termini)","source": "City of Mississauga Major Roads (Erin Mills Parkway + Southdown Road)"},"geometry": {"type": "LineString","coordinates": [[-79.6320214582055,43.512603725305],[-79.6322673738437,43.5127857646787],[-79.6330508701862,43.5133865703697],[-79.6332192480221,43.5135160930703],[-79.6343378990625,43.5143585689077],[-79.6347965097176,43.5147081416808],[-79.635441206037,43.5151856641811],[-79.635726009516,43.5153977685549],[-79.6365936802956,43.5160378750109],[-79.6372489087122,43.5165125009698],[-79.6375050574229,43.5166970487832],[-79.6393060805272,43.5180091856035],[-79.640928956404,43.5191920061726],[-79.6439037569633,43.5213776109395],[-79.6450707457201,43.5222441398268],[-79.6464044298682,43.5232108494898],[-79.6475032504748,43.524025877245],[-79.6477789410191,43.5242262210323],[-79.647856668275,43.5242823969615],[-79.647931728759,43.5243366459274],[-79.6481809397944,43.5245243624059],[-79.6497819961618,43.5256539144595],[-79.6514566505786,43.5268150414578],[-79.6524206335596,43.5274389633925],[-79.6530332153643,43.5278354376062],[-79.6544355912121,43.5288073823976],[-79.6547901157149,43.5290397769216],[-79.6558287802856,43.5297206345376],[-79.6568788697745,43.5304089561604],[-79.6570767103438,43.5305444766343],[-79.6580398959518,43.5312042536063],[-79.6597485885912,43.5323746378051],[-79.6625427317107,43.5343027754652],[-79.6653253534693,43.5362316859483],[-79.6662188383325,43.5368536422088],[-79.6679625497938,43.538065543115],[-79.6680247552983,43.5381107014349],[-79.6689519000527,43.5387720044985],[-79.6696882139364,43.539300128108],[-79.6697666002533,43.5393579570732],[-79.6698463855085,43.5394147658888],[-79.6699275391229,43.5394705379888],[-79.6700100392778,43.5395252524068],[-79.6700938652532,43.5395788944925],[-79.6701789827964,43.5396314458361],[-79.670265372503,43.539682888201],[-79.6703100125419,43.5397085217213],[-79.670352998724,43.5397332103647],[-79.6704418395994,43.5397823931615],[-79.6705318644688,43.5398304236262],[-79.6706230489176,43.5398772861652],[-79.670715358691,43.5399229623692],[-79.6708087680575,43.5399674402308],[-79.6709032501464,43.5400107032277],[-79.6709987691681,43.5400527464391],[-79.6710953008647,43.5400935470701],[-79.671192810782,43.5401330957136],[-79.6712912744443,43.5401713794767],[-79.6713906462599,43.5402083888232],[-79.6714909142058,43.5402441074035],[-79.6715920326108,43.540278529282],[-79.671693977077,43.5403116379657],[-79.6717967069022,43.5403434266766],[-79.6719001999652,43.5403738879522],[-79.6720044206711,43.5404030078708],[-79.6721093345636,43.5404307770261],[-79.6722149058891,43.5404571886981],[-79.672321107655,43.5404822317664],[-79.6724279039691,43.5405059058126],[-79.6725352593342,43.5405281924145],[-79.6726385262876,43.5405482308387],[-79.6737710335681,43.5408316129265],[-79.6748405172624,43.5410992127622],[-79.6749408207481,43.5411273661741],[-79.6750403981266,43.5411568589976],[-79.6751392124766,43.5411876818022],[-79.6752372256395,43.5412198251437],[-79.6753344132062,43.5412532734344],[-79.6754307369979,43.5412880181302],[-79.6755261601711,43.5413240462007],[-79.675620659396,43.5413613492741],[-79.6757141954919,43.5413999079902],[-79.6758067401191,43.5414397166205],[-79.6758982663922,43.5414807595491],[-79.6759887313975,43.5415230182732],[-79.6760781155158,43.5415664844643],[-79.6761663808222,43.5416111378767],[-79.6762535053009,43.5416569665527],[-79.6763394509079,43.5417039556477],[-79.6764241932111,43.5417520904751],[-79.6765077029858,43.5418013490892],[-79.6765899495134,43.5418517212324],[-79.676670909795,43.5419031832308],[-79.6767505506958,43.5419557220975],[-79.6768288502961,43.5420093213743],[-79.6769057757163,43.5420639563721],[-79.6769365528471,43.5420863879609],[-79.6796814422194,43.5439919797205],[-79.6798710616121,43.5441216731974],[-79.6817087103077,43.5453775761335],[-79.6823898280429,43.5458443743918],[-79.6832725489529,43.5464358728894],[-79.6842327615065,43.5470961672415],[-79.6852522806677,43.5477886319407],[-79.6872117853304,43.5491557288653],[-79.6877388374845,43.549523779405],[-79.6879010549245,43.5496355473054],[-79.6884931239839,43.5500445790166],[-79.6886004117694,43.5501153908446],[-79.6887090254483,43.5501851273843],[-79.6888189354917,43.5502537801895],[-79.6889301273784,43.550321333783],[-79.6890425778645,43.5503877752887],[-79.6891562699528,43.550453089201],[-79.6892711752727,43.5505172706891],[-79.6893872806367,43.550580299789],[-79.6895045589307,43.5506421707838],[-79.6896229881665,43.5507028699117],[-79.6897425463751,43.5507623825108],[-79.6898772312301,43.5508272808213],[-79.6920303924958,43.5518727338399],[-79.6947367198779,43.5531325853261],[-79.6962767602414,43.5538532308893],[-79.6964290086688,43.5539274023997],[-79.6965006328103,43.5539620745407],[-79.6968057084559,43.5540990827009],[-79.6968857068502,43.5541364657575],[-79.6970257692737,43.5542019148528],[-79.6987158541405,43.5550048683984],[-79.6999025924566,43.5555671250711],[-79.7020045268051,43.5565522027404],[-79.7030924424882,43.5571003318715],[-79.7042539030768,43.5576318694681],[-79.7056759575877,43.5582855260918],[-79.7060783893809,43.558472358083],[-79.7065871039449,43.5587510633464],[-79.7067347174175,43.5588485369677],[-79.7067578212204,43.5588624161333],[-79.7068635242229,43.5589277714651],[-79.706967930021,43.558994220429],[-79.7070710265838,43.5590617466851],[-79.7071727832938,43.5591303345837],[-79.7072731856053,43.5591999695572],[-79.707372208916,43.5592706441278],[-79.7074698388337,43.5593423365263],[-79.7075660458038,43.5594150392191],[-79.7076392126799,43.5594717413049],[-79.7090561718054,43.5605299643807],[-79.7103885820759,43.5615264374726],[-79.7107704848256,43.5618073742019],[-79.7133691228915,43.5637189213266],[-79.7162758302558,43.5658437316124],[-79.7188485071486,43.5677323533233],[-79.7191149154071,43.5679407803563],[-79.7196942306885,43.5683906472634],[-79.719789117453,43.5684506317562],[-79.7198852956472,43.5685095213296],[-79.7199827308332,43.5685673047898],[-79.7200814148009,43.5686239604318],[-79.7201714860213,43.5686742572245],[-79.7201887479479,43.5686836346466],[-79.7202823948896,43.5687338507301],[-79.7203846483607,43.568787052488],[-79.7204880426478,43.5688390783854],[-79.7205925508159,43.5688899137111],[-79.7206981447106,43.5689395428402],[-79.7208048046339,43.5689879601468],[-79.7209125025073,43.5690351464052],[-79.7210212063088,43.5690810931505],[-79.7210642288135,43.5690988227125],[-79.722502664423,43.5697463702573],[-79.722618531375,43.5698071748238],[-79.7226999206713,43.5698511408798],[-79.722733234674,43.5698691431031],[-79.7228467399423,43.5699322612083],[-79.72295903263,43.5699965145741],[-79.7230700893493,43.5700618966397],[-79.7231798881592,43.5701283909565],[-79.7232884106806,43.5701959883185],[-79.7233956325528,43.5702646695489],[-79.7235015329008,43.5703344263144],[-79.723606099687,43.570405242277],[-79.7237093022072,43.5704771053921],[-79.7238111208806,43.57055000464],[-79.7239115461826,43.5706239219098],[-79.7240105474653,43.5706988424565],[-79.7241081125561,43.5707747562434],[-79.7241839930556,43.5708352821739],[-79.7270155502204,43.5729223286772],[-79.7274651717911,43.5732423936474],[-79.7279623948194,43.5735963448357],[-79.7280424802555,43.5736577280441],[-79.7281211135612,43.57372009269],[-79.7281982740091,43.5737834232387],[-79.7282739397284,43.5738476996408],[-79.7283480950953,43.5739128992155],[-79.7284207093817,43.5739790108188],[-79.7284917656872,43.5740460135563],[-79.7285612422152,43.5741138837779],[-79.7286291219892,43.5741826041899],[-79.7286953782023,43.5742521537877],[-79.7287599975729,43.5743225162188],[-79.7288229620175,43.5743936678745],[-79.7288842497192,43.5744655860046],[-79.7289438473573,43.5745382560572],[-79.7290017307706,43.5746116489533],[-79.7290578903522,43.574685750182],[-79.7290896649821,43.5747290492711],[-79.7300306350715,43.5759222060644],[-79.7300923754425,43.5759947651485],[-79.7301557917172,43.5760665540594],[-79.7302208643911,43.5761375581711],[-79.7302875791576,43.5762077512102],[-79.7303559116722,43.5762771130945],[-79.7304258474009,43.5763456283527],[-79.7304973669322,43.5764132778578],[-79.7305704459962,43.5764800379268],[-79.7306450602469,43.5765458884775],[-79.7307212000451,43.576610816794],[-79.7307988311387,43.5766748026843],[-79.7308779441148,43.57673782263],[-79.7309585044936,43.5767998672415],[-79.7310404930504,43.5768609083895],[-79.7311238901254,43.5769209386497],[-79.7312086714082,43.5769799361392],[-79.7312948075595,43.5770378825214],[-79.7313880571538,43.5770984577352],[-79.7324129952739,43.5778435809735],[-79.7333293296948,43.5785097423659],[-79.7342552094327,43.5791828406421],[-79.7359495184928,43.5804412298134],[-79.7368668968625,43.581122554134],[-79.7378826760991,43.5818761184406],[-79.740037195994,43.5834810068376],[-79.7410864422312,43.5842548139138],[-79.7411514767785,43.5842972369324],[-79.7412151701147,43.5843407220296],[-79.7412774893106,43.584385244534],[-79.7413384062965,43.5844307843297],[-79.7413978844272,43.5844773167047],[-79.741455895745,43.5845248161419],[-79.7415124122915,43.5845732571244],[-79.7415674022242,43.584622622196],[-79.7416208390101,43.5846728768516],[-79.7416726957596,43.5847240036895],[-79.7417229459764,43.5847759664039],[-79.7417715578169,43.5848287475388],[-79.7418185096253,43.5848823162439],[-79.7418637846241,43.5849366453247],[-79.7419073449828,43.5849917073544],[-79.7419491826671,43.5850474716327],[-79.7419892709166,43.5851039144566],[-79.7420275831955,43.5851610013203],[-79.7420641077347,43.5852187023828],[-79.7420988226889,43.5852769957956],[-79.7421317115601,43.5853358408605],[-79.7421627574186,43.5853952175839],[-79.7421919387373,43.5854550888137],[-79.7422192474423,43.5855154256495],[-79.7422446655525,43.5855761990818],[-79.7422681814285,43.5856373729677],[-79.7422897832808,43.5856989183654],[-79.7423026749316,43.5857394560042],[-79.7423094593197,43.5857608063335],[-79.7423272015455,43.5858230043702],[-79.7423429970799,43.5858854763186],[-79.7423568441149,43.5859481897449],[-79.7423687245933,43.5860111192398],[-79.7423804320272,43.5860871792436],[-79.7423915839932,43.5861567817287],[-79.7424007670078,43.5862265363281],[-79.7424079743461,43.5862964087531],[-79.7424132027171,43.5863663782584],[-79.7424164540834,43.5864364097501],[-79.7424177215698,43.5865064761405],[-79.7424170070452,43.5865765468365],[-79.7424143123784,43.5866465912447],[-79.7424096406016,43.5867165823864],[-79.742402988705,43.5867864860126],[-79.7423943571691,43.5868562787177],[-79.7423837579202,43.5869259228156],[-79.7423711938409,43.5869953985284],[-79.7423566619777,43.5870646689064],[-79.7423401776538,43.5871337116073],[-79.7423217416501,43.5872024888218],[-79.74230136929,43.5872709782074],[-79.7422790612609,43.5873391464557],[-79.7422548279515,43.5874069702693],[-79.7422286849107,43.587474416503],[-79.742201772365,43.5875388388054],[-79.7411435128034,43.590181508768],[-79.7409787012733,43.5905930388596],[-79.7397840483275,43.5937748023755],[-79.7396710593842,43.5940757098107],[-79.7393344787613,43.5949720395837],[-79.7391610225087,43.5954303031696],[-79.7391271873512,43.5955351925894],[-79.7390952867016,43.5956404031711],[-79.7390653222968,43.595745911525],[-79.7390373055759,43.5958517042727],[-79.7390112345978,43.5959577561828],[-79.738987117011,43.5960640574368],[-79.7389649559417,43.5961705774564],[-79.7389447590387,43.5962773064229],[-79.7389265255246,43.596384222719],[-79.7389102595769,43.596491304782],[-79.7388959689384,43.5965985382918],[-79.7388836479527,43.5967058979753],[-79.7388733056016,43.5968133695259],[-79.7388649398696,43.5969209313122],[-79.7388585548592,43.5970285653717],[-79.7388541510321,43.5971362501003],[-79.7388517286998,43.5972439710951],[-79.7388512883995,43.5973517031509],[-79.7388528305178,43.597459428264],[-79.7388563504116,43.5975671319765],[-79.7388593096322,43.5976297327805],[-79.7388791022925,43.5978265516004],[-79.7389497577187,43.5983445310726],[-79.7389685368432,43.5984424977678],[-79.7389892778297,43.5985402601],[-79.739011972581,43.5986377909667],[-79.7390366190615,43.5987350696352],[-79.7390632139969,43.5988320753588],[-79.7390917540186,43.5989287918916],[-79.7391222222078,43.5990251992368],[-79.7391546266447,43.5991212668683],[-79.7391889451735,43.5992169882372],[-79.7392251859116,43.5993123310169],[-79.7392633268532,43.5994072814567],[-79.7393033708977,43.5995018197779],[-79.7393443675448,43.5995938798748],[-79.7393700721646,43.5996680585716],[-79.7393976987365,43.5997418694834],[-79.7394272254219,43.5998152907583],[-79.7394586540673,43.5998882936023],[-79.7394919702658,43.5999608562452],[-79.73952715612,43.6000329460737],[-79.7395642095531,43.6001045441545],[-79.7396031063607,43.600175623207],[-79.7396438396801,43.6002461561415],[-79.7396863926636,43.6003161193597],[-79.7397307485385,43.6003854856628],[-79.7397769002908,43.6004542351623],[-79.7398248212378,43.6005223405499],[-79.7398745007429,43.6005897773952],[-79.7399259133051,43.6006565211041],[-79.7399790519095,43.6007225517878],[-79.7400338911297,43.6007878412514],[-79.7400864471323,43.600847840864],[-79.7401485987433,43.6009161173722],[-79.7402084223817,43.6009790522081],[-79.7402698654586,43.6010411584805],[-79.7403147499194,43.6010850129476],[-79.7407499898809,43.601594068601],[-79.7408407690935,43.6016799874566],[-79.7409331169886,43.6017650231149],[-79.7410270053786,43.6018491608552],[-79.7411224309251,43.601932382629],[-79.7412193716335,43.6020146737837],[-79.7413178055086,43.6020960196669],[-79.7414177216288,43.6021764093497],[-79.7415190993309,43.6022558236923],[-79.7416219251961,43.6023342526386],[-79.7417261735121,43.6024116814953],[-79.7418318272369,43.6024880956646],[-79.7419388755411,43.6025634797164],[-79.7420472888821,43.6026378243179],[-79.7421570576686,43.6027111140527],[-79.7421981476741,43.6027380524633],[-79.7425022392876,43.6029614180124],[-79.7429664140582,43.6033054892451],[-79.7434219829031,43.6036341931394],[-79.743741337986,43.6038519992995],[-79.744753221027,43.6045278831946],[-79.7449490284076,43.6046632929006],[-79.7453910955574,43.6049749130758],[-79.7458933807566,43.6053404960705],[-79.7460784133902,43.6054699329952],[-79.7462785556305,43.6056116907802],[-79.7464654187177,43.6057485304527],[-79.7469191868701,43.6060702674658],[-79.7470769700709,43.6061814860239],[-79.7473888969131,43.6064241416559],[-79.7475880225032,43.6065853346857],[-79.7478002123118,43.606755944629],[-79.7483412329893,43.6072029773463],[-79.7489637899982,43.6076988715379],[-79.7490655483926,43.6077746483763],[-79.7491377692222,43.6078294628686],[-79.7492317519342,43.6078925290248],[-79.749265549478,43.6079171628882],[-79.7505072193242,43.608835248943],[-79.7516021938571,43.6096448173006],[-79.7521441714858,43.610046785289]]}}]}