{"type": "FeatureCollection","features": [{"type": "Feature","properties": {"name": "Eglinton Crosstown West Extension","status": "under_construction","operator": "Metrolinx","note": "Short spur east of Renforth along the ECWE corridor using OSM Eglinton Avenue West as a surface proxy (ECWE is largely tunnelled toward Mount Dennis).","source": "OpenStreetMap (Eglinton Avenue West); Metrolinx ECWE project map","source_url": "https://www.metrolinx.com/en/projects-and-programs/eglinton-crosstown-west-extension"},"geometry": {"type": "LineString","coordinates": [[-79.5911106987081,43.6625139276111],[-79.5911864,43.6625363],[-79.5912696,43.6624653],[-79.5911223,43.6623826],[-79.5910449,43.6624515],[-79.5909406,43.6625444],[-79.5906591,43.662795],[-79.590627,43.6629174],[-79.5904886,43.6630435],[-79.5900407,43.6634517],[-79.5900496,43.6635486],[-79.5888763,43.6646374],[-79.5887587,43.6646536],[-79.5886768,43.6647303],[-79.5884794,43.6649307],[-79.5883476,43.6650508],[-79.5883196,43.6651894],[-79.5882338,43.6653035],[-79.5879857,43.665648],[-79.5878758,43.6658568],[-79.587839,43.6659421],[-79.5878244,43.6659677],[-79.5877792,43.6660596],[-79.5877142,43.6661828],[-79.5876841,43.6662548],[-79.5875627,43.6665616],[-79.5874149,43.6668383],[-79.5873553,43.6669541],[-79.5872529,43.6671699],[-79.5871799,43.6673212],[-79.5868878,43.6678383],[-79.5866786,43.6681542],[-79.5866497,43.6682079],[-79.5865976,43.6682893],[-79.5864443,43.6684425],[-79.5862719,43.6686202],[-79.5860692,43.6687736],[-79.5858956,43.6689117],[-79.5854045,43.6692259],[-79.5848828,43.6694629],[-79.5847529,43.6695122],[-79.5844865,43.6695975],[-79.5841906,43.6696737],[-79.5822871,43.6701187],[-79.5818126,43.6702308],[-79.5814246,43.6703165],[-79.5810895,43.6703774],[-79.5807443,43.6704277],[-79.5804948,43.6704565],[-79.580186,43.6704827],[-79.5795358,43.6705211],[-79.578755,43.6705626],[-79.5783748,43.670583],[-79.5780566,43.6706042],[-79.5777518,43.6706338],[-79.5775058,43.6706636],[-79.5772499,43.6707022],[-79.5767154,43.6707926],[-79.5757588,43.6709612],[-79.5738698,43.671291],[-79.573441,43.6713651],[-79.5726978,43.671496],[-79.5723628,43.6715617],[-79.5720384,43.6716407],[-79.5717404,43.6717357],[-79.571726,43.6717403],[-79.5715074,43.6718194],[-79.57131,43.6718874],[-79.5711446,43.6719568],[-79.5710917,43.6719829],[-79.5709448,43.6720674],[-79.5705615,43.6722879],[-79.5695638,43.6728041],[-79.5691809,43.6730123],[-79.5684526,43.6734045],[-79.5683239,43.6734758],[-79.5682121,43.6735658],[-79.568159,43.6736151],[-79.5681061,43.673682],[-79.568046,43.6737986],[-79.5679947,43.6739504],[-79.5679641,43.6740138],[-79.5679215,43.6740525],[-79.5678744,43.6740698],[-79.5677432,43.674094],[-79.5668399,43.6741571],[-79.5665407,43.6741873],[-79.5660919,43.6742941],[-79.5656585,43.6743198],[-79.5650626,43.6743559],[-79.5641165,43.6744366],[-79.5633743,43.6745175],[-79.563252,43.674532],[-79.5630958,43.6745505],[-79.5629966,43.6745623],[-79.5625739,43.6746275],[-79.5618836,43.6746841],[-79.5611765,43.674811],[-79.5594595,43.6752023],[-79.5584243,43.6754594],[-79.5583609,43.6754755],[-79.5579417,43.6755796],[-79.5578127,43.6756117],[-79.5576887,43.6756411],[-79.5575481,43.6756753],[-79.5568067,43.6758456],[-79.5553375,43.6761832],[-79.552726,43.6767832],[-79.5522497,43.6768926],[-79.5511414,43.6771485],[-79.5511105,43.6771556],[-79.5508949,43.6772046],[-79.550673,43.677253],[-79.5506364,43.6772613],[-79.5495879,43.6774988],[-79.5494153,43.6775415],[-79.5490881,43.6776226],[-79.5486304,43.6777212],[-79.5483019,43.6777925],[-79.5479813,43.6778652],[-79.5472521,43.67803],[-79.5466466,43.6781661],[-79.5455194,43.6783964],[-79.5449761,43.6785107],[-79.5448802,43.6785311],[-79.5447588,43.6785571],[-79.544068,43.6787106],[-79.5410008,43.6793895],[-79.5405819,43.6794834],[-79.5400532,43.6796018],[-79.5391669,43.6797963],[-79.5389993,43.6798329],[-79.5388055,43.679871],[-79.537784,43.6800855]]}}]}